{"type":"FeatureCollection","properties":{"source":"SMHI SE.SR Ytansamling av alger","date":"2002-06-26","note":"Test: SMHI WFS clipped to Lulea municipal sea area and simplified 20 m."},"features":[{"type":"Feature","properties":{"cyano_daymap_file_id":2591,"date":"2002-06-26Z","cloud":null,"sub_surfac":null,"surface":null,"no_data":null,"class":1,"color_hex":null,"algae_class":"class_1","source_date":"2002-06-26"},"geometry":{"type":"Polygon","coordinates":[[[22.988334969999997,65.18840727999998],[22.98564199,65.17952177],[22.964498760000005,65.18065166],[22.9671848,65.18953763],[22.988334969999997,65.18840727999998]]]}},{"type":"Feature","properties":{"cyano_daymap_file_id":2591,"date":"2002-06-26Z","cloud":null,"sub_surfac":null,"surface":null,"no_data":null,"class":1,"color_hex":null,"algae_class":"class_1","source_date":"2002-06-26"},"geometry":{"type":"Polygon","coordinates":[[[23.00678321,65.17838891],[23.00408529,65.16950378],[23.008964363394963,65.16924129125472],[23.002086021599,65.1650103332603],[22.982021613701992,65.1539487475862],[22.96256592946692,65.14463676476214],[22.953774509999995,65.14510707],[22.959132659999998,65.1628795],[22.98026201,65.16175053],[22.98564199,65.17952177],[23.00678321,65.17838891]]]}}]}