{"type":"FeatureCollection","properties":{"source":"SMHI SE.SR Ytansamling av alger","date":"2010-08-24","note":"Test: SMHI WFS clipped to Lulea municipal sea area and simplified 20 m."},"features":[{"type":"Feature","properties":{"cyano_daymap_file_id":3392,"date":"2010-08-24Z","cloud":null,"sub_surfac":null,"surface":null,"no_data":null,"class":1,"color_hex":null,"algae_class":"class_1","source_date":"2010-08-24"},"geometry":{"type":"Polygon","coordinates":[[[22.922434189999993,65.25512035999999],[22.91975511,65.24623349],[22.94095305,65.24510931],[22.943639120000004,65.25399572],[22.964842059999995,65.25286811],[22.956768899999997,65.22621005],[22.91440291,65.22845956000002],[22.909058670000004,65.21068535000002],[22.887886629999997,65.21180473999999],[22.89321694,65.22957985000001],[22.85083904,65.23181152],[22.853493199999996,65.24069987999998],[22.789890619999994,65.24402640999999],[22.792525779999995,65.25291606],[22.813735600000005,65.25180974000001],[22.81637972,65.26069888],[22.837594569999997,65.25958912999998],[22.84024766,65.26847774],[22.861467539999996,65.26736457],[22.864129599999995,65.27625265999998],[22.84290272,65.27736629],[22.845559760000004,65.28625477],[22.90925548,65.28290357],[22.911935539999995,65.29179061999999],[22.93317047,65.29066713],[22.92779833,65.27289388],[22.949017259999998,65.27176833000001],[22.946327189999998,65.26288206],[22.903901339999997,65.26512927],[22.90122726,65.25624202],[22.922434189999993,65.25512035999999]],[[22.906577419999994,65.27401645999997],[22.8853545,65.27513605],[22.882685429999995,65.26624841],[22.903901339999997,65.26512927],[22.906577419999994,65.27401645999997]],[[22.88001835,65.2573607],[22.877353239999998,65.24847293],[22.898555169999998,65.24735469999999],[22.90122726,65.25624202],[22.88001835,65.2573607]]]}},{"type":"Feature","properties":{"cyano_daymap_file_id":3392,"date":"2010-08-24Z","cloud":null,"sub_surfac":null,"surface":null,"no_data":null,"class":1,"color_hex":null,"algae_class":"class_1","source_date":"2010-08-24"},"geometry":{"type":"Polygon","coordinates":[[[22.242561050635373,65.19033052624395],[22.279514269999996,65.18853878],[22.281971479999996,65.19743897999999],[22.345537370000002,65.1943284],[22.34801741,65.20322728],[22.326823619999995,65.20426754],[22.331775219999997,65.22206596],[22.352983019999993,65.22102485],[22.355468599999995,65.22992355],[22.37668156,65.22887903],[22.379176000000005,65.23777724],[22.421610369999996,65.23567842],[22.4241207,65.24457571],[22.4453421,65.2435214],[22.44786132,65.25241819999998],[22.469087859999995,65.25136047],[22.47414598,65.26915304],[22.516621499999996,65.26702689],[22.519167450000005,65.27592222],[22.561649439999997,65.27378325999999],[22.564211340000004,65.28267765],[22.5854565,65.28160326000001],[22.580320559999997,65.26381528999998],[22.601549759999997,65.26273878999999],[22.6041238,65.27163237],[22.625358099999996,65.27055243999999],[22.62794108,65.27944551],[22.606699749999997,65.28052587999998],[22.61185742,65.29831272],[22.633112799999996,65.29723147],[22.630525979999998,65.28833852],[22.65177241,65.28725473],[22.654366269999993,65.29614723999998],[22.69686738,65.29396981],[22.694259459999994,65.28507818999998],[22.715500080000005,65.28398544],[22.72335075,65.31065876],[22.765868289999997,65.30846163],[22.76850316,65.31735171],[22.789766019999995,65.31624821999999],[22.79240988999999,65.32513777999999],[22.81367782,65.32403085],[22.808377990000004,65.30625255],[22.829629879999995,65.30514352999998],[22.832285839999997,65.31403225999999],[22.853542769999994,65.31291979999999],[22.85087979,65.30403152],[22.87212771,65.30291653000002],[22.87746973,65.32069211],[22.856207750000003,65.32180801],[22.85887471,65.33069615],[22.837603699999995,65.33180952],[22.842929499999997,65.34958649999999],[22.8642146,65.34847223],[22.86688754,65.35736016999999],[22.888177689999996,65.35624245],[22.890859679999995,65.36512986],[22.912154880000003,65.36400870000001],[22.91484594,65.37289559],[22.936146189999995,65.37177096999999],[22.938846309999995,65.38065733],[22.98145488,65.37839819],[22.986889439999995,65.39616886],[23.008204810000002,65.39503388],[23.01093221,65.40391864999998],[23.05357096,65.40163876],[23.054138976414396,65.40347800244572],[23.06928398324159,65.38272402485278],[23.02678570999999,65.38501152],[23.021326979999998,65.36724256999999],[23.0426171,65.36610299],[23.03988375,65.35721887],[23.018600669999998,65.35835797999998],[23.01587639,65.34947333],[23.037152429999995,65.34833468],[23.028970689999998,65.32168168],[23.007715749999996,65.32281893999999],[23.00228545,65.305049],[23.023526359999998,65.30391267],[23.020807229999996,65.29502805999999],[22.99957333,65.29616392999999],[22.988745030000004,65.26062294000002],[22.967537109999995,65.26175399],[22.970234169999994,65.27063979999998],[22.949017259999998,65.27176833000001],[22.9544034,65.28954067],[22.93317047,65.29066713],[22.938550609999997,65.30844011],[22.91730165,65.30956451],[22.911935539999995,65.29179061999999],[22.848218789999994,65.29514317999998],[22.845559760000004,65.28625477],[22.824323889999995,65.28736586999999],[22.826975900000004,65.29625472999999],[22.805731030000004,65.2973633],[22.80308605,65.28847399000001],[22.781846229999996,65.28957912],[22.77921023,65.28068928999998],[22.800443029999997,65.27958460999999],[22.797801980000003,65.27069516000002],[22.755348449999996,65.27290064],[22.750100270000004,65.25511975000002],[22.728884580000003,65.25621713],[22.72627041,65.24732613999998],[22.683847209999993,65.24951106999998],[22.681248989999997,65.24061912],[22.702454560000003,65.23952859],[22.697249919999997,65.2217454],[22.654864819999993,65.22392170999998],[22.652279370000002,65.21502913],[22.715833179999997,65.21176153],[22.71322871,65.20287020999999],[22.692053019999996,65.20396194],[22.68945746,65.19507012],[22.710626180000002,65.19397883],[22.70802558,65.18508738000001],[22.68686382,65.18617822],[22.68168233,65.16839425],[22.639380899999995,65.17056525999999],[22.647114239999997,65.19724377],[22.625939750000004,65.19832614],[22.615660319999996,65.16275291],[22.57336137,65.16490523],[22.57591444,65.17379951000001],[22.554755159999996,65.17487164],[22.549664829999998,65.15708215999999],[22.50736846,65.15921578],[22.499788819999996,65.13252848],[22.47865868,65.13358955],[22.476142819999993,65.12469322999998],[22.497266019999998,65.12363259],[22.492226010000003,65.10584063000002],[22.471116699999996,65.1069004],[22.46860643,65.0980039],[22.44750218,65.09906028],[22.442501059999998,65.08126623],[22.43046153522474,65.08186704065797],[22.3200684113133,65.1466372251174],[22.242561050635373,65.19033052624395]],[[22.34305918,65.18542946],[22.38541326,65.1833417],[22.387905429999996,65.19223979],[22.345537370000002,65.1943284],[22.34305918,65.18542946]],[[22.321879369999998,65.18646888],[22.319410000000005,65.17756946],[22.34058282,65.17653047],[22.34305918,65.18542946],[22.321879369999998,65.18646888]],[[22.55908944,65.26488881],[22.55142089,65.23820507],[22.57263097,65.23713286],[22.580320559999997,65.26381528999998],[22.55908944,65.26488881]],[[22.53020891,65.2392743],[22.522578449999997,65.21258868999999],[22.543769430000005,65.21152077],[22.546318019999994,65.2204156],[22.567514099999997,65.21934426],[22.57007158,65.22823859000002],[22.54886851,65.22931037],[22.55142089,65.23820507],[22.53020891,65.2392743]],[[22.53275618,65.24816938],[22.5115353,65.24923606],[22.508995039999995,65.24034054999998],[22.53020891,65.2392743],[22.53275618,65.24816938]],[[22.63109092,65.21611238],[22.609900559999996,65.21719264999999],[22.604763349999995,65.19940553999999],[22.625939750000004,65.19832614],[22.63109092,65.21611238]],[[22.59707183,65.1727244],[22.59963377,65.18161817],[22.578469409999997,65.18269372],[22.57591444,65.17379951000001],[22.59707183,65.1727244]],[[22.581026279999993,65.19158786999998],[22.559853049999997,65.19266087999999],[22.557303159999996,65.18376629],[22.578469409999997,65.18269372],[22.581026279999993,65.19158786999998]],[[22.473628829999996,65.11579684999998],[22.45251072,65.11685409],[22.450005519999994,65.10795720999998],[22.471116699999996,65.1069004],[22.473628829999996,65.11579684999998]]]}},{"type":"Feature","properties":{"cyano_daymap_file_id":3392,"date":"2010-08-24Z","cloud":null,"sub_surfac":null,"surface":null,"no_data":null,"class":1,"color_hex":null,"algae_class":"class_1","source_date":"2010-08-24"},"geometry":{"type":"MultiPolygon","coordinates":[[[[22.480782640000005,65.36807103000001],[22.48014636584851,65.36584167182933],[22.47631641011461,65.36487863236191],[22.475209490672537,65.36403146937495],[22.474650217217803,65.36207432904092],[22.469026643856367,65.36054962466822],[22.464337593603094,65.36078277991295],[22.46353578995639,65.36100308272886],[22.46363731385797,65.36135893575306],[22.459800659729733,65.3615495742339],[22.45819691365721,65.36199012867333],[22.457576021674527,65.36251524736467],[22.45946251,65.36913138],[22.480782640000005,65.36807103000001]]],[[[22.4655485,65.31469411000002],[22.444270809999992,65.31575185999999],[22.44174547,65.30685506],[22.399198540000004,65.30896073000001],[22.396689189999993,65.30006300999999],[22.41795654,65.2990121],[22.415442009999996,65.29011473999999],[22.37291954,65.29221272],[22.377025608902905,65.30681936085028],[22.377783617956027,65.30678206568231],[22.377508289053427,65.30733688912329],[22.37850947788572,65.30782890264636],[22.384892020487015,65.30751469338054],[22.38509245017057,65.30822653174474],[22.38429153526948,65.30844640311685],[22.38481726291707,65.30878136712305],[22.383540706327118,65.30884423052292],[22.383014993374612,65.30850926189979],[22.380987572961416,65.30896992499366],[22.381813806993783,65.31037266617808],[22.380261860454087,65.31099033317037],[22.37936066675952,65.31085425654499],[22.379861222928387,65.30956664102209],[22.378960080388843,65.30943056147011],[22.378859941268956,65.30907463745767],[22.37767596454717,65.30913289029787],[22.377458181029713,65.31022616171687],[22.378259208531524,65.31000632561673],[22.378359343830038,65.31036225006824],[22.377608370398384,65.31076004930864],[22.37703263252025,65.31024709685175],[22.37618153326003,65.31028896352905],[22.376757255690467,65.31080191940494],[22.375530628523858,65.31104267890314],[22.374736306887822,65.31016559962715],[22.356644130000003,65.31105443],[22.358381976051344,65.31724497457611],[22.359380475434385,65.31652703978958],[22.360657473705125,65.3164643771384],[22.361408866460742,65.31606665834227],[22.36358712788184,65.31614015436932],[22.365615412465086,65.31567971723769],[22.36664234564461,65.31472716848042],[22.36574108846659,65.31459101082842],[22.36564110404755,65.31423507643414],[22.36771921048594,65.31395257985464],[22.368846023461327,65.31335595011866],[22.368695993594585,65.31282205214438],[22.369497174896683,65.31260226118239],[22.368871542703772,65.31191131052068],[22.370573871073347,65.31182765382368],[22.37132498252629,65.31142988832903],[22.371049473721587,65.31198470176965],[22.372000695963017,65.31229879297241],[22.370723932107136,65.31236154960509],[22.371299597031985,65.31287452697599],[22.370698515675436,65.31380618846487],[22.37330221865117,65.31385862758371],[22.373402304760177,65.31421455583919],[22.370948648076098,65.31469601416006],[22.37197470207741,65.31681067260003],[22.375805609036828,65.31662233197905],[22.37530499078733,65.31484269996258],[22.376256367697323,65.31515676264388],[22.37743310503096,65.31473803289407],[22.376006050875556,65.31426694767245],[22.380737860830923,65.3142145810455],[22.380187180077424,65.31532423847412],[22.38081319337952,65.31601513811201],[22.37820926920759,65.31596283138528],[22.37745813843383,65.31636063148294],[22.377332944100502,65.31744934274484],[22.378234356103736,65.31758542929506],[22.377057507088917,65.31800416645925],[22.376782059105523,65.31855898978074],[22.375079319935367,65.3186427210035],[22.375279587142725,65.31935457410425],[22.374302863377626,65.32048514398329],[22.373451428305938,65.32052699863209],[22.372775439862615,65.31965810333335],[22.3709725342067,65.31938586018356],[22.367566892405108,65.3195531733799],[22.367291228751032,65.32010798150509],[22.36829273074283,65.32060005989223],[22.366639840135875,65.3208616632966],[22.366014073077796,65.32017070212605],[22.365212634568696,65.32039047714224],[22.365112630636006,65.32003454259907],[22.365964065832284,65.31999273518322],[22.365388339828925,65.31947973800453],[22.364111209110533,65.31954244220273],[22.36223254829977,65.32053676774319],[22.3593150306351,65.32056869590818],[22.3616402,65.3288514],[22.319050059999995,65.33093482999999],[22.32153675,65.33983407],[22.36414104,65.3377498],[22.36664374,65.34664813000002],[22.38795016,65.34560107],[22.390461819999995,65.35449891],[22.36914832,65.3555464],[22.371654760000002,65.36444461000002],[22.409522695882284,65.36258064081596],[22.409790515438363,65.3620405630843],[22.411395107385143,65.36160051594945],[22.410666331767416,65.36055386790336],[22.412371645349726,65.36046970714582],[22.412472474706888,65.36082560169197],[22.413858961756155,65.36080992361015],[22.411773449999995,65.35344842999999],[22.433083189999998,65.35239494],[22.43441728406135,65.35709064286675],[22.436064201041024,65.35713307854796],[22.436165335349372,65.35748895407187],[22.437870351395013,65.3574045074264],[22.437993124669028,65.35631577106723],[22.439322411917967,65.35643035948425],[22.43957535534327,65.35732004158564],[22.441179144888302,65.35687968516282],[22.441402978431928,65.35614681886807],[22.4399219281756,65.35549844009361],[22.439842270118728,65.35369795783497],[22.438188074860708,65.35396036129508],[22.438310827239142,65.35287162489448],[22.436302758082018,65.35188844705972],[22.434742799147866,65.34943952545223],[22.43331282623815,65.34896901460608],[22.433962933525223,65.34821505741637],[22.43604291632454,65.34793159690477],[22.437472879030793,65.34840208190414],[22.438700633243712,65.34816080526295],[22.439278436831387,65.34867349995912],[22.442362364638544,65.34888152539843],[22.44316398831399,65.34866133725876],[22.443265179195958,65.34901720742512],[22.448935439706577,65.35072084773614],[22.449787705213016,65.35067855697396],[22.453551423143303,65.35175486227786],[22.454403713147368,65.35171254511351],[22.45540805382211,65.35220401341721],[22.4571633500659,65.35229728237806],[22.461404489013436,65.3535301462407],[22.465493743582293,65.35422910888393],[22.478135164463065,65.35879488510854],[22.4655485,65.31469411000002]],[[22.435566273413126,65.34777476543478],[22.435039098858542,65.34743999397655],[22.435465192385884,65.34741888896421],[22.435566273413126,65.34777476543478]],[[22.435790201489986,65.34704190652776],[22.436642373445178,65.34699969119623],[22.43631737717486,65.347376675342],[22.435465192385884,65.34741888896421],[22.435790201489986,65.34704190652776]],[[22.40976327391437,65.36041799274133],[22.40933694496236,65.36043902735872],[22.409286552010236,65.36026107882188],[22.40976327391437,65.36041799274133]],[[22.40891061525692,65.36046006077608],[22.40848428479807,65.36048109299338],[22.40843389751526,65.36030314411313],[22.40891061525692,65.36046006077608]],[[22.40364353399543,65.36017851579989],[22.404069864234568,65.36015749729827],[22.404120221663987,65.36033544794422],[22.40364353399543,65.36017851579989]],[[22.403267554763303,65.36037748409056],[22.40369388859008,65.36035646661743],[22.40374424393761,65.36053441741045],[22.403267554763303,65.36037748409056]],[[22.40234097263109,65.36168618914922],[22.402391321908684,65.36186414045675],[22.401964962390597,65.361885154502],[22.40234097263109,65.36168618914922]],[[22.401186212676077,65.3606605052772],[22.40203889277427,65.3606184807887],[22.40224027633436,65.36133028646054],[22.401488258512472,65.3617282156964],[22.401186212676077,65.3606605052772]],[[22.401511871507637,65.36028359030675],[22.401085536751946,65.36030460160787],[22.40098486383828,65.35994869784037],[22.401511871507637,65.36028359030675]],[[22.400884193934935,65.35959279397477],[22.400457869765724,65.35961380338966],[22.40040753877755,65.35943585124853],[22.400884193934935,65.35959279397477]],[[22.380462197155733,65.31170217865933],[22.38003662771678,65.3117231225157],[22.379986545243934,65.3115451610093],[22.380462197155733,65.31170217865933]],[[22.379636455458463,65.3164338943324],[22.38006210132268,65.316412950827],[22.380112195508627,65.3165909121874],[22.379636455458463,65.3164338943324]],[[22.379260897382455,65.31663279834193],[22.37968654681942,65.31661185586357],[22.379736638928133,65.31678981737032],[22.379260897382455,65.31663279834193]],[[22.379110294673065,65.309964447306],[22.379060222497724,65.30978648538509],[22.379485761624142,65.30976554460425],[22.379110294673065,65.309964447306]],[[22.378885333656346,65.31683170147073],[22.37931098666611,65.31681076001944],[22.37936107669751,65.31698872167259],[22.378885333656346,65.31683170147073]],[[22.378084106949803,65.31705154294517],[22.378935420862643,65.31700966329463],[22.378985508816648,65.31718762509415],[22.378184272304768,65.31740746720283],[22.378084106949803,65.31705154294517]],[[22.37830943124127,65.31631875559395],[22.378359513379507,65.31649671766174],[22.377933864524554,65.31651765637586],[22.37830943124127,65.31631875559395]],[[22.378084040031744,65.31398430897309],[22.37723282216229,65.31402618281898],[22.377032551251393,65.31331433235407],[22.377933818781187,65.31345042218514],[22.378084040031744,65.31398430897309]],[[22.37705762071654,65.31186969597873],[22.37663204529877,65.3118906302546],[22.376581985417122,65.31171266738255],[22.37705762071654,65.31186969597873]],[[22.37610617536239,65.31462287373414],[22.375680554591,65.31464380577944],[22.37563049479858,65.31446584259012],[22.37610617536239,65.31462287373414]],[[22.375229770850584,65.31610937364496],[22.37480412523866,65.31613030346224],[22.374704011394197,65.31577437642504],[22.375229770850584,65.31610937364496]],[[22.3729513995731,65.31568011811308],[22.373377039698678,65.31565919359899],[22.373427087025213,65.31583715766605],[22.3729513995731,65.31568011811308]],[[22.373427087025213,65.31583715766605],[22.373902780127324,65.31599419565558],[22.37347713509883,65.31601512170872],[22.373427087025213,65.31583715766605]],[[22.37252634943785,65.3126338007344],[22.372951940798053,65.31261287792276],[22.373001978250688,65.3127908422331],[22.37252634943785,65.3126338007344]],[[22.373001978250688,65.3127908422331],[22.3734776127121,65.3129478821686],[22.37305201645018,65.31296880651907],[22.373001978250688,65.3127908422331]],[[22.37285131281113,65.31532418956473],[22.372425677588396,65.31534511253979],[22.372375638152807,65.3151671480585],[22.37285131281113,65.31532418956473]],[[22.37265114825113,65.31461233217588],[22.372751229037178,65.31496826091897],[22.37232559946417,65.31498918355285],[22.37265114825113,65.31461233217588]],[[22.372150789134896,65.31283268699985],[22.372576384066203,65.3128117652153],[22.372626419441378,65.31298972967187],[22.372150789134896,65.31283268699985]],[[22.36263586138566,65.3158260103662],[22.362210208247028,65.31584690459306],[22.362160236613434,65.31566893602022],[22.36263586138566,65.3158260103662]]],[[[22.41227134736666,65.36244534425056],[22.4123486309264,65.36191432810391],[22.41069362977319,65.36217643750555],[22.410790451628326,65.36251823821628],[22.41227134736666,65.36244534425056]]],[[[22.450001406984573,65.36057830034156],[22.44885998723483,65.35956641530449],[22.450088147626655,65.35932504154975],[22.450615758833234,65.35965975577454],[22.45146831060187,65.35961745254883],[22.451814077047743,65.35779583197493],[22.453316315077544,65.35699948548542],[22.45534606790535,65.35653782262858],[22.45604640956497,65.35596170474302],[22.454565016721066,65.35531347364211],[22.454362273766016,65.35460175216342],[22.450547452686234,65.35334753974917],[22.447138032701364,65.35351669472213],[22.4455851725258,65.35413504552008],[22.446091448312075,65.35591438423529],[22.445542773857166,65.35702425998409],[22.444740919527675,65.35724446317117],[22.44512473272264,65.36011254381792],[22.445880506756456,65.36078263686137],[22.450001406984573,65.36057830034156]]],[[[22.368970552083237,65.31533448737352],[22.3681192730988,65.31537631022417],[22.367943681756138,65.31628705139583],[22.37139893344572,65.3162976988783],[22.37067310109231,65.31525082729844],[22.369771806341934,65.3151146942026],[22.369596273579507,65.31602543670641],[22.36874497348763,65.31606726331685],[22.368970552083237,65.31533448737352]]]]}}]}