{"type":"FeatureCollection","properties":{"source":"SMHI SE.SR Ytansamling av alger","date":"2004-06-20","note":"Test: SMHI WFS clipped to Lulea municipal sea area and simplified 20 m."},"features":[{"type":"Feature","properties":{"cyano_daymap_file_id":2781,"date":"2004-06-20Z","cloud":null,"sub_surfac":null,"surface":null,"no_data":null,"class":1,"color_hex":null,"algae_class":"class_1","source_date":"2004-06-20"},"geometry":{"type":"Polygon","coordinates":[[[21.96384176,65.37487811],[21.989474865549308,65.373687059614],[21.99060350644846,65.37346954755552],[21.990508330916178,65.37311332228033],[21.99264296678924,65.37301404181513],[21.992927082602673,65.3724598469533],[21.994587128402426,65.37220228694112],[22.000371244767145,65.36958876968997],[22.004544488535906,65.36903369073207],[22.005596883921637,65.36938456467789],[22.004549974987526,65.36547365470986],[22.004540082863443,65.36578797311935],[22.00292819895679,65.36622374606965],[22.00302351251496,65.36657996219337],[22.002169888158022,65.36661973464471],[22.000796131249746,65.36794602766433],[21.999231688120467,65.36855987185537],[21.997951143717057,65.36861949751275],[21.996432506435646,65.3677885599883],[21.98874932307546,65.36814600697333],[21.986662614907296,65.3684233428736],[21.984291604383337,65.3692548307873],[21.982915930696336,65.36895809885782],[21.98229897284545,65.36826546580346],[21.983105160758562,65.36804768954873],[21.982962586484625,65.3675133426447],[21.983768745925094,65.36729556310908],[21.984005465854043,65.36656326838089],[21.987845730577753,65.36476184741807],[21.989219990824694,65.3634356676513],[21.99087950924189,65.36317815355578],[21.991163567490627,65.36262396249597],[21.993392516153744,65.3628809046245],[21.99533592062236,65.36206914726492],[21.998227890846362,65.36157384286163],[21.99851177764927,65.3610196395843],[22.001451203587507,65.36070238468116],[22.001546472934237,65.3610586021952],[22.002826639458565,65.36099894961062],[22.002921928728046,65.36135516606001],[22.001689382300857,65.3615929282981],[22.001832298083674,65.36212725419921],[22.003682209989005,65.3625820348638],[22.004299585459652,65.36327457629982],[22.00439490465272,65.36363079151594],[22.00306696294481,65.36351235054524],[22.00325757288772,65.36422478274848],[22.00423909871552,65.364312322457],[22.004152529999995,65.36398893],[22.02549006,65.36299292],[22.03027381,65.38080276],[22.05162378,65.37980292],[22.054025469999996,65.38870735],[22.09673426,65.38669783],[22.099151999999997,65.39560137999999],[22.16322296,65.39256329],[22.15834657,65.37475862],[22.115662889999996,65.37678535999999],[22.113241649999996,65.36788211],[22.0919042,65.36889056],[22.08949189,65.35998684],[22.06815973999999,65.36099186999999],[22.06335472,65.34318344],[22.042034989999994,65.34418464999997],[22.03486219,65.31747035],[22.077457319999997,65.31546737999999],[22.075055789999997,65.30656332],[22.0537662,65.3075659],[22.051247081517516,65.2981801393552],[21.95750495727982,65.3510254798072],[21.96384176,65.37487811]],[[22.016873163155733,65.34086783089761],[22.0164467807809,65.34088775282585],[22.01639908915397,65.34070964929654],[22.016873163155733,65.34086783089761]],[[22.01356546148157,65.34625194577208],[22.01531904072845,65.34635038387259],[22.015557531332025,65.34724090269042],[22.014799946897092,65.34763694793195],[22.014659622669885,65.34872548956346],[22.01375890757148,65.34858721782429],[22.01342777443863,65.34896334117265],[22.01139053560213,65.34941910702018],[22.007978308422064,65.34957833560817],[22.009729634864993,65.34805398013819],[22.01356546148157,65.34625194577208]],[[22.007599428082695,65.34977634047439],[22.00717289292191,65.34979623759972],[22.007125244497963,65.34961813073572],[22.007599428082695,65.34977634047439]]]}},{"type":"Feature","properties":{"cyano_daymap_file_id":2781,"date":"2004-06-20Z","cloud":null,"sub_surfac":null,"surface":null,"no_data":null,"class":1,"color_hex":null,"algae_class":"class_1","source_date":"2004-06-20"},"geometry":{"type":"Polygon","coordinates":[[[22.73936071,65.29178044000001],[22.73411875,65.27399892],[22.71288708999999,65.27509419999998],[22.707666939999996,65.25731153],[22.665225859999996,65.25949137999999],[22.654864819999993,65.22392170999998],[22.633669379999994,65.22500539999997],[22.62851438,65.20721929],[22.607331,65.20829912],[22.602197609999997,65.19051189],[22.581026279999993,65.19158786999998],[22.578469409999997,65.18269372],[22.557303159999996,65.18376629],[22.549664829999998,65.15708215999999],[22.528517579999992,65.15815044999998],[22.525982209999995,65.14925518],[22.48369599,65.151382],[22.488740780000004,65.16917421],[22.509898750000005,65.16811142000002],[22.51496497999999,65.18590251999998],[22.49379306999999,65.18696616999999],[22.496322019999997,65.19586205],[22.453958599999996,65.19798129],[22.43889663,65.14459989000001],[22.41775395,65.14565248],[22.412762089999994,65.12785732999998],[22.391631469999997,65.12890609999998],[22.389145259999992,65.12000800999999],[22.36801975,65.12105338],[22.367409617774104,65.11886105060259],[22.3200684113133,65.1466372251174],[22.225055519306988,65.20019893674102],[22.303161950000003,65.1964051],[22.29823536,65.17860548],[22.34058282,65.17653047],[22.345537370000002,65.1943284],[22.36672232,65.19328559],[22.36920936,65.20218404],[22.4115877,65.20008862],[22.414090570000003,65.20898616],[22.39289533,65.21003579],[22.395393069999994,65.21893368999999],[22.374188970000002,65.21998076],[22.37668156,65.22887903],[22.440309279999994,65.22572759999998],[22.437795679999997,65.21683060999999],[22.458994189999995,65.2157746],[22.46151479,65.22467116],[22.482718419999998,65.22361174000001],[22.480190820000004,65.21471561],[22.543769430000005,65.21152077],[22.55142089,65.23820507],[22.57263097,65.23713286],[22.582887569999993,65.27270930999998],[22.625358099999996,65.27055243999999],[22.62794108,65.27944551],[22.64918048,65.27836216],[22.64659049,65.26946953],[22.667820939999995,65.26838363999998],[22.67041796,65.27727583],[22.69165349,65.27618650999999],[22.69686738,65.29396981],[22.73936071,65.29178044000001]]]}}]}