{"type":"FeatureCollection","properties":{"source":"SMHI SE.SR Ytansamling av alger","date":"2023-08-30","note":"Test: SMHI WFS clipped to Lulea municipal sea area and simplified 20 m."},"features":[{"type":"Feature","properties":{"cyano_daymap_file_id":85594,"date":"2023-08-30Z","cloud":null,"sub_surfac":null,"surface":null,"no_data":null,"class":1,"color_hex":null,"algae_class":"class_1","source_date":"2023-08-30"},"geometry":{"type":"Polygon","coordinates":[[[22.808377990000004,65.30625255],[22.805731030000004,65.2973633],[22.784484200000005,65.29846889],[22.77921023,65.28068928999998],[22.75797547,65.28179099],[22.752723380000003,65.26401023],[22.77394412,65.26290943],[22.766059629999994,65.23623913999998],[22.744859889999994,65.23733859999997],[22.742242619999995,65.22844793],[22.72104792,65.22954397000001],[22.718439579999995,65.22065278],[22.697249919999997,65.2217454],[22.692053019999996,65.20396194],[22.62851438,65.20721929],[22.63624975999999,65.23389834999999],[22.615045410000004,65.2349795],[22.620197919999995,65.2527661],[22.641416279999998,65.25168406999998],[22.64659049,65.26946953],[22.667820939999995,65.26838363999998],[22.67561779,65.29506001999998],[22.69686738,65.29396981],[22.70208904,65.31175285],[22.808377990000004,65.30625255]]]}},{"type":"Feature","properties":{"cyano_daymap_file_id":85594,"date":"2023-08-30Z","cloud":null,"sub_surfac":null,"surface":null,"no_data":null,"class":1,"color_hex":null,"algae_class":"class_1","source_date":"2023-08-30"},"geometry":{"type":"MultiPolygon","coordinates":[[[[22.98564199,65.17952177],[22.982951000000003,65.17063618],[22.94067645,65.17289208],[22.951396779999996,65.20843767],[22.93022871999999,65.20956299999999],[22.938268979999993,65.23622283999998],[22.959457949999997,65.23509614],[22.962149,65.24398216],[22.94095305,65.24510931],[22.946327189999998,65.26288206],[22.988745030000004,65.26062294000002],[23.00228545,65.305049],[23.023526359999998,65.30391267],[23.026247510000005,65.31279721],[23.00499959,65.31393401],[23.010433929999998,65.33170380999998],[22.98916994,65.33283854],[23.00003483,65.36837915000001],[22.957444419999998,65.37064334999998],[22.952036119999995,65.35287133999998],[22.93075199,65.35399804],[22.928057899999995,65.34511146999999],[22.90677881,65.34623471],[22.901410749999997,65.32846045999999],[22.85887471,65.33069615],[22.86154366,65.33958423],[22.840265609999996,65.34069804],[22.837603699999995,65.33180952],[22.773778789999998,65.33513168],[22.7843537,65.3706908],[22.848263270000004,65.36736322],[22.850933139999995,65.37625147999998],[22.8722394,65.37513584],[22.874918339999997,65.38402357999999],[22.832289669999994,65.38625276999998],[22.83495645,65.39514134000001],[22.85627886,65.39402779],[22.86699434,65.4295796],[22.88834309,65.42846123],[22.891034079999997,65.43734854999998],[22.91238791,65.43622672],[22.91508801,65.44511352],[22.93644693,65.44398821999998],[22.93915615,65.45287449],[22.960520139999996,65.45174573],[22.96323851,65.46063147],[22.98460756,65.45949925],[22.987335080000005,65.46838445],[23.005740498181684,65.46740649865629],[23.041738270518675,65.42033256815924],[23.01639314,65.42168797],[23.01093221,65.40391864999998],[23.05357096,65.40163876],[23.054138976414396,65.40347800244572],[23.131027196681888,65.29811414102262],[23.1297004,65.29818627999998],[23.126297007833134,65.28718948520809],[23.089750185962696,65.28445681869319],[23.089709002936797,65.2756147460627],[23.0877229961228,65.2617264628135],[23.083434648887803,65.24793025256493],[23.08043185064679,65.2410880822697],[23.072734007836395,65.22755481896989],[23.062814772555992,65.214278717246],[23.052174641690353,65.2030376832204],[23.036049059999993,65.20390666999998],[23.033338179999998,65.19502220999999],[23.0432637458381,65.19448737887343],[23.0286527983404,65.1826346123978],[23.021359268135942,65.17760525599502],[22.98564199,65.17952177]],[[22.98960978,65.40505409],[22.986889439999995,65.39616886],[23.008204810000002,65.39503388],[23.01093221,65.40391864999998],[22.98960978,65.40505409]]],[[[22.990064639999996,65.47726959],[22.992396919758246,65.48485576405544],[22.998542625787056,65.47681908512578],[22.990064639999996,65.47726959]]],[[[22.97140584,65.48728827000001],[22.976896073405886,65.50512606736768],[22.991344823386445,65.48623158006481],[22.97140584,65.48728827000001]]]]}}]}