{"type":"FeatureCollection","properties":{"source":"SMHI SE.SR Ytansamling av alger","date":"2019-07-25","note":"Test: SMHI WFS clipped to Lulea municipal sea area and simplified 20 m."},"features":[{"type":"Feature","properties":{"cyano_daymap_file_id":4240,"date":"2019-07-25Z","cloud":null,"sub_surfac":null,"surface":null,"no_data":null,"class":1,"color_hex":null,"algae_class":"class_1","source_date":"2019-07-25"},"geometry":{"type":"Polygon","coordinates":[[[22.497266019999998,65.12363259],[22.51838734,65.12256898999999],[22.533593989999996,65.17594081],[22.554755159999996,65.17487164],[22.56240484,65.2015554],[22.54122273,65.20262587],[22.546318019999994,65.2204156],[22.567514099999997,65.21934426],[22.57775545,65.25492121],[22.598977640000005,65.25384515],[22.601549759999997,65.26273878999999],[22.622777049999993,65.26165929999999],[22.630525979999998,65.28833852],[22.65177241,65.28725473],[22.66215945,65.32282436],[22.68343209,65.32173581],[22.688651349999997,65.33951934999999],[22.709936150000004,65.33842692],[22.71517732,65.3562093],[22.73647428,65.35511299],[22.739104869999995,65.36400363],[22.781707009999998,65.36180112],[22.787002369999993,65.37958042],[22.80831461,65.37847377],[22.81097234,65.38736287],[22.832289669999994,65.38625276999998],[22.83495645,65.39514134000001],[22.85627886,65.39402779],[22.86699434,65.4295796],[22.88834309,65.42846123],[22.891034079999997,65.43734854999998],[22.91238791,65.43622672],[22.91779014,65.45400025],[22.93915615,65.45287449],[22.944580709999997,65.47064683],[22.96595891,65.46951714],[22.96868136,65.47840274],[22.998542625787056,65.47681908512578],[23.0439526591749,65.41743683403658],[23.1173024729341,65.31692183205776],[23.11397011,65.3171028],[23.104204335436286,65.2855375794337],[23.089750185962696,65.28445681869319],[23.08974008304051,65.28228770241833],[23.081758650000005,65.28271927],[23.07355655,65.25606898],[23.05235671,65.25721193],[23.049633709999995,65.24832789999999],[23.007241909999994,65.25060394999998],[22.99372693,65.20617811],[22.97256286,65.20730937],[22.9671848,65.18953763],[22.94603264,65.19066501],[22.943353549999998,65.18177857999999],[22.901057169999998,65.18402353],[22.906389520000005,65.20179815],[22.927552610000003,65.20067625],[22.93290682,65.21844968],[22.9117298,65.21957249000002],[22.909058670000004,65.21068535000002],[22.86671262,65.21292115],[22.86936981,65.22180919],[22.84818685,65.22292308999998],[22.845536639999995,65.21403459],[22.824358680000003,65.21514505000002],[22.81644072,65.18847781000001],[22.795281709999998,65.18958394999999],[22.79265326,65.18069429],[22.750343299999997,65.18289677],[22.7555743,65.20067782],[22.73440247,65.2017755],[22.73179297,65.19288457],[22.68945746,65.19507012],[22.684272120000003,65.17728627],[22.705426909999996,65.17619586999999],[22.700235350000003,65.15841264000001],[22.742511339999993,65.1562247],[22.734696779999997,65.12955204],[22.69246243,65.13173731999998],[22.69505148,65.14062916],[22.67392448999999,65.14171779999998],[22.66618387,65.11504077],[22.64507577,65.11612512],[22.6425063,65.10723221],[22.62140322,65.10831316],[22.61884258,65.09941974],[22.639938739999995,65.09833922999998],[22.63488727705235,65.08081687082046],[22.622043315924994,65.0805348656589],[22.5890680589074,65.08077551930198],[22.5562078378235,65.0819784364121],[22.5236222511317,65.0841381956597],[22.4989570328592,65.0864342959367],[22.485389372953673,65.08165924544683],[22.497266019999998,65.12363259]],[[22.9355869,65.22733629],[22.956768899999997,65.22621005],[22.959457949999997,65.23509614],[22.938268979999993,65.23622283999998],[22.9355869,65.22733629]],[[22.82964714,65.23292289],[22.85083904,65.23181152],[22.853493199999996,65.24069987999998],[22.83229431,65.2418117],[22.82964714,65.23292289]],[[22.571556659999995,65.08378313],[22.592642759999997,65.0827094],[22.595192700000002,65.09160338],[22.574099679999996,65.09267754],[22.571556659999995,65.08378313]],[[22.563167989999997,65.12932748999998],[22.58429061,65.12825455],[22.58684307,65.13714865],[22.565713499999998,65.13822202],[22.563167989999997,65.12932748999998]]]}}]}