{"type":"FeatureCollection","properties":{"source":"SMHI SE.SR Ytansamling av alger","date":"2019-06-16","note":"Test: SMHI WFS clipped to Lulea municipal sea area and simplified 20 m."},"features":[{"type":"Feature","properties":{"cyano_daymap_file_id":4201,"date":"2019-06-16Z","cloud":null,"sub_surfac":null,"surface":null,"no_data":null,"class":1,"color_hex":null,"algae_class":"class_1","source_date":"2019-06-16"},"geometry":{"type":"MultiPolygon","coordinates":[[[[22.77055749,65.61513051],[22.767885459999995,65.60624082999999],[22.78938421,65.6051349],[22.78403179,65.58735624],[22.762547449999996,65.58846124999998],[22.75721748,65.57068141],[22.778687430000005,65.5695773],[22.78135861,65.5784668],[22.824306849999996,65.5762486],[22.821621299999997,65.56736001],[22.843085199999997,65.56624682999998],[22.837705809999996,65.54847036],[22.816256259999992,65.54958262999999],[22.812248420602955,65.53627717899708],[22.810388787991126,65.53744226786952],[22.810817133605248,65.53886449077383],[22.81274736680323,65.5394867642923],[22.8136584835215,65.54106454148467],[22.812478505777953,65.54148673383072],[22.811244339573932,65.5431755678022],[22.810010675185303,65.54341996476114],[22.809742250295816,65.54397550324248],[22.807650350253486,65.54426428725175],[22.807757428305386,65.54461984514926],[22.806952764800467,65.54484201906226],[22.80191047723152,65.54546385039893],[22.800677784824646,65.54426373935908],[22.803413918452634,65.54321955682875],[22.803253401781408,65.54268621429961],[22.80196618511009,65.54275276526455],[22.80175220857318,65.54204163933183],[22.800947570240513,65.54226378103127],[22.800840596665235,65.54190821722949],[22.799982473660265,65.54195257184378],[22.80008943576029,65.54230813637312],[22.79805102210172,65.54277456981912],[22.797782346257712,65.54333008970247],[22.796924170209387,65.54337442752629],[22.79622636611415,65.54395211215957],[22.794616861338536,65.54439633489919],[22.792793547999175,65.54412940013584],[22.792042198837635,65.54452928130674],[22.792202499982327,65.54506263800008],[22.787266593168248,65.54603955741814],[22.78742680786866,65.54657292008748],[22.786568503903055,65.54661720051025],[22.785118840781188,65.54759468954306],[22.783886808035703,65.5463944347749],[22.7812051553388,65.5461716210567],[22.780560286128757,65.54692702807799],[22.783617795377214,65.54694993304841],[22.78275947120361,65.54699419207489],[22.782543804189096,65.54772747823296],[22.78125627504467,65.54779385625747],[22.781416379846778,65.548327226453],[22.78066473490719,65.5487270542358],[22.778625460692517,65.54919323497437],[22.777927096614626,65.5497708410926],[22.776639452420227,65.54983718103682],[22.776746135299497,65.55019276501268],[22.773794886415338,65.55052531165431],[22.77304306047253,65.5509251034787],[22.769985079862092,65.55090198973886],[22.769769025723974,65.55163526176132],[22.76853455446239,65.55187932892152],[22.768425035957318,65.55296819027338],[22.766654645577873,65.55287873975064],[22.766761207320794,65.55323433204221],[22.7638094759519,65.55356668898847],[22.763916002288788,65.55392228365602],[22.76171626212036,65.55385485156025],[22.76182276133271,65.55421044798557],[22.760588090703102,65.55445445240977],[22.760801067473032,65.55516564700602],[22.759566341918966,65.55540964367084],[22.759726059454376,65.55594304088709],[22.75886739037288,65.55598716798086],[22.75876092270792,65.55563156913918],[22.75784903502854,65.55549789084766],[22.756614264708425,65.55574186389616],[22.756078500722612,65.55540831809834],[22.75495013145377,65.55600787899301],[22.754091450485713,65.55605197911434],[22.75301998680486,65.55538486708969],[22.75130265482107,65.55547304024616],[22.750660610589147,65.5547838691595],[22.749801961176956,65.5548279446144],[22.7499083026999,65.55518355106703],[22.749372635269765,65.55484998052754],[22.748084652744254,65.55491608100962],[22.74872663281875,65.55560526369365],[22.743145152943537,65.55589159844332],[22.74233957356399,65.55611343818533],[22.742445819634696,65.55646905087877],[22.74110462113268,65.55635728658994],[22.73745271332139,65.55726658124358],[22.73600532920557,65.55679915493731],[22.7351465835544,65.55684314824633],[22.735310577515303,65.55593210581631],[22.734451859006438,65.55597609490077],[22.73386330644507,65.55546465785697],[22.733004600384803,65.55550863860033],[22.732203886202537,65.55428595297182],[22.732850342514762,65.55353073564169],[22.7370420418335,65.55151070437127],[22.737635215277507,65.55057766006924],[22.73951610036555,65.54957859967678],[22.740750750358966,65.54933476740372],[22.74102070502074,65.54877933561647],[22.743649212822092,65.54882505588428],[22.745259890411827,65.5483813632256],[22.74408275078892,65.54735857136998],[22.744941165972055,65.54731453080913],[22.745047404255267,65.54767014172108],[22.74719345693339,65.54756001735178],[22.74875085091815,65.54693848456289],[22.75180837224826,65.54696203220621],[22.75277310028686,65.54727355252159],[22.752666758629164,65.54691794811687],[22.75352514180815,65.54687385919117],[22.75336561809328,65.54634045346926],[22.7554583316353,65.54605241165318],[22.755298774454154,65.54551900832439],[22.756103916360722,65.54529710420337],[22.755462013753792,65.54460795209198],[22.755678426214452,65.5438746968339],[22.759593856344953,65.54385398609286],[22.76007620383154,65.54400972236517],[22.759913128965973,65.54492078184911],[22.761952423523756,65.54445485313117],[22.762275106861093,65.54407718704338],[22.765814672581303,65.54425618254119],[22.76661968290297,65.54403422384142],[22.766513168446462,65.54367863099645],[22.772520839353685,65.54336936699715],[22.77316315701198,65.54405844235603],[22.77192907463502,65.54430253311376],[22.772088962869525,65.54483591541658],[22.770801544355123,65.54490220331563],[22.77020968599919,65.5458353637047],[22.76935137106555,65.54587954656989],[22.76902877064853,65.54625722688941],[22.771387768221917,65.54685794234659],[22.774338637368768,65.54652544664489],[22.77423200541055,65.54616986045569],[22.776001958268832,65.54625922690533],[22.77541282999016,65.54574795761093],[22.777236092128312,65.54601510237971],[22.77712942319206,65.54565951862236],[22.778363517788048,65.54541538531335],[22.777827700367055,65.54508191712631],[22.783084024773693,65.54517204047066],[22.783353032817608,65.54461654320751],[22.782494784876118,65.544660799932],[22.782388050946363,65.5443052205705],[22.78319291590789,65.54408317521404],[22.783032806223044,65.5435498069791],[22.782121230168876,65.54341627169724],[22.781907787994008,65.54270511211581],[22.784215462038695,65.5416833947823],[22.784484414259015,65.54112789611811],[22.7857182237284,65.54088370582188],[22.78561146452082,65.54052812901747],[22.784753355686153,65.540572397093],[22.784968913198163,65.53983910900244],[22.784433131754174,65.53950566385724],[22.78362841704311,65.53972771422333],[22.783521692022735,65.53937213559105],[22.78379063824925,65.53881663824],[22.785131087821753,65.53892803206912],[22.784544049031187,65.53697235506908],[22.78534867183201,65.53675030080463],[22.785564187419666,65.53601701234253],[22.78669099807659,65.53541723975266],[22.787548933439425,65.5353729625097],[22.786799722183513,65.53432837379306],[22.78797981122442,65.53390638065342],[22.787177258124515,65.53268400585463],[22.78631941038498,65.53272828006791],[22.78578376391529,65.53239483832087],[22.78610798561419,65.53057268406153],[22.788629825687206,65.52881762423821],[22.791096185875322,65.52832917927316],[22.790989415399682,65.5279736064427],[22.79184709734058,65.52792930748566],[22.79372427569868,65.5269296127675],[22.793617476342142,65.52657404210342],[22.792331024447645,65.52664050302951],[22.792010697213243,65.52557378712334],[22.792921689827324,65.52570726891452],[22.79479867106204,65.52470756296066],[22.7960850201388,65.52464108212385],[22.79930152013526,65.52375261493567],[22.799546945817173,65.52336462176346],[22.765361670000004,65.52512879],[22.768022819999995,65.53401863],[22.746581579999994,65.53512092999999],[22.749237550000004,65.54401115],[22.706334749999996,65.5462076],[22.70369312,65.53731648],[22.682245909999995,65.53840971999999],[22.683904048615986,65.54400612743751],[22.68471668231339,65.5440742045221],[22.68441019363387,65.54571442475066],[22.685620253421497,65.5456528284665],[22.687277017845414,65.5468320712337],[22.68899404107554,65.54674462781067],[22.6897470669132,65.5463452414493],[22.688835837983685,65.54621114060562],[22.68873037322286,65.54585548233744],[22.694310424230647,65.54557116922798],[22.694897972350883,65.54608277034883],[22.699619535153143,65.54584201884767],[22.699559946002356,65.54710868416345],[22.69611895454154,65.54872828277801],[22.696277325033037,65.54926176064346],[22.695471532901006,65.54948335306523],[22.69450033210066,65.55061595402066],[22.69486982939307,65.55186073977926],[22.691089644815257,65.55674675641671],[22.689635795134723,65.55772337318848],[22.6902235414612,65.55823499046872],[22.689417422199377,65.55845655405719],[22.689681267301484,65.55934569660567],[22.688498407067843,65.55976695117194],[22.688603936589356,65.56012260897884],[22.687315508342856,65.56018819689453],[22.685914079703565,65.56134261083119],[22.68467832494196,65.56158600706084],[22.68241765761749,65.56278409582443],[22.68069955125413,65.56287147582366],[22.679569095844236,65.56347049597875],[22.677798232529415,65.56338001092341],[22.67575589752737,65.56384483650358],[22.67543171771906,65.56422233331303],[22.673283928961794,65.56433145776928],[22.67167100484968,65.56477440730845],[22.669040934855484,65.56472745285683],[22.66759431914362,65.56425936462196],[22.666585878629654,65.56232495293301],[22.665621581839275,65.56201287884244],[22.66589326550425,65.56145756349636],[22.663272293042414,65.55996599652588],[22.66005550570817,65.5594071534818],[22.65995036916842,65.55905147175696],[22.657592722270106,65.5584490056636],[22.657487623992832,65.55809332183735],[22.653149665844474,65.5566886651873],[22.65256267748827,65.55617689623061],[22.64939906780071,65.55579566391512],[22.64929409420327,65.55543997312728],[22.64843521774537,65.55548347578367],[22.647418918169002,65.55499343507947],[22.644203073318906,65.554434245507],[22.643135769327053,65.55344492827979],[22.64983776,65.5761566],[22.643710136258942,65.5764645828629],[22.642759802160818,65.57761160371801],[22.640873959546656,65.57860947945984],[22.641408603975883,65.57894345064591],[22.640601740840918,65.57916474898755],[22.64069691738003,65.58096495758831],[22.64123160988494,65.58129892891246],[22.6438098663875,65.58116855092605],[22.644397118607408,65.5816803576701],[22.645738785157093,65.58179299338536],[22.645896366160418,65.58232653211178],[22.64751017818203,65.58188387383426],[22.64852724208933,65.58237391909257],[22.648360246352112,65.5832848914145],[22.65007918955183,65.58319789566119],[22.65216613230918,65.58435578596081],[22.653938039020776,65.58444657304727],[22.655008242083234,65.5851143990066],[22.65515690618363,65.58709243822717],[22.65402482874259,65.5876912844015],[22.654182622619526,65.58822481234542],[22.652893179890793,65.58829009832561],[22.652621130476415,65.58884538775102],[22.65133165228821,65.58891066080595],[22.650199888614733,65.58950945579682],[22.65078746392641,65.59002123448614],[22.649865943129743,65.5913314035826],[22.648418631299304,65.59086311980329],[22.645786893982724,65.59081573975428],[22.64525194043578,65.59048178716],[22.64315516355174,65.59076831392639],[22.643260225151742,65.59112400816724],[22.640251102239763,65.59127611248876],[22.64314553932378,65.59221282415862],[22.643030846599142,65.59330164014301],[22.64389066126769,65.59325817142219],[22.64421548103976,65.59288074198669],[22.646364971045216,65.59277204471219],[22.645873054166202,65.59406044945091],[22.644416111816827,65.59503663793271],[22.644573762428198,65.59557017737724],[22.642476569663884,65.59585669902475],[22.642634186503475,65.59639024083576],[22.6405894318693,65.59685458463701],[22.637727246480537,65.59898470357875],[22.63633221391924,65.59869415592986],[22.632944636899584,65.59904568937147],[22.633049599233175,65.59940139172502],[22.633909635549077,65.5993579773694],[22.63320704866846,65.59993494506018],[22.63229451370522,65.59980050419597],[22.631539405085533,65.60019961314218],[22.63024930054457,65.60026471318312],[22.62778442181918,65.59930606942144],[22.628969579052523,65.59888528510203],[22.62865487638756,65.59781816747376],[22.63162262033045,65.5960439171348],[22.630930359138393,65.59517635755958],[22.61831532103826,65.59382703196823],[22.614457030706618,65.59257742870567],[22.61172050770108,65.59217373999837],[22.611563555315144,65.5916401593325],[22.610651419005258,65.59150558411699],[22.61001228657623,65.59081578134058],[22.61077889984089,65.58897225250769],[22.611638636340444,65.58892896758292],[22.612341425267452,65.5883520978824],[22.615780257884484,65.5881788946107],[22.61766775691315,65.58718131435857],[22.619387080833924,65.58709466298073],[22.620896917476617,65.58629656638236],[22.619734080887003,65.58382823897846],[22.618822182044294,65.58369371052777],[22.618717490422664,65.58333799560634],[22.617428182679536,65.58340297837772],[22.617417105016955,65.58484750163746],[22.616180050160956,65.58509033265744],[22.616284715616555,65.58544604960362],[22.612666650666377,65.58797473198653],[22.60965767662767,65.58812622723892],[22.608577255161045,65.58890258206725],[22.60470839239105,65.58909724814124],[22.60272762847846,65.58829441520157],[22.603430601557676,65.58771758496239],[22.602687269696574,65.58667202073813],[22.601345514092195,65.58655900465305],[22.60064252394737,65.58713582538788],[22.60128131328276,65.5878256711565],[22.599457419563265,65.58755638760468],[22.598376711399858,65.58833267260793],[22.595315398213128,65.58830601845686],[22.59541979417097,65.58866175255272],[22.593752458312437,65.58892600170425],[22.59272370541379,65.58988011645916],[22.589336623947748,65.59023067011861],[22.586978477683957,65.58962707745117],[22.583539223102477,65.58979963132344],[22.58284873527621,65.58893183434449],[22.58059504719568,65.58868388439002],[22.578992841084553,65.5876813039948],[22.57716917301257,65.5874117498716],[22.576531029313752,65.58672179593451],[22.57561923658871,65.58658700638297],[22.575944979866236,65.58620971410426],[22.574225540497864,65.5862958736758],[22.574121445556788,65.58594012194258],[22.575632635226196,65.58514246284437],[22.577404059827508,65.5852341627026],[22.578159594895563,65.58483531927587],[22.577625625252775,65.5845011181094],[22.576765966904745,65.58454420924713],[22.576245392279354,65.58276545963191],[22.576896761992856,65.58201087288532],[22.57775633645251,65.58196778185881],[22.577600154172863,65.58143415828917],[22.579319259074996,65.58134796382491],[22.580022579698678,65.58077123871115],[22.581311869477936,65.58070657447087],[22.581852263326063,65.57957364529943],[22.559454828134044,65.58069937143787],[22.55794779495556,65.58133521493896],[22.55848144787647,65.58166948864984],[22.557621844838877,65.5817124706002],[22.557777619745785,65.58224611887574],[22.55643626626422,65.58213270104191],[22.555850717506335,65.58162053644777],[22.554991110847865,65.58166350350776],[22.554353701306912,65.5809734487833],[22.55321999436396,65.58157153848992],[22.551930577776965,65.58163596492714],[22.55079678592273,65.58223403736169],[22.550900544345456,65.58258980850101],[22.54746193157273,65.58276153700803],[22.5468615360698,65.58369389323947],[22.54567568978661,65.58411404218165],[22.54481598057479,65.58415695254527],[22.54509030385258,65.58360183435106],[22.543034606306357,65.58370441826307],[22.54500051999999,65.59045055999998],[22.5664975,65.58937627],[22.567966357087457,65.59439867678581],[22.568516360992376,65.59362061432314],[22.569428368643816,65.59375544444167],[22.57011854920127,65.59462330569819],[22.568880568549446,65.59486575986827],[22.568346502424202,65.59453152696277],[22.56805082838632,65.59468750626299],[22.56845434343569,65.59606722981773],[22.569844661455964,65.59517846478325],[22.571942660301758,65.59489294019292],[22.573010913020543,65.59556137755558],[22.58118106872565,65.59515198256598],[22.583344008329956,65.59359963464334],[22.584790337643877,65.59406854976342],[22.586080271785736,65.59400383838651],[22.587643698282395,65.59338392931274],[22.58695297183888,65.59251615344623],[22.585024611404663,65.59189095694514],[22.585884495875245,65.59184781664625],[22.587330770141804,65.59231670807561],[22.588620609848743,65.59225197603645],[22.589376167106966,65.59185307643953],[22.588789745301213,65.59134104807379],[22.590613804252396,65.59161045835832],[22.59131713533148,65.59103368067532],[22.592554714771254,65.5907910473304],[22.59549963540016,65.59190655429991],[22.598613602024958,65.59211106603091],[22.59877029236651,65.59264466276954],[22.59973464993914,65.59295717481987],[22.60102448414461,65.59289233726204],[22.60123347963848,65.59360379545977],[22.60300555610871,65.59369518934942],[22.602993705248558,65.5951397195004],[22.603958206601494,65.59545220321421],[22.603098239219374,65.595495446913],[22.603255046085838,65.59602903783808],[22.602017324998315,65.59627176001923],[22.600884090654016,65.59687020151591],[22.600988604171146,65.5972259305955],[22.60012857222523,65.59726915810111],[22.600976651084096,65.59867046166042],[22.604521508103108,65.5988532275552],[22.605108415362277,65.59936519010763],[22.609838878149866,65.59912722008681],[22.610594296777844,65.59872821611289],[22.611884384371866,65.59866328353955],[22.6117273814181,65.59812970353593],[22.614464538252417,65.59853338566816],[22.615219867620212,65.59813435955242],[22.61501044587092,65.59742292498306],[22.617160457908703,65.5973146366473],[22.617317566332275,65.59784820994304],[22.615859329078944,65.59882413703981],[22.61692886252059,65.59949225167283],[22.6151563495467,65.59940102504018],[22.616173521655234,65.59989128642603],[22.614558053399552,65.60033362777382],[22.614662770637214,65.60068934534888],[22.615522886480512,65.60064603451448],[22.615941833211256,65.60206890092964],[22.614326227451308,65.60251124121493],[22.614483315592928,65.60304481767358],[22.61297233367151,65.60384286211776],[22.613937281309106,65.60415527779207],[22.612077732913047,65.60513735485455],[22.636224159999998,65.60392032],[22.638850879999996,65.61281276999999],[22.66036163,65.61172502],[22.65772769,65.60283302],[22.679229229999997,65.60174268],[22.671317679999998,65.57506762],[22.69279562,65.5739756],[22.690155209999993,65.56508422999998],[22.711623970000005,65.56398964],[22.71692116,65.58177142],[22.69543802,65.58286691],[22.70072878,65.60064932],[22.72222633999999,65.59955293999998],[22.72753953,65.61733419],[22.77055749,65.61513051]],[[22.762289011739078,65.56158845271251],[22.76169978413784,65.56107713097066],[22.764222984033466,65.56076688488282],[22.764385973168494,65.55985582147446],[22.76572744063833,65.55996737664353],[22.76927206494015,65.55870181687958],[22.76873607791091,65.5583683182138],[22.76879228689076,65.55710166145136],[22.769650972391275,65.55705747787655],[22.771531056247063,65.55605802794389],[22.774053645194044,65.55574762438836],[22.775450822183142,65.55459243990353],[22.776685352357347,65.55434831569855],[22.776954580831834,65.55379282744157],[22.784630137951332,65.55177236462268],[22.7849525732364,65.55139465275107],[22.786240268791467,65.55132824152551],[22.786562675359363,65.55095052652628],[22.787903764086106,65.55106188910281],[22.787796924789763,65.55070631463315],[22.793216336513932,65.54988499630754],[22.793538624207166,65.54950726770078],[22.795738049902667,65.54957424052989],[22.795201924452876,65.54924083710036],[22.79606029705499,65.54919650697924],[22.79707910159949,65.54968552217385],[22.799332043529763,65.54993022571176],[22.800404441979612,65.5505969998606],[22.802228285490944,65.55086383734805],[22.808612733623793,65.55035316312885],[22.811992134848484,65.55144215931021],[22.81242084547923,65.55286437411398],[22.810596170794472,65.55404209010828],[22.811077890853465,65.5570865142388],[22.810433646297934,65.55784204206334],[22.807696298965695,65.55888636450109],[22.807105486455377,65.55981965827928],[22.805924566199472,65.5602418095153],[22.80474271684258,65.56210838333256],[22.801790515818592,65.56244148601938],[22.800662926830714,65.56304137947336],[22.799051140793566,65.56493009551356],[22.799587650845794,65.56526348134098],[22.799586489052473,65.56670791562838],[22.794967871859917,65.56875181892622],[22.79400037941574,65.56988501870941],[22.78927551882653,65.57012874976847],[22.78873903460446,65.56979532710623],[22.785571935520842,65.56941697825982],[22.784875180516913,65.56855017770727],[22.781708285713,65.56817174591153],[22.780689018021082,65.56768263195755],[22.77864827703291,65.5681488284683],[22.77225881134651,65.56865829082061],[22.770863520884014,65.56836900447583],[22.764044286332695,65.56890022044963],[22.763508146908997,65.56856670481947],[22.76264906960394,65.56861085763529],[22.762059667316752,65.56809953907248],[22.76281214652344,65.56769979491868],[22.76227604836496,65.56736627450027],[22.763028503623485,65.56696652952438],[22.762492418437777,65.56663300973985],[22.762762063211923,65.56607754231352],[22.760241683010406,65.56494331303362],[22.760940832446614,65.56436578024937],[22.76072776114212,65.56365458675641],[22.75863715236111,65.56249825802227],[22.762289011739078,65.56158845271251]],[[22.799761237340316,65.54990804946591],[22.8009953073016,65.54966373180892],[22.8011023213819,65.55001929511359],[22.799761237340316,65.54990804946591]],[[22.78367965065653,65.54134994727434],[22.783626283390902,65.5411721580316],[22.784055349226588,65.54115002767912],[22.78367965065653,65.54134994727434]],[[22.782287931674787,65.5396163074521],[22.781429846021943,65.53966055643077],[22.78132315129323,65.53930497593022],[22.782287931674787,65.5396163074521]],[[22.78212565445623,65.54052738242054],[22.781696596884103,65.5405495072129],[22.781643245106988,65.54037171711012],[22.78212565445623,65.54052738242054]],[[22.781320888219497,65.54074942105416],[22.781374238732347,65.54092721128477],[22.78094517381626,65.54094933402297],[22.781320888219497,65.54074942105416]],[[22.78110749419144,65.54003825986358],[22.78067844362018,65.54006038169456],[22.780625099987752,65.53988259114844],[22.78110749419144,65.54003825986358]],[[22.776009593080737,65.54192588269919],[22.77584964622256,65.54139250517429],[22.778104123334458,65.54019308730156],[22.779767002174484,65.53992683082198],[22.77987367876603,65.54028241261311],[22.78073178805484,65.54023817221386],[22.780356076179828,65.54043808369168],[22.78089182617245,65.54077154361087],[22.779764654730307,65.54137127681838],[22.7789065061957,65.54141551214326],[22.779066515716334,65.54194888577908],[22.77692108729206,65.54205945566143],[22.77681444216989,65.54170387145061],[22.776009593080737,65.54192588269919]],[[22.77739856348725,65.54510403056022],[22.77734522975902,65.54492623874233],[22.777774363768675,65.54490412548981],[22.77739856348725,65.54510403056022]],[[22.77621780067258,65.54552594825272],[22.77664694570136,65.54550383808252],[22.776700276095767,65.54568163018278],[22.77621780067258,65.54552594825272]],[[22.773592281024595,65.54403634107071],[22.773645586979814,65.54421413450008],[22.773216460097125,65.54423623596671],[22.773592281024595,65.54403634107071]],[[22.754244739189907,65.60171923482318],[22.754084795026493,65.6011858338876],[22.755108448367835,65.60023065929462],[22.75478855393278,65.59916385916316],[22.75597206330122,65.59874207984824],[22.757638899758348,65.59847602523752],[22.758605648496776,65.59878748752081],[22.762152680707597,65.59896649112235],[22.763816422417275,65.6001448231054],[22.765106595067603,65.6000785658877],[22.76499982449184,65.5997229744011],[22.765859924030085,65.59967879758874],[22.766989874212488,65.59907913857236],[22.769140053625694,65.59896865987635],[22.769353703688285,65.59967983580232],[22.767900538646806,65.60065719702386],[22.76440662536768,65.60065612669611],[22.76101623692275,65.60245502631305],[22.75848897068438,65.6027652613721],[22.754244739189907,65.60171923482318]],[[22.76578686235332,65.55725626586222],[22.76584014770251,65.55743406228555],[22.7654107952562,65.55745614397291],[22.76578686235332,65.55725626586222]],[[22.760414889641957,65.55969888262459],[22.75912670136288,65.55976507922936],[22.756177723513698,65.55865283714904],[22.758218150575765,65.55818694687441],[22.761276992692338,65.5582102894063],[22.76235204330444,65.55743288404288],[22.76530423110666,65.55710055073706],[22.764335836540738,65.55823357010254],[22.76143676593415,65.55874368425384],[22.760414889641957,65.55969888262459]],[[22.74349557935243,65.56435856964121],[22.743818762921723,65.56398093763028],[22.74639564274279,65.56384878876658],[22.747095075829957,65.56327131699281],[22.74881293877694,65.56318318603846],[22.7481707570159,65.56249400575997],[22.749352742653073,65.56207229414863],[22.749246374794318,65.56171668755121],[22.750964126507345,65.56162853334506],[22.75123397352471,65.56107308438602],[22.750698163372036,65.56073952000277],[22.751826831475714,65.56013998766046],[22.752738854717848,65.56027370083049],[22.752632449524818,65.55991809700943],[22.75649707508612,65.55971963948018],[22.756820014441182,65.55934198228641],[22.758214665603642,65.55963140467946],[22.75832114553126,65.55998700379469],[22.756816455499152,65.56078644085039],[22.755098783166453,65.5608746606388],[22.754399591468513,65.56145216685678],[22.7526286596717,65.5613625578887],[22.75149995904131,65.56196209655718],[22.751283308692965,65.56269534847598],[22.74999494435834,65.56276146920166],[22.748166727438374,65.56393846906487],[22.746878292117007,65.56400456400551],[22.74671467073894,65.564915615161],[22.744190844268307,65.5652255759239],[22.744403479785937,65.56593679722023],[22.740161431784188,65.56633477546225],[22.739519394327516,65.56564555696242],[22.740595399404242,65.56486829617434],[22.74349557935243,65.56435856964121]],[[22.757579380737887,65.55605334954984],[22.756720703639882,65.55609746454802],[22.756667483773708,65.55591966423543],[22.757579380737887,65.55605334954984]],[[22.754975972277666,65.54589666077851],[22.754546798646523,65.54591870977777],[22.75449361866144,65.54574090830636],[22.754975972277666,65.54589666077851]],[[22.751974968999313,65.56500677796657],[22.752404459555684,65.56498473295247],[22.7524576726771,65.56516253485336],[22.751974968999313,65.56500677796657]],[[22.7524576726771,65.56516253485336],[22.754175638388308,65.56507434197222],[22.754282090040526,65.56542994424606],[22.752993599705206,65.56549609180801],[22.7524576726771,65.56516253485336]],[[22.751568573737185,65.55636205293195],[22.75199792230226,65.55634001055277],[22.75205111136028,65.55651781282906],[22.751568573737185,65.55636205293195]],[[22.75205111136028,65.55651781282906],[22.75253365473012,65.55667357112809],[22.752104301218772,65.55669561507868],[22.75205111136028,65.55651781282906]],[[22.742959725690284,65.60049223497093],[22.74285325573612,65.60013662478414],[22.741939866024527,65.60000286617355],[22.741726962031063,65.59929164392582],[22.74334075428702,65.59884793909147],[22.747264506727873,65.59882746099915],[22.751024631695888,65.5997179375618],[22.751827758797194,65.6009404991058],[22.7480102406231,65.6013167044261],[22.74473331026369,65.60058192953713],[22.742959725690284,65.60049223497093]],[[22.75146220376964,65.5560064479376],[22.751515388353226,65.55618425044811],[22.751086041860777,65.55620629143678],[22.75146220376964,65.5560064479376]],[[22.750603515731,65.55605052834363],[22.749155971821047,65.55558322947638],[22.750926499131786,65.55567288328272],[22.750603515731,65.55605052834363]],[[22.748968512661552,65.56516105918183],[22.748539015693357,65.56518309451496],[22.748485829254985,65.56500529095919],[22.748968512661552,65.56516105918183]],[[22.74187515763075,65.56769118749864],[22.742681094132077,65.56746934648199],[22.742145255060898,65.56713575210239],[22.74289801964925,65.56673610397641],[22.746657391135898,65.56618227492896],[22.746493752915132,65.56709332604403],[22.745687861673247,65.56731518688386],[22.7457942085467,65.56767079622291],[22.74493512460534,65.56771484859708],[22.74552418466131,65.56822623736643],[22.744665081857796,65.56827028840488],[22.744607704792706,65.56953694845988],[22.74278308896014,65.56926942453406],[22.742623619681268,65.5687360067855],[22.74171134508441,65.56860223527114],[22.74187515763075,65.56769118749864]],[[22.73450492751372,65.55615390459097],[22.734075564186334,65.55617589749913],[22.734022498553117,65.55599808762841],[22.73450492751372,65.55615390459097]],[[22.663019902270655,65.60185673823845],[22.66226489717128,65.60225601211707],[22.660974302800383,65.60232139812152],[22.660008555827908,65.60200930307404],[22.661141097490297,65.60141040735746],[22.66243164616786,65.6013450204019],[22.663019902270655,65.60185673823845]],[[22.651619704411623,65.59431124075212],[22.651032010673873,65.59379946648593],[22.649689700087485,65.5936868842415],[22.64916392208951,65.59190843939405],[22.651313306870577,65.59179967300739],[22.654331416044194,65.59020284463246],[22.65782390487101,65.59020647360126],[22.658473375696207,65.58945154312497],[22.659333352415164,65.5894079721796],[22.660342428711015,65.59134242607973],[22.659157651574052,65.59176347117398],[22.65893818638413,65.59249661945864],[22.657805969612067,65.5930954953415],[22.655708331316166,65.5933822370093],[22.655813577190223,65.59373792065847],[22.654953770707547,65.59378145694474],[22.654629098017054,65.59415890788851],[22.651619704411623,65.59431124075212]],[[22.654698482006527,65.60029260933993],[22.655830595345485,65.5996937771105],[22.6571205942609,65.59962846042102],[22.65786650610063,65.60067373090884],[22.65566378147883,65.60060475574032],[22.654698482006527,65.60029260933993]],[[22.65690973020659,65.60776195487149],[22.655724642431732,65.60818295694936],[22.65395142456605,65.60809219123077],[22.653793490075774,65.60755866440017],[22.65621629385231,65.60689452281842],[22.65690973020659,65.60776195487149]],[[22.647335582987754,65.6004846333923],[22.644817505507483,65.59934842778391],[22.644607262804648,65.59863704256765],[22.645414686118688,65.59841571711638],[22.645476726660757,65.59714905419436],[22.64666149221085,65.59672813556244],[22.646933742358407,65.5961728547486],[22.647793644020673,65.59612936299115],[22.648925743897948,65.59553058249712],[22.650101155422117,65.59655414485667],[22.650803274869812,65.59597710367339],[22.65558524335852,65.59591556093689],[22.655953655161706,65.59716045319355],[22.655146363545487,65.5973818334357],[22.654926906868457,65.59811496938696],[22.652987480711975,65.5989351638213],[22.649600120443058,65.59928706729265],[22.648520466605945,65.6000636990091],[22.64964347898639,65.60090941830715],[22.648081130086258,65.601529955765],[22.646308389838087,65.60143909577043],[22.646150660770758,65.6009055589089],[22.647335582987754,65.6004846333923]],[[22.641013656674357,65.6056777717223],[22.63951314334487,65.60503156178564],[22.639733083866233,65.604298443185],[22.64059326861412,65.60425498938663],[22.640918264934246,65.60387756518185],[22.641778433378594,65.60383410482507],[22.64236618588395,65.60434591441272],[22.643226366896535,65.60430244571127],[22.643551325116615,65.60392501625094],[22.646614473081485,65.60395067703857],[22.6469393774634,65.60357324086739],[22.648282191762092,65.60368584232481],[22.648931936219896,65.60293096279791],[22.65016950914417,65.60268785903585],[22.65001169176831,65.6021543270915],[22.652749831009928,65.60255730771901],[22.65311822056337,65.6038022071627],[22.647790195935794,65.60497425420513],[22.647623076254135,65.60588522714701],[22.64643791733257,65.60630615734911],[22.644717432564526,65.60639312757365],[22.643752041073586,65.60608091238983],[22.641548881675124,65.60601173654173],[22.641759112617667,65.6067231261606],[22.64353220240711,65.60681403578923],[22.64181167233497,65.60690097350015],[22.641056512803242,65.60730013039728],[22.639933487460684,65.60645434757387],[22.639020688643203,65.60631994989593],[22.639345732131194,65.60594252857489],[22.641013656674357,65.6056777717223]],[[22.651661029794393,65.60477846791214],[22.651230940317106,65.60480022679317],[22.651178321324416,65.60462238333022],[22.651661029794393,65.60477846791214]],[[22.65137506287938,65.59053301065667],[22.650945208487784,65.59055476631676],[22.65089262617481,65.59037692239933],[22.65137506287938,65.59053301065667]],[[22.651217309667153,65.58999947936232],[22.65126989327867,65.59017732315321],[22.65084004465436,65.5901990784558],[22.651217309667153,65.58999947936232]],[[22.649439237300825,65.58250826773747],[22.649009513424254,65.58253001656657],[22.648956963875943,65.58235217165303],[22.649439237300825,65.58250826773747]],[[22.646479522721222,65.59168322765461],[22.646154750114402,65.59206066145639],[22.64561976529062,65.59172671047786],[22.646479522721222,65.59168322765461]],[[22.643312757139448,65.59130185524859],[22.64374263155835,65.59128012103558],[22.643795167221956,65.59145796791223],[22.643312757139448,65.59130185524859]],[[22.643795167221956,65.59145796791223],[22.644277583072693,65.59161407898118],[22.643847703677444,65.5916358147628],[22.643795167221956,65.59145796791223]],[[22.643250211708505,65.60881382215169],[22.64163467591552,65.6092564527677],[22.641371862609606,65.60836721571775],[22.642557198321686,65.6079463233083],[22.642452064390632,65.60759062927346],[22.643742495411384,65.60752542202755],[22.643250211708505,65.60881382215169]],[[22.64040643521629,65.60805497959142],[22.639976280217127,65.60807670721094],[22.63992373018444,65.60789885913464],[22.64040643521629,65.60805497959142]],[[22.632064180422148,65.601978129444],[22.63034392397879,65.60206493420955],[22.6302389856769,65.60170922973028],[22.632064180422148,65.601978129444]],[[22.616046577791217,65.60242461727417],[22.61615132553035,65.60278033351497],[22.61572123335475,65.60280199167455],[22.615186404200685,65.60246793166898],[22.616046577791217,65.60242461727417]],[[22.614580441095118,65.59744457901442],[22.613720429175604,65.59748788344127],[22.61366808437081,65.59731002420023],[22.614580441095118,65.59744457901442]],[[22.6090133299009,65.59483691678763],[22.60944329717736,65.59481527893355],[22.609495607059113,65.59499313998626],[22.6090133299009,65.59483691678763]],[[22.608635665945776,65.59503641483823],[22.60906563689674,65.59501477801815],[22.609117944681188,65.59519263922283],[22.608635665945776,65.59503641483823]],[[22.60181565343311,65.58815978516174],[22.60138578843445,65.5881814003328],[22.60133355046494,65.5880035357576],[22.60181565343311,65.58815978516174]],[[22.59756918081573,65.5885537485017],[22.597139305060622,65.58857535173503],[22.59708709514952,65.58839748541],[22.59756918081573,65.5885537485017]],[[22.58459466799041,65.59191252527683],[22.584542535725365,65.59173465383954],[22.5849724762538,65.5917130856851],[22.58459466799041,65.59191252527683]],[[22.580099918238123,65.58997210764578],[22.58052983409528,65.58995055234655],[22.58058193463295,65.5901284254845],[22.580099918238123,65.58997210764578]],[[22.58144176976204,65.59008531089653],[22.583369909852152,65.5907105552218],[22.58347415419535,65.59106629908848],[22.580686138064486,65.59048417168323],[22.58058193463295,65.5901284254845],[22.58144176976204,65.59008531089653]],[[22.581207202350466,65.59226290113348],[22.580777248978485,65.59228445873576],[22.580725141900988,65.59210658572931],[22.581207202350466,65.59226290113348]],[[22.58047773434298,65.58977267918291],[22.580907646529308,65.5897511228491],[22.580959749167057,65.58992899583562],[22.58047773434298,65.58977267918291]],[[22.57827607709212,65.58970256860084],[22.577846163079776,65.58972411748705],[22.577794082210705,65.58954624320931],[22.57827607709212,65.58970256860084]],[[22.55918524531154,65.58109285546702],[22.55923717868626,65.58127073762157],[22.558807384891956,65.5812922312721],[22.55918524531154,65.58109285546702]],[[22.558207430308276,65.58222462797656],[22.558259359726577,65.58240251050734],[22.557829546279866,65.58242400158309],[22.558207430308276,65.58222462797656]],[[22.5538573896798,65.5822615981304],[22.55342757417789,65.58228307673828],[22.553375678051253,65.58210519221454],[22.5538573896798,65.5822615981304]],[[22.54448980497614,65.58453418223272],[22.544059942646598,65.58455563473792],[22.54400810505137,65.58437774641287],[22.54448980497614,65.58453418223272]]],[[[22.809191801796615,65.52612964369605],[22.808625547333367,65.5257978615627],[22.808223809999998,65.52291604999999],[22.807082860763177,65.52297503416762],[22.807126106668637,65.52370890032712],[22.8061072234207,65.52466437506547],[22.8063211466441,65.52537549522715],[22.803425488975375,65.52733079874261],[22.801603298137255,65.52706395840514],[22.800960681812345,65.52637500714502],[22.798816645276826,65.52648587287528],[22.79736994092843,65.52601902661004],[22.796512333056306,65.52606335611272],[22.79581496037081,65.52664103417717],[22.79677942972312,65.52695227648181],[22.795062606157376,65.52848536210666],[22.79785078095588,65.5276190795195],[22.799137264096554,65.52755257130151],[22.79897562729872,65.52846365743925],[22.80020870037226,65.52821935674287],[22.8030490391946,65.52897519564827],[22.803209449915393,65.5295085394077],[22.801654409202712,65.53013060768934],[22.802136740737904,65.53028620997398],[22.80111742948184,65.53124165567846],[22.8001527478164,65.53093044326023],[22.79907988994078,65.53170809372146],[22.797417741869193,65.53197455478843],[22.797686323105538,65.53141903663285],[22.798866101328308,65.53099696183922],[22.79790283092561,65.52924129887636],[22.7958653855541,65.52970769260465],[22.794900822641885,65.52939644544195],[22.7946871707218,65.52868530623812],[22.793829469763292,65.5287296215047],[22.792863309021246,65.52986279944012],[22.793398990569095,65.53019621573071],[22.792165757638976,65.53044046258216],[22.79232595686471,65.53097382011435],[22.79318373464238,65.53092951256669],[22.792915061205395,65.5314850236899],[22.793826266929752,65.53161849780123],[22.793986508813934,65.53215185313414],[22.793075283481574,65.53201838019345],[22.79323551298426,65.5325517364551],[22.7919470700723,65.53406263642053],[22.79414518494362,65.53412964614078],[22.794627548629485,65.53428527204633],[22.794305451958415,65.53466300088968],[22.795270207086258,65.53497424985079],[22.79639674586748,65.5343744078227],[22.797254627059733,65.53433007609505],[22.79634330919383,65.534196623815],[22.795647213276045,65.53332986633446],[22.798596219542304,65.5329969171585],[22.798918234217773,65.53261918004878],[22.7997760525498,65.53257483468082],[22.79956096132694,65.53330813888219],[22.79746979017228,65.53359677440805],[22.79805905689388,65.53410795625446],[22.800954650397898,65.53359717741682],[22.804010585025818,65.53361968681713],[22.80411756077645,65.53397524831347],[22.805028907823473,65.53410865344009],[22.809104060252796,65.53317558879665],[22.811307397801464,65.5331531184903],[22.809191801796615,65.52612964369605]],[[22.798489323845487,65.5326413509208],[22.798435877202373,65.53246356776157],[22.798864784708115,65.53244139707134],[22.798489323845487,65.5326413509208]],[[22.79591437025868,65.53421878768498],[22.79548543051953,65.53424095034684],[22.795432000383336,65.53406316594881],[22.79591437025868,65.53421878768498]],[[22.79521828787157,65.5333520280877],[22.79516486175179,65.53317424355518],[22.79559378428945,65.53315208198363],[22.79521828787157,65.5333520280877]],[[22.793774457186263,65.52999627446562],[22.794203328932017,65.52997411737243],[22.794256740596232,65.53015190238888],[22.793774457186263,65.52999627446562]],[[22.794256740596232,65.53015190238888],[22.794739029737777,65.53030752871403],[22.794310153063392,65.53032968737845],[22.794256740596232,65.53015190238888]],[[22.794735938410287,65.5331964039187],[22.794307014265005,65.53321856307416],[22.794253594682054,65.53304077815137],[22.794735938410287,65.5331964039187]],[[22.794467277832833,65.53375191768123],[22.794038344283088,65.53377407617376],[22.79398492515758,65.53359629114993],[22.794467277832833,65.53375191768123]],[[22.7944169804066,65.53068525727693],[22.7939880971963,65.53070741509678],[22.793934685989406,65.53052962997933],[22.7944169804066,65.53068525727693]],[[22.79360940992959,65.53379623345823],[22.79318047477237,65.5338183895346],[22.793127061380797,65.5336406041474],[22.79360940992959,65.53379623345823]],[[22.793130328365095,65.53075172711279],[22.792701442744267,65.53077388130895],[22.792648040136093,65.53059609564652],[22.793130328365095,65.53075172711279]]],[[[22.64196564,65.54947960000001],[22.64287978253118,65.55257744153496],[22.64309207601498,65.55214395190752],[22.646159814381523,65.55072511847904],[22.64605490959382,65.55036942475148],[22.647772332093755,65.55028244498476],[22.64970918883954,65.54946231170938],[22.64959995837167,65.54909208932645],[22.64196564,65.54947960000001]],[[22.649227378799026,65.54930621822247],[22.64879804189425,65.54932796892649],[22.64874557450742,65.54915012314258],[22.649227378799026,65.54930621822247]]],[[[22.626136741226485,65.5773478460562],[22.62546843458125,65.57812411467678],[22.626380168155432,65.57825860480708],[22.626484939796672,65.57861431359984],[22.62895821331281,65.57812848176472],[22.62949269672282,65.578462496652],[22.632877656400325,65.57811106721162],[22.634009346147273,65.57751240243718],[22.635885310236645,65.57795912438199],[22.636639724434826,65.57756000095884],[22.63841080232472,65.5776509910349],[22.63967579720159,65.57666735433605],[22.626136741226485,65.5773478460562]]],[[[22.610697749737447,65.57812383116885],[22.612095833859865,65.57861778173442],[22.613269004855503,65.57964165233722],[22.614180733360303,65.57977621594965],[22.61378549728578,65.57796863669707],[22.610697749737447,65.57812383116885]],[[22.612850639248027,65.57821877282353],[22.612420949374265,65.57824041751194],[22.612368660100632,65.57806255727841],[22.612850639248027,65.57821877282353]]],[[[22.80126965696025,65.54188603810964],[22.801216168510493,65.5417082563503],[22.800787111084198,65.54173043528824],[22.80126965696025,65.54188603810964]]],[[[22.79579152048238,65.54975202443235],[22.796220714993154,65.54972985822182],[22.79616724154267,65.54955207450122],[22.79579152048238,65.54975202443235]]],[[[22.759549291660452,65.56263192895108],[22.75997873535117,65.56260986293819],[22.759925477215084,65.56243206415672],[22.759549291660452,65.56263192895108]]],[[[22.744505581432996,65.5677368729687],[22.743593333231065,65.56760311252083],[22.74375281399457,65.56813652912163],[22.744665081857796,65.56827028840488],[22.744505581432996,65.5677368729687]]],[[[22.74208775422204,65.56840241247198],[22.74337642164434,65.568336355885],[22.743323262665797,65.56815855022387],[22.74208775422204,65.56840241247198]]],[[[22.61502930584046,65.60193435604515],[22.614599226523204,65.60195601089018],[22.614651588966094,65.60213386963538],[22.61502930584046,65.60193435604515]]]]}},{"type":"Feature","properties":{"cyano_daymap_file_id":4201,"date":"2019-06-16Z","cloud":null,"sub_surfac":null,"surface":null,"no_data":null,"class":1,"color_hex":null,"algae_class":"class_1","source_date":"2019-06-16"},"geometry":{"type":"MultiPolygon","coordinates":[[[[22.2439036294911,65.63222700788518],[22.272869189999998,65.63084023],[22.271522529623663,65.62605319730244],[22.270896271860195,65.62571712800289],[22.269703954661793,65.62613517689002],[22.26711903006569,65.62625925129291],[22.26635745654204,65.62665659862265],[22.26506496208627,65.6267186131367],[22.263541701462927,65.62751328445412],[22.263691766320488,65.62804728594266],[22.263160871791474,65.62771195003455],[22.26229916845472,65.62775327650718],[22.262830052881775,65.62808861552772],[22.261687505164314,65.62868460461017],[22.260394896408712,65.62874658045534],[22.259683144814137,65.6293218977654],[22.253151199414756,65.62783090158985],[22.252370725024637,65.62660550289294],[22.25546770697107,65.62519436817325],[22.256329338554742,65.62515308118668],[22.25699108748392,65.62439977673395],[22.25785268980795,65.62435848138072],[22.257752742908824,65.62400247561548],[22.25904512331839,65.62394052448745],[22.25975674826039,65.62336521137927],[22.26104909122432,65.62330324354566],[22.26551807051749,65.6205632663714],[22.26377582447287,65.61902326604084],[22.261372353414075,65.61823656708097],[22.259942184087713,65.61469718395388],[22.26070351691298,65.61429987113048],[22.26073438519903,65.61285520003496],[22.265501623322415,65.61118324980605],[22.264390530427207,65.61033458151192],[22.260946011588263,65.61049986374476],[22.260615365588034,65.61087652276979],[22.25650932120782,65.61179502239784],[22.256228529667748,65.61234967632404],[22.254125426307056,65.61263087759762],[22.253413955981483,65.61320616283193],[22.251741377142814,65.6134666968217],[22.250218456054697,65.61426123115834],[22.250318254657902,65.61461724334247],[22.24902631260276,65.6146791158991],[22.250368155089717,65.61479524939867],[22.25094851835271,65.61530864012856],[22.248745332494796,65.61523375778783],[22.247784246796744,65.61491898459278],[22.243096863047796,65.61532372773421],[22.24491924554432,65.61559731166643],[22.25013710325139,65.61552789963385],[22.25033671296797,65.61623992391578],[22.248813589979395,65.61703444609228],[22.248913382180145,65.61739045925646],[22.24800210299873,65.61725369487196],[22.247371866954374,65.61656228558529],[22.23860861555035,65.6164403703185],[22.237366365115808,65.6166801554938],[22.234583006003454,65.61609162295078],[22.21879619019037,65.61738636994481],[22.21717265504906,65.61782454740484],[22.211092708297482,65.61793386500034],[22.209518633987418,65.61854998371348],[22.207795626859255,65.61863201871554],[22.20411719120823,65.61952862317374],[22.20335482643567,65.61992566179175],[22.20365238439722,65.62099380806129],[22.204994374420195,65.62111034146882],[22.203271180378476,65.62119232688744],[22.202939561860564,65.62156886939701],[22.20164713879677,65.62163034305803],[22.201018015328344,65.62093873066326],[22.197754636959175,65.62019198049917],[22.195169891454913,65.62031482751907],[22.193644814707724,65.62110881433362],[22.18895537940846,65.62151190416238],[22.18905437245775,65.62186796423939],[22.18743004046223,65.62230583101984],[22.18441418762048,65.62244894609596],[22.17689215731822,65.62208412428299],[22.175366409458356,65.62287793377818],[22.1747517085983,65.62380893992163],[22.17020958187817,65.62474556567672],[22.165887431691527,65.62332677417909],[22.163733068229792,65.62342870126297],[22.16401595481006,65.62287419901617],[22.162144542423352,65.62242160015356],[22.161565752065982,65.62190785506374],[22.16223019972887,65.62115493870789],[22.16153990585736,65.61866236902607],[22.163065843959362,65.6178686967186],[22.16291791693025,65.61733457577776],[22.16401297611289,65.6165612734277],[22.163815727579333,65.61584911348302],[22.162043427485226,65.61575258867401],[22.16174765116182,65.61468434388644],[22.16531517030828,65.61180993889108],[22.165216548448036,65.61145385975931],[22.163493843512864,65.61153538873869],[22.16072548184294,65.61256822452962],[22.161833323495777,65.6134176824296],[22.161119761545887,65.61399255431776],[22.161464795364644,65.61523884165176],[22.160603311914162,65.61527958853627],[22.161132635996985,65.61561529792185],[22.15955748364305,65.61623090847199],[22.158991636428365,65.61733989658703],[22.157797844804833,65.61775707981195],[22.15680108686575,65.6188864249997],[22.154844074537184,65.61970039394711],[22.154942592039845,65.62005648078997],[22.15413019067972,65.62027523600213],[22.154708797020014,65.62078901121856],[22.153847116878378,65.62082972161762],[22.153945625884297,65.62118580918512],[22.152800825613237,65.62178099935147],[22.152997826627235,65.62249317593583],[22.15223458011382,65.62288996601067],[22.15296097157081,65.62393788055634],[22.151249688907836,65.62564202849612],[22.151594435855024,65.62688834087115],[22.150732547601432,65.62692903556979],[22.15126199211363,65.62726477820334],[22.153035048661998,65.62736142171447],[22.15413081352206,65.62658818402811],[22.157147347356762,65.62644566433897],[22.157245927245523,65.62680174906656],[22.15810779897633,65.62676101753573],[22.158206393467403,65.62711710149874],[22.159033553341207,65.62724174136856],[22.168593406241357,65.62678894033367],[22.168499393860877,65.62644989758154],[22.17012431273157,65.62601222785803],[22.1699761847611,65.62547811576742],[22.179123848619856,65.62540550745148],[22.180317632870914,65.62498815654352],[22.180119860489057,65.62427602289821],[22.182655626943625,65.62397539520086],[22.182472047088805,65.62488599352207],[22.181278303091304,65.62530336099219],[22.18187316821125,65.6261599463495],[22.184903751240984,65.6260164032274],[22.187162201916223,65.6244830971602],[22.194006487363744,65.62397773178819],[22.194818654351014,65.62375876536593],[22.194719573656403,65.62340270989894],[22.19763635034024,65.62290333639464],[22.19916140504849,65.62210930968506],[22.20385077135396,65.62170590510087],[22.20542517105755,65.62108984207435],[22.207628765496516,65.62116534961604],[22.208208441225516,65.62167891036675],[22.214239615040192,65.62139167958222],[22.21844811243375,65.62083033189067],[22.21864690319945,65.62154240567442],[22.221231636769172,65.62141915883328],[22.223667144606495,65.62076181900875],[22.223998449844146,65.62038523423635],[22.226102527670395,65.62010444129277],[22.226814791827184,65.61952927655723],[22.23064173549615,65.61916617103383],[22.23140365292733,65.61876899965905],[22.234749888144062,65.61824835134584],[22.23503119810674,65.61769373221108],[22.236273519248137,65.61745396547505],[22.236124091255757,65.61691993072293],[22.24656038189649,65.61678152663505],[22.24805199367371,65.61743170178158],[22.247440037817878,65.61836297533152],[22.246297545695235,65.61895884802861],[22.24543610022038,65.61900007625226],[22.244873891085668,65.62010934858576],[22.243300510452254,65.62072581099278],[22.243699463651026,65.62214987980657],[22.245041673539145,65.62226605686065],[22.246252458462376,65.62347088267329],[22.249748725016687,65.62348392247954],[22.249898478442223,65.62401794062538],[22.24860606791918,65.62407981414006],[22.24784426749375,65.62447707074634],[22.246982642082273,65.6245183094928],[22.246882843334042,65.62416229513823],[22.245590416980875,65.62422414312068],[22.245690198311934,65.62458015849363],[22.243304792456623,65.62541585819868],[22.24383538527726,65.62575126648066],[22.243123340202338,65.6263265089595],[22.24380360028103,65.62719594285569],[22.243789924524993,65.63026330380681],[22.244751542780264,65.63057809712096],[22.244901242788206,65.63111212068995],[22.244039391723913,65.63115334490526],[22.24466991658065,65.63184476517539],[22.243808040771132,65.63188598831607],[22.2439036294911,65.63222700788518]],[[22.25935225570087,65.62969855635353],[22.25892136782022,65.62971920973884],[22.25882138142335,65.6293632050718],[22.25935225570087,65.62969855635353]],[[22.259071353080373,65.63025321655948],[22.25864045573266,65.63027386923889],[22.258490479184264,65.62973986190805],[22.259071353080373,65.63025321655948]],[[22.2587404438748,65.63062987400622],[22.258309539963683,65.63065052580963],[22.258209557629627,65.6302945207022],[22.2587404438748,65.63062987400622]],[[22.25835953226366,65.6308285283274],[22.258459519129605,65.63118453329098],[22.258028605750688,65.6312051843884],[22.25835953226366,65.6308285283274]],[[22.24629383493236,65.63140628981982],[22.24634374666483,65.63158429707126],[22.245912815057938,65.63160491394503],[22.24629383493236,65.63140628981982]],[[22.245962724639885,65.63178292134234],[22.246012634975965,65.63196092871571],[22.245581696805555,65.63198154471277],[22.245962724639885,65.63178292134234]],[[22.167045271760664,65.62435422667957],[22.167143977692803,65.62471030377442],[22.168337928705494,65.62429304551344],[22.16891690773843,65.62480676295056],[22.166331539322623,65.6249291246565],[22.16604868255826,65.62548363092377],[22.163463230535335,65.62560594456333],[22.16326591430912,65.6248937846117],[22.164029046128256,65.62449694016175],[22.167045271760664,65.62435422667957]]],[[[22.20744128,65.5527948],[22.16447098,65.55483822],[22.16201311,65.54593613],[22.148049553651695,65.54659605282764],[22.14364628208819,65.54754096112505],[22.141792105178716,65.54871081517942],[22.141803512864776,65.55033357543878],[22.13914989131809,65.55334482755131],[22.139394898813116,65.55423508288914],[22.137822856451997,65.55485043828844],[22.137589061052505,65.5555829427841],[22.137932037637412,65.55682930397748],[22.139515488815857,65.55783670775588],[22.14381358229339,65.55763361256602],[22.144537665599977,65.55868159020588],[22.143727062768402,65.55890027259859],[22.143825151277074,65.55925637097631],[22.14296548500639,65.55929700029577],[22.143063564913476,65.55965309924811],[22.141774042626427,65.55971403513266],[22.141540322833695,65.56044654496448],[22.138912170136763,65.56039032967398],[22.1381617031245,65.56240979634404],[22.135201450581132,65.56272992152188],[22.13553335574488,65.56235352429572],[22.130804507181576,65.56257667285188],[22.129612717018595,65.56299361533777],[22.12904661773645,65.56410249465291],[22.13005335444991,65.56459610587261],[22.130249212498963,65.56530832328392],[22.129487242982556,65.56570498693308],[22.130945613676005,65.56942384783127],[22.12798447027988,65.56974384049163],[22.126841265129023,65.57033881981664],[22.12517007745495,65.5705979445719],[22.12450575780975,65.57135069768768],[22.123645656211313,65.57139122151182],[22.120215369917933,65.57317604175911],[22.119932025735775,65.57373046687967],[22.119022928571802,65.57359290711118],[22.11807496224788,65.5749000577822],[22.11645228498547,65.57533714893519],[22.115650805726737,65.57717846449967],[22.11479049508975,65.57721894005125],[22.114458109012457,65.57759529635156],[22.114555882309144,65.57795141660444],[22.115465111123168,65.57808900190834],[22.11460477006356,65.57812947669612],[22.113079591167278,65.5789226545003],[22.1129426778566,65.58001125038213],[22.111319596688386,65.58044829040733],[22.11161283544086,65.58151665778861],[22.102529028358187,65.58176311856766],[22.102431402260585,65.58140698917053],[22.101522121024175,65.5812693261732],[22.100280209028043,65.58150798523351],[22.09458950161478,65.58141429745035],[22.093826518928243,65.58181079126962],[22.090814740237974,65.58195200724538],[22.08967014649458,65.582546719164],[22.087137238476377,65.58284576580814],[22.08522559987762,65.5834763707963],[22.085806149999996,65.5855996],[22.073232914889918,65.58618760340636],[22.07338261182969,65.58673584493872],[22.074673664512247,65.58667547683898],[22.07563164446017,65.58699137531163],[22.0749654840292,65.58774392838954],[22.076222865588456,65.59075107435494],[22.079714845613264,65.59076807240791],[22.080055610262164,65.59201458484118],[22.078625915273328,65.59316357979343],[22.07934845518395,65.59421188294773],[22.080785941464857,65.59468567911816],[22.080168438407572,65.59561632810815],[22.081459912612466,65.59555589821377],[22.08241830647845,65.59587174982927],[22.088875643173495,65.59556939486863],[22.089639095557793,65.59517292156684],[22.090743864590042,65.59602292750469],[22.092084103810528,65.59614047601593],[22.093140210902025,65.59681239502483],[22.091466976691272,65.59707116741592],[22.091320661819527,65.59653696152515],[22.090459665717002,65.59657730546157],[22.090792630369364,65.59620099639316],[22.089021901296462,65.59610360366392],[22.0862521139536,65.59713509349433],[22.085780963241326,65.59859997572563],[22.07630897958431,65.59904315381966],[22.074253525780357,65.5994999444906],[22.07277452406343,65.60047081509765],[22.07153142575214,65.60070924977322],[22.07235848867963,65.6037365419995],[22.071497218897935,65.6037767808529],[22.07121987101257,65.60431683496567],[22.09068063,65.60340659],[22.092435861431653,65.60981129534174],[22.093972634463594,65.6093982134556],[22.093297861326416,65.60852805775784],[22.094159247699558,65.60848769400043],[22.094297033774893,65.60739910716767],[22.095158380891913,65.60735873810873],[22.09501192042569,65.60682453722887],[22.09663691113875,65.60638765380918],[22.09649042690275,65.605853454577],[22.099074293549435,65.60573229701936],[22.100219660960896,65.60513750687625],[22.10108092210573,65.60509710500138],[22.101267262870692,65.60418657935207],[22.10222621544579,65.60450230040567],[22.103606579816464,65.60317502376978],[22.106043482709026,65.60251955952471],[22.10790300349454,65.60135009299228],[22.114400385079804,65.59960192698333],[22.114302515784882,65.5992458076307],[22.116406161549047,65.59896654029802],[22.116259321863357,65.59843236352415],[22.117599789002917,65.5985496843159],[22.119174910931243,65.5979345096811],[22.119076983861472,65.5975783939557],[22.12041741802708,65.597695690155],[22.1207009848091,65.59714126214047],[22.121610921988648,65.59727880377213],[22.12275540115722,65.59668385189389],[22.12361634026218,65.59664332512094],[22.123518358276886,65.59628721278415],[22.124379282827327,65.596246681818],[22.12466275046961,65.59569224733377],[22.12595410343898,65.59563143962787],[22.126618962731904,65.59487867518781],[22.128722115123306,65.59459924170109],[22.129866313597987,65.59400423881854],[22.129768258083708,65.59364813121508],[22.134502761771298,65.5934249607934],[22.138708604019694,65.5928658503538],[22.140479265065,65.59296266346009],[22.14249550275349,65.59394970038832],[22.146050623595336,65.5894529979136],[22.14686214547571,65.58923429431748],[22.14742796804036,65.58812535139685],[22.1496165908695,65.5865789763374],[22.148793185884205,65.58517494011913],[22.145584914551428,65.58460505727321],[22.142671342654165,65.58510339964688],[22.140335170237336,65.5861155277429],[22.13459434997395,65.58584530209366],[22.1346924360499,65.58620140631106],[22.132971287075925,65.5862825737825],[22.132639058054075,65.58665896840769],[22.13053658919071,65.58693844971536],[22.129441719593935,65.58771150876308],[22.129588756821267,65.58824567093411],[22.128297780451557,65.58830650600082],[22.12715378916223,65.58890149510071],[22.125432433346585,65.58898257894555],[22.124473790540925,65.58866700162656],[22.125089544100373,65.58773618903497],[22.124512290821457,65.58722228783951],[22.12317238347756,65.58710502279415],[22.12393506083562,65.58670838422034],[22.12378815006975,65.58617421534913],[22.12584165284578,65.5857167719603],[22.126838575989197,65.58458762832596],[22.12606544267386,65.58336151155783],[22.12692593508157,65.5833209702576],[22.127922724550217,65.58219182074333],[22.12992683942472,65.5815562709918],[22.12948586357208,65.57995378361433],[22.13114674381144,65.57807184015724],[22.13453893464085,65.57773148514956],[22.13549728516747,65.57804700165109],[22.139749691797682,65.57766593780087],[22.140708101300937,65.57798142078167],[22.14199853090439,65.5779204852633],[22.142907894675574,65.578057904606],[22.14425908950556,65.57979775595376],[22.150625374701033,65.58075947466178],[22.151485734933495,65.58071879519431],[22.152051194018224,65.57960983841691],[22.15291151358687,65.57956915124527],[22.158798677154333,65.5803728236667],[22.15965900920349,65.58033209806935],[22.160322516561788,65.57957919879503],[22.160900292273208,65.5800929585663],[22.162670147996824,65.58018952024082],[22.162817815495846,65.58072364409837],[22.165779735187375,65.58040296318147],[22.16611140492961,65.58002650131849],[22.168593794115132,65.5795481081489],[22.16970042074298,65.58039752052214],[22.169404814598003,65.57932928868658],[22.171837793221293,65.57867280505279],[22.170668584558825,65.57602263089069],[22.17195883239183,65.57596144199405],[22.171761737403237,65.57524929064468],[22.17070453610796,65.574577930048],[22.169893673031567,65.5747967549593],[22.169795157594105,65.57444067766156],[22.17060601058579,65.57422185337401],[22.17045822787379,65.57368773818708],[22.171219787480794,65.5732908724978],[22.170261194656828,65.57297558427608],[22.172581607034296,65.5703402794444],[22.17243381038759,65.56980616630054],[22.173674472654806,65.56956692812916],[22.17397012022262,65.57063515132783],[22.17425227572753,65.57008063676795],[22.175972198825193,65.56999901237083],[22.17582433501468,65.56946490318197],[22.1778125488095,65.5672060064211],[22.17905303630955,65.56696672588386],[22.179715657619543,65.56621375018692],[22.181005394164654,65.5661524891869],[22.180046954277138,65.56583726138487],[22.18156930556472,65.56504343715677],[22.183239541408394,65.56478369954033],[22.183521441707217,65.56422917015969],[22.184381194145082,65.56418830980527],[22.18509292991981,65.56361334588387],[22.18595265907093,65.56357247683442],[22.187094196882136,65.56297706775626],[22.186995500376295,65.56262100336654],[22.1878551931961,65.56258012386907],[22.188566809190185,65.56200514477544],[22.189475841708425,65.56214228785358],[22.190286145282144,65.56192336354239],[22.190187409989647,65.56156730160535],[22.191476886912515,65.56150595395579],[22.192998636515718,65.5607120206618],[22.193858255013026,65.56067110780933],[22.193759476653373,65.56031504861494],[22.192850487423986,65.56017793082619],[22.193132137320102,65.55962338596711],[22.194999484756703,65.56007564212246],[22.1951822950711,65.55916503559014],[22.1963728320948,65.55874758948435],[22.195597276879067,65.55752185114116],[22.19868938690528,65.55611192197992],[22.199548842957395,65.55607097840092],[22.200640319706842,65.55529744597405],[22.20149974521454,65.55525649161825],[22.202210864610578,65.55468145321],[22.203070266837894,65.55464049016608],[22.203781335014675,65.55406544487678],[22.206310003395007,65.55376449030047],[22.20774567320689,65.55388948632012],[22.20744128,65.5527948]],[[22.193512543779526,65.55942490021637],[22.193942331692625,65.55940444314805],[22.19399171966716,65.55958247270681],[22.193512543779526,65.55942490021637]],[[22.17928574395126,65.56623416809428],[22.179236441226486,65.56605613292955],[22.17966635200447,65.56603571519],[22.17928574395126,65.56623416809428]],[[22.17824493850767,65.55618252136411],[22.17781518885831,65.55620293351413],[22.177765919064573,65.55602489753713],[22.17824493850767,65.55618252136411]],[[22.17506295586516,65.56986179028755],[22.174632977610564,65.56988219561245],[22.174485142050614,65.56934808484343],[22.17506295586516,65.56986179028755]],[[22.168212892263615,65.55611757499862],[22.17084064709525,65.55617328567914],[22.17088986993889,65.55635132436191],[22.16831130255155,65.55647365439802],[22.168212892263615,65.55611757499862]],[[22.170312452920314,65.55583759911119],[22.17074220363317,65.55581720824325],[22.17079142499335,65.55599524697291],[22.170312452920314,65.55583759911119]],[[22.168544534069653,65.57937006911567],[22.16811439269102,65.57939045750949],[22.168065136282294,65.57921241828511],[22.168544534069653,65.57937006911567]],[[22.167007862027763,65.57854103262316],[22.16657773288941,65.57856141653753],[22.16652848887589,65.57838337669304],[22.167007862027763,65.57854103262316]],[[22.166196844870864,65.57875983922673],[22.165766711353424,65.57878022088114],[22.165717472384628,65.5786021807249],[22.166196844870864,65.57875983922673]],[[22.165385813910987,65.57897864162214],[22.164955676014532,65.57899902101659],[22.164906442090675,65.57882098054863],[22.165385813910987,65.57897864162214]],[[22.164574769148054,65.5791974398093],[22.164144626872623,65.57921781694368],[22.16409539799395,65.57903977616404],[22.164574769148054,65.5791974398093]],[[22.152667174461047,65.55974003979713],[22.152863606307942,65.56045222244063],[22.150284531335384,65.56057425040534],[22.154091801831843,65.55859039558567],[22.154951423859742,65.55854970353657],[22.154853186588785,65.55819361380065],[22.156093470552445,65.55795452323369],[22.156621528470172,65.5582902606985],[22.157481135835766,65.5582495544315],[22.16163163698622,65.55751182365728],[22.161779128225998,65.55804595033655],[22.16005994015881,65.5581274065264],[22.160158248245843,65.55848349220102],[22.161017855316615,65.558442765862],[22.161165340337075,65.55897689319445],[22.155860168450594,65.55868705113504],[22.152667174461047,65.55974003979713]],[[22.156425013627505,65.5575780837154],[22.157714388898803,65.55751702450301],[22.160906904602154,65.5564639340272],[22.161815605126613,65.556601246317],[22.157812662172258,65.55787311203777],[22.156093470552445,65.55795452323369],[22.156425013627505,65.5575780837154]],[[22.162405600305565,65.55873775116603],[22.16250394320928,65.55909383497988],[22.16341274432338,65.55923113671214],[22.162172470801234,65.55947028711822],[22.161263667388685,65.55933297796574],[22.161165340337075,65.55897689319445],[22.162405600305565,65.55873775116603]],[[22.15645010751403,65.5671365372582],[22.15473029966627,65.56721793891192],[22.154386354750127,65.56597162525495],[22.157015090764972,65.56602756639582],[22.15645010751403,65.5671365372582]],[[22.14332032657153,65.5621661048162],[22.14036017078354,65.56248632988556],[22.142313439600503,65.56167258321355],[22.143652106448418,65.5617896910046],[22.14332032657153,65.5621661048162]],[[22.139070500707188,65.56254724417066],[22.13864060920384,65.5625675465063],[22.138591592476256,65.56238949538829],[22.139070500707188,65.56254724417066]],[[22.128957695052843,65.5796179526882],[22.1289087058041,65.57943989820568],[22.129769063305368,65.5793993420537],[22.128957695052843,65.5796179526882]],[[22.12847852594504,65.57946017446058],[22.127618164010286,65.57950072332827],[22.127569184185074,65.57932266832226],[22.12847852594504,65.57946017446058]],[[22.12713900500436,65.5793429407683],[22.126708825084904,65.57936321200032],[22.126659851788204,65.57918515663764],[22.12713900500436,65.5793429407683]],[[22.126229674024916,65.57920542648887],[22.125369316282455,65.5792459625492],[22.125320352409034,65.57906790666328],[22.126229674024916,65.57920542648887]],[[22.12307156302076,65.57881311122686],[22.12393191077878,65.57877258830692],[22.123980864490658,65.57895064473925],[22.12307156302076,65.57881311122686]],[[22.123980864490658,65.57895064473925],[22.124890175324836,65.5790881727057],[22.12402981894095,65.57912870114838],[22.123980864490658,65.57895064473925]],[[22.12264138803427,65.57883337086577],[22.12178103584656,65.5788738865014],[22.121732097347294,65.57869582921285],[22.12264138803427,65.57883337086577]],[[22.119483372599838,65.57844097991072],[22.120343714799233,65.57840047741496],[22.120392643137727,65.57857853524966],[22.119483372599838,65.57844097991072]],[[22.120392643137727,65.57857853524966],[22.121301923041045,65.57871608504301],[22.12044157221424,65.57875659306117],[22.120392643137727,65.57857853524966]],[[22.120557794776015,65.57442244732627],[22.12012768993448,65.57444269915923],[22.12007877277825,65.57426464112415],[22.120557794776015,65.57442244732627]],[[22.119053200393243,65.57846122933753],[22.118192853766477,65.57850172454899],[22.118143940640213,65.57832366585852],[22.119053200393243,65.57846122933753]],[[22.117713769115028,65.57834391147667],[22.117283596852108,65.57836415588076],[22.117234690253323,65.57818609683407],[22.117713769115028,65.57834391147667]],[[22.1168045201476,65.57820633985763],[22.115944177723303,65.57824682226261],[22.115895280546773,65.5780687626934],[22.1168045201476,65.57820633985763]],[[22.114674195368913,65.59742473307169],[22.114194775814813,65.59726691210555],[22.114625263416116,65.59724667346191],[22.114674195368913,65.59742473307169]],[[22.11495788278988,65.59687031464702],[22.115818842701263,65.5968298319503],[22.11548623640291,65.59720619252921],[22.114625263416116,65.59724667346191],[22.11495788278988,65.59687031464702]],[[22.092867167034143,65.60854823781266],[22.092436472004792,65.60856841665158],[22.092387667008662,65.60839034869032],[22.092867167034143,65.60854823781266]],[[22.090451285371312,65.5949545136897],[22.09088175695595,65.5949343426077],[22.090930521218674,65.59511241146852],[22.090451285371312,65.5949545136897]],[[22.090069571514057,65.59515275274924],[22.090500046734366,65.59513258271646],[22.090548808833432,65.59531065172023],[22.090069571514057,65.59515275274924]]],[[[22.148916872499385,65.62772091647751],[22.150449336058443,65.62748351612639],[22.150781794330015,65.62710708043637],[22.1491072331181,65.62736650141807],[22.148916872499385,65.62772091647751]]],[[[22.23874035428903,65.6153517132286],[22.238409325148833,65.61572832752506],[22.243096863047796,65.61532372773421],[22.23874035428903,65.6153517132286]]],[[[22.267880580367116,65.62586190036562],[22.267930627116492,65.62603989920572],[22.26836144535788,65.62601922091672],[22.267880580367116,65.62586190036562]]],[[[22.18654610625672,65.57671190053698],[22.184790617776034,65.57823834538155],[22.18493872554231,65.5787724434176],[22.189007327723587,65.5793006009873],[22.188908530431874,65.57894453886726],[22.18971935506911,65.57872561258242],[22.189324155372564,65.57730136566127],[22.188315809256405,65.57680816416793],[22.18654610625672,65.57671190053698]]],[[[22.172290416120152,65.59290096877046],[22.172819416460744,65.59323664055383],[22.17368014719258,65.59319583152546],[22.175204253868287,65.59240205454917],[22.176876301947082,65.5921423696989],[22.177158602963797,65.59158784842904],[22.178019270967965,65.59154701536842],[22.17744089255763,65.5910333267408],[22.178301541693475,65.590992492259],[22.17810413590599,65.59028035225327],[22.179395069268857,65.59021909343832],[22.17914828534613,65.5893289204214],[22.17995951456119,65.58911004248156],[22.179860796110457,65.58875397373504],[22.180721365313723,65.588713126284],[22.179007936966975,65.58410465271795],[22.180150512832295,65.58350928606401],[22.180051817381432,65.58315321720296],[22.18162450957535,65.58253741739593],[22.18142709023002,65.58182528179674],[22.18056674997857,65.5818661310503],[22.180037890894653,65.58153048490786],[22.178796724933527,65.58176978002493],[22.178895396898756,65.58212584993393],[22.177322662778007,65.58274162182629],[22.177139105742658,65.58365221379873],[22.176328019809887,65.583871075275],[22.17374675841731,65.58399352385567],[22.17278773348189,65.58367825581551],[22.171335856478986,65.58158260364192],[22.170475505164067,65.58162339571425],[22.168951865317695,65.5824171207352],[22.16905040562803,65.58277319831609],[22.167809074647536,65.58301240502949],[22.168879795021226,65.58530652296767],[22.168216400863102,65.58605945857383],[22.169126181885886,65.58619671654414],[22.17086055961787,65.58773787831805],[22.17105774401002,65.58845002989914],[22.170345043955162,65.58902493702513],[22.17168524016225,65.58914178227204],[22.173173389811158,65.58979272663322],[22.173038967342606,65.59088135229989],[22.171895910452886,65.59147666992826],[22.171994532405087,65.59183274477971],[22.170421055484255,65.59244845214837],[22.170568965926183,65.5929825660518],[22.172290416120152,65.59290096877046]]],[[[22.18228742750381,65.5817844276877],[22.184290140192793,65.5811481727545],[22.186440908321938,65.58104598841496],[22.186772283734133,65.58066948419243],[22.18763257270731,65.580628600205],[22.188196479195444,65.57951952369184],[22.185897709135133,65.57908763497736],[22.184607345979536,65.5791489436767],[22.183514423230417,65.57992237433805],[22.179939206029992,65.58117441586532],[22.180037890894653,65.58153048490786],[22.18228742750381,65.5817844276877]]],[[[22.15249286966566,65.61277703128157],[22.15358805906787,65.61200380290633],[22.156172214687146,65.61188166990634],[22.156799919223612,65.61257348173682],[22.1581412837886,65.61269043550125],[22.159433386164242,65.6126293354862],[22.16009767364658,65.61187642993687],[22.16143901522004,65.61199335476222],[22.16362872538344,65.61044676733906],[22.163050186457312,65.609933025445],[22.160896919115284,65.61003490177008],[22.16031844335354,65.6095211488499],[22.16078553608786,65.60805607495264],[22.161929561724953,65.60746083189476],[22.1654237339337,65.60747583469157],[22.166432878095776,65.60796918069191],[22.169016560070116,65.60784683342054],[22.16891790565869,65.60749075699508],[22.170541647569788,65.6070530940061],[22.1703936412,65.60651898106535],[22.171967953349238,65.60590326602758],[22.172151805721718,65.60499267765869],[22.173394134815812,65.60475342581866],[22.17324608565916,65.60421931606193],[22.174008471625214,65.60382242851156],[22.175752511213307,65.60067335265546],[22.175555086608966,65.5999612095721],[22.17396759664892,65.59895422207981],[22.17362222441952,65.59770796626555],[22.17132205660507,65.59727586998396],[22.171124784322387,65.59656371964839],[22.16945239280397,65.596823344352],[22.16921918112247,65.59755589168408],[22.168407598135442,65.59777471552671],[22.16947905353733,65.60006882185884],[22.168631375258094,65.60173234849394],[22.16629477730286,65.60274488056784],[22.16543371670341,65.6027856508295],[22.164720514659443,65.60336053625768],[22.163428887617712,65.60342167675516],[22.162285069910357,65.6040169291506],[22.162383617649468,65.60437301092317],[22.16085842892037,65.60516666929102],[22.159997277890444,65.60520740955131],[22.15852121912792,65.60617908742276],[22.156368241154016,65.60628089668843],[22.15522413608549,65.60687609856451],[22.153932307582696,65.6069371601083],[22.151077845361232,65.60923648101974],[22.15127468463159,65.60994866147404],[22.150327128731174,65.6112560093555],[22.147275121174072,65.61284308370603],[22.144789167373975,65.61332116161032],[22.14412439708161,65.61407400470819],[22.145564152627795,65.61454716470737],[22.147717865983942,65.61444550178018],[22.148431740418175,65.61387068995468],[22.1492932001701,65.61383001241346],[22.149194788469504,65.6134739208708],[22.15249286966566,65.61277703128157]]],[[[22.172630874068783,65.57051831711213],[22.172778679629175,65.57105242997439],[22.173589402476658,65.57083359096926],[22.17339230972081,65.57012144168709],[22.172630874068783,65.57051831711213]]],[[[22.172348679567992,65.57107282902605],[22.17239794668212,65.57125086676756],[22.172827949635014,65.57123046754819],[22.172348679567992,65.57107282902605]]],[[[22.171837664512765,65.59598880716204],[22.17140725159126,65.59600920751348],[22.171456569210502,65.5961872450352],[22.171837664512765,65.59598880716204]]],[[[22.171111361505172,65.59494098189003],[22.171209988556956,65.59529705719176],[22.171640389887497,65.59527665751169],[22.171111361505172,65.59494098189003]]],[[[22.170278399042985,65.58091124257874],[22.170376950617015,65.58126731919343],[22.17080712085759,65.58124692409966],[22.170278399042985,65.58091124257874]]],[[[22.170138601517564,65.59300296233579],[22.170187903589056,65.5931810004244],[22.170618270894817,65.59316060397266],[22.170138601517564,65.59300296233579]]],[[[22.169954739676218,65.59391354845262],[22.17010265059088,65.5944476627994],[22.17053303892191,65.5944272663877],[22.169954739676218,65.59391354845262]]],[[[22.164114612466612,65.62323027854804],[22.16454548299957,65.62320989451543],[22.16449615089398,65.62303185492902],[22.164114612466612,65.62323027854804]]],[[[22.151484700732876,65.59334471750516],[22.151472518439984,65.59172196612631],[22.14697230658022,65.59121314337777],[22.145250872459023,65.59129445301537],[22.14539825851024,65.59182859647379],[22.142593733771633,65.59430579807218],[22.142839324289124,65.59519604187358],[22.14547100945391,65.59525215505386],[22.151484700732876,65.59334471750516]]],[[[22.12996504789356,65.58011155851028],[22.13039523711532,65.58009127794612],[22.13034623696472,65.57991322403362],[22.12996504789356,65.58011155851028]]]]}}]}