{"type":"FeatureCollection","properties":{"source":"SMHI SE.SR Ytansamling av alger","date":"2019-08-28","note":"Test: SMHI WFS clipped to Lulea municipal sea area and simplified 20 m."},"features":[{"type":"Feature","properties":{"cyano_daymap_file_id":4274,"date":"2019-08-28Z","cloud":null,"sub_surfac":null,"surface":null,"no_data":null,"class":1,"color_hex":null,"algae_class":"class_1","source_date":"2019-08-28"},"geometry":{"type":"Polygon","coordinates":[[[22.314476760000005,65.15977044],[22.31694247,65.16866998],[22.338108300000002,65.16763141],[22.34058282,65.17653047],[22.38292293,65.17444355],[22.38541326,65.1833417],[22.42775993,65.18124203],[22.432774079999994,65.19903644999998],[22.453958599999996,65.19798129],[22.458994189999995,65.2157746],[22.480190820000004,65.21471561],[22.48524791,65.23250781],[22.59127276,65.22716384],[22.58870828,65.21826994],[22.63109092,65.21611238],[22.633669379999994,65.22500539999997],[22.654864819999993,65.22392170999998],[22.66004149,65.24170667000001],[22.72365819,65.23843509],[22.72627041,65.24732613999998],[22.7474791,65.24622921000001],[22.750100270000004,65.25511975000002],[22.792525779999995,65.25291606],[22.7951629,65.26180564],[22.81637972,65.26069888],[22.81902581,65.26958794],[22.84024766,65.26847774],[22.84290272,65.27736629],[22.864129599999995,65.27625265999998],[22.86679366,65.28514068],[22.88802556,65.28402362000001],[22.89069861,65.29291112],[22.911935539999995,65.29179061999999],[22.91730165,65.30956451],[22.896050689999992,65.31068592999999],[22.89872972,65.31957322],[22.91998771,65.31845135],[22.922675769999998,65.32733813],[22.943938780000003,65.32621281],[22.952036119999995,65.35287133999998],[22.93075199,65.35399804],[22.928057899999995,65.34511146999999],[22.821642420000003,65.35069779],[22.82962486999999,65.37736411999998],[22.8722394,65.37513584],[22.874918339999997,65.38402357999999],[22.89622967,65.38290449],[22.89891768,65.39179169999998],[22.941548449999996,65.38954362000001],[22.9469588,65.407316],[22.968285299999998,65.40618655],[22.97100059,65.41507217],[23.048700793250127,65.4109302230241],[23.1383421263494,65.2880901187065],[23.089750185962696,65.28445681869319],[23.089709002936797,65.2756147460627],[23.0877229961228,65.2617264628135],[23.083434648887803,65.24793025256493],[23.08043185064679,65.2410880822697],[23.072734007836395,65.22755481896989],[23.062814772555992,65.214278717246],[23.05703780408209,65.2077578360096],[23.0438821336382,65.1949890305416],[23.0286527983404,65.1826346123978],[23.011423917751596,65.1707541953058],[23.002086021599,65.1650103332603],[22.982021613701992,65.1539487475862],[22.960190125166896,65.1434996447016],[22.936695353363596,65.13371361195249],[22.924360538612298,65.1290836625267],[22.8985886497093,65.1203780521599],[22.885184620758892,65.11631308182429],[22.8574198396373,65.1087830198622],[22.8430911307973,65.1053259673164],[22.813630577896,65.099051531591],[22.783216068086205,65.09365218440139],[22.767695334584204,65.0912889661128],[22.736125520193397,65.0872488627787],[22.703969492420804,65.0841417016372],[22.687722653553607,65.08294181426642],[22.6549815048834,65.0812580646165],[22.622043315924994,65.0805348656589],[22.5890680589074,65.08077551930198],[22.5562078378235,65.0819784364121],[22.5236222511317,65.0841381956597],[22.4989570328592,65.0864342959367],[22.4512775467598,65.06965380799399],[22.3200684113133,65.1466372251174],[22.29508900889829,65.1607188883573],[22.314476760000005,65.15977044]]]}}]}