{"type":"FeatureCollection","properties":{"source":"SMHI SE.SR Ytansamling av alger","date":"2019-08-10","note":"Test: SMHI WFS clipped to Lulea municipal sea area and simplified 20 m."},"features":[{"type":"Feature","properties":{"cyano_daymap_file_id":4256,"date":"2019-08-10Z","cloud":null,"sub_surfac":null,"surface":null,"no_data":null,"class":1,"color_hex":null,"algae_class":"class_1","source_date":"2019-08-10"},"geometry":{"type":"MultiPolygon","coordinates":[[[[21.9709613,65.40159627000001],[21.968586339999998,65.39269026999999],[21.972732779427716,65.3924978767913],[21.970870749253393,65.39187695167371],[21.970490811633805,65.39045199343312],[21.968544509307243,65.38964057779518],[21.969351463211698,65.38942286789514],[21.969066599723376,65.3883541455339],[21.969826030366768,65.38795831308106],[21.970537789977143,65.38576147886967],[21.97139209386228,65.38572187922558],[21.971249641697998,65.38518752020896],[21.972056437291666,65.38496979732693],[21.972625763378122,65.38386147446326],[21.973432506933232,65.38364374470758],[21.973954253370728,65.38235729869676],[21.975093024971162,65.38176351517272],[21.974903024473512,65.38105104169341],[21.975757167301182,65.38101141884256],[21.976089224563935,65.38063536970984],[21.975946710274197,65.38010101569044],[21.977180362396446,65.37986345363872],[21.977796885194653,65.3789332317466],[21.982398271324996,65.37673605728268],[21.982255654389686,65.37620171018985],[21.98353661111735,65.37614221403905],[21.984200375777764,65.37539008406048],[21.985567157936458,65.37529326582367],[21.983933806857976,65.36917765409119],[21.982915930696336,65.36895809885782],[21.98229897284545,65.36826546580346],[21.983105160758562,65.36804768954873],[21.98345385905729,65.36738062806324],[21.98281322,65.36498194],[21.987861470158393,65.36474665850938],[21.989219990824694,65.3634356676513],[21.99087950924189,65.36317815355578],[21.991163567490627,65.36262396249597],[21.993392516153744,65.3628809046245],[21.99533592062236,65.36206914726492],[21.998227890846362,65.36157384286163],[21.99851177764927,65.3610196395843],[22.001451203587507,65.36070238468116],[22.001546472934237,65.3610586021952],[22.002826639458565,65.36099894961062],[22.002921928728046,65.36135516606001],[22.001689382300857,65.3615929282981],[22.001832298083674,65.36212725419921],[22.003682209989005,65.3625820348638],[22.004299585459652,65.36327457629982],[22.00439490465272,65.36363079151594],[22.00306696294481,65.36351235054524],[22.00320586295387,65.36403150939904],[22.02549006,65.36299292],[22.02071346,65.34518285],[21.97806506,65.34717025],[21.98043825,65.35607612],[21.945695829962972,65.35768265083436],[21.9374845157948,65.3623116230953],[21.915115044741814,65.39805648849732],[21.916264641208578,65.39800364742257],[21.919067804490577,65.39715353157523],[21.920777337561308,65.39707490233567],[21.920871672379274,65.39743117937981],[21.92167927262249,65.39721371869658],[21.92224818667616,65.39772846982198],[21.923102967574774,65.39768913945376],[21.924099317391633,65.39818421615489],[21.923622032268888,65.3996486522871],[21.92029408066301,65.40178514300437],[21.920435604823485,65.40231955874951],[21.919580668370322,65.40235887546713],[21.92014965890425,65.4028736337405],[21.91929470389372,65.40291294901247],[21.91938904396971,65.40326922689876],[21.921639644173197,65.40386352866494],[21.9709613,65.40159627000001]],[[22.01356546148157,65.34625194577208],[22.01531904072845,65.34635038387259],[22.015557531332025,65.34724090269042],[22.014799946897092,65.34763694793195],[22.014659622669885,65.34872548956346],[22.01375890757148,65.34858721782429],[22.01342777443863,65.34896334117265],[22.01139053560213,65.34941910702018],[22.007978308422064,65.34957833560817],[22.009729634864993,65.34805398013819],[22.01356546148157,65.34625194577208]],[[22.007599428082695,65.34977634047439],[22.00717289292191,65.34979623759972],[22.007125244497963,65.34961813073572],[22.007599428082695,65.34977634047439]]],[[[21.915010788367947,65.39816975364266],[21.9148830250503,65.39824745893249],[21.91502956477157,65.39824072401535],[21.915010788367947,65.39816975364266]]]]}}]}