{"type":"FeatureCollection","properties":{"source":"SMHI SE.SR Ytansamling av alger","date":"2007-08-23","note":"Test: SMHI WFS clipped to Lulea municipal sea area and simplified 20 m."},"features":[{"type":"Feature","properties":{"cyano_daymap_file_id":3111,"date":"2007-08-23Z","cloud":null,"sub_surfac":null,"surface":null,"no_data":null,"class":1,"color_hex":null,"algae_class":"class_1","source_date":"2007-08-23"},"geometry":{"type":"MultiPolygon","coordinates":[[[[22.54552104,65.29264382],[22.52426503,65.29371267000002],[22.52681667,65.30260781],[22.48428485,65.30473742],[22.4868243,65.31363336],[22.422991229999997,65.31680663],[22.42551139,65.3257038],[22.404222869999998,65.32675598999998],[22.40673785,65.33565353000002],[22.38544037999999,65.33670315999998],[22.38293247,65.3278052],[22.319050059999995,65.33093482999999],[22.331502090000004,65.37543044000002],[22.31016879,65.37646978],[22.312657679999997,65.38536914],[22.333998089999994,65.38432937999998],[22.338995689999997,65.40212708999996],[22.274926210000004,65.40523989],[22.281184909338275,65.4276814444929],[22.281945996207504,65.4276446240993],[22.28119036637944,65.42770101157546],[22.281482762529865,65.42874944413127],[22.282244120629034,65.4287126113874],[22.282343501396255,65.42906860695854],[22.28533645062949,65.42892377113574],[22.285893284786315,65.42781440077296],[22.285167497928853,65.42676711687575],[22.28549560987398,65.42639042895458],[22.28607226068676,65.4269037223695],[22.286877598263796,65.42668433035745],[22.286529601481742,65.42543835765024],[22.28424298657773,65.42500784065724],[22.284948884742242,65.4244324652004],[22.283517349659398,65.42396054731029],[22.283368290834165,65.42342655495315],[22.2850284840776,65.42316579411579],[22.286489823319574,65.42219303042123],[22.287344723376517,65.42215163358576],[22.28885563800544,65.42135684422648],[22.288706488423138,65.4208228580467],[22.28961106109101,65.42095944421031],[22.28936246110988,65.42006946857825],[22.293686305236555,65.42004035201265],[22.29383555078732,65.42057433230859],[22.293080203868623,65.42097175272828],[22.294561496153438,65.42162157293042],[22.29375637877652,65.42184100377989],[22.293855884274517,65.42219699052681],[22.293000995169912,65.42223842416705],[22.29310049224106,65.42259441149596],[22.291867876972617,65.42283454807837],[22.291211912315912,65.42358794835633],[22.289979232536403,65.4238280701437],[22.290227896520612,65.42471804410478],[22.288667110256334,65.42533485332966],[22.288388781239632,65.42588954301695],[22.28921413568803,65.42729280059697],[22.290019457737795,65.42707339196299],[22.290218418292454,65.42778537080842],[22.291172989669693,65.42809993968784],[22.292674945338426,65.43037243362951],[22.293957676517905,65.43031028015733],[22.29428570226986,65.42993357398136],[22.303358280665098,65.42949361704403],[22.30126116,65.42200446],[22.31122110140991,65.4215204853544],[22.31133058297655,65.42116855302882],[22.30937165358316,65.42036167651436],[22.309977158358897,65.41943021630803],[22.31083192350827,65.41938868766574],[22.310554122746044,65.4199434129604],[22.311508639610917,65.42025785367197],[22.313545842336833,65.41979802964788],[22.31364560695293,65.42015400072975],[22.31198590659788,65.42041507167598],[22.311658249369287,65.4207918126628],[22.312524218885383,65.42145716411663],[22.322631910000002,65.42096601],[22.32513013999999,65.42986506999999],[22.346506139999995,65.42882318999999],[22.34400078,65.41992455],[22.408096119999996,65.41678210999999],[22.41062286,65.42567946000001],[22.43199132,65.42462554],[22.43706474,65.4424192],[22.45844555,65.4413614],[22.46099225,65.4502577],[22.4396043,65.45131593],[22.447234440000003,65.47800577000001],[22.468643819999997,65.47694623999999],[22.47119818,65.48584229000001],[22.4926128,65.48477930999998],[22.495176229999995,65.49367486999999],[22.506485420184358,65.49311181436939],[22.506551349613574,65.49276181660787],[22.504786431020637,65.49266922262916],[22.50468373071472,65.49231340939991],[22.503826959627833,65.4923560574097],[22.503295892889557,65.4920215652258],[22.505009412153182,65.49193627060423],[22.504375648309033,65.49124596910703],[22.503518911586244,65.49128861501984],[22.505181031851663,65.49102541191309],[22.504016253927777,65.49000062095162],[22.50778604953409,65.48800827776103],[22.507906195429015,65.48691951166215],[22.505987634169884,65.48629321088104],[22.505782264449508,65.48558158568508],[22.504925716018736,65.48562423765621],[22.50482304723324,65.48526842420803],[22.503966507167192,65.48531107065476],[22.504497440646897,65.48564556183217],[22.50369221455308,65.48586611377533],[22.502356052224876,65.48575216461599],[22.503161286576564,65.48553161971141],[22.50232247498986,65.48412967730044],[22.504035481153068,65.48404439894915],[22.506296925944735,65.48284900846643],[22.50619425166903,65.48249319600923],[22.510270984186914,65.48156823906972],[22.50991146981749,65.48032290620276],[22.51119601624791,65.48025888683746],[22.511298747947958,65.48061469530529],[22.51215511982169,65.48057200899876],[22.512991286130823,65.48012984999828],[22.51145684,65.47481812999999],[22.597059699999996,65.47052573],[22.599656949999996,65.47941915],[22.579048168887603,65.48045711096538],[22.578642924445887,65.48067186628232],[22.579278361178297,65.48136183860949],[22.578607701880884,65.48171722550974],[22.583438050000005,65.49828475],[22.604857299999995,65.49720581],[22.6074604,65.50609904],[22.671254996292927,65.50286673974293],[22.671669947659446,65.50264643403945],[22.669369544131374,65.49484984001128],[22.667797199419212,65.49421167792698],[22.66727260421051,65.49243328522205],[22.667762161636567,65.49114482359957],[22.66827353617943,65.49113521822922],[22.666480709999995,65.48505892],[22.69038449978966,65.483839270568],[22.692853070869294,65.48336759678345],[22.692836666340213,65.48371415302108],[22.70928726,65.48287479],[22.707718589930053,65.47757953503927],[22.706206389781077,65.47708912661605],[22.70599566412286,65.47637783260366],[22.704335996521518,65.47664324433332],[22.70417799247335,65.47610977147527],[22.70321651028753,65.47579790783993],[22.70380934402076,65.47486500055211],[22.702953222469052,65.47490878382806],[22.702367205863034,65.47439719839754],[22.703170656186682,65.47417559382657],[22.70306534720041,65.47381994418564],[22.703921432909286,65.4737761606496],[22.70381611566339,65.47342051162029],[22.705422917829104,65.47297728381777],[22.705692936891563,65.47242191492698],[22.70628478318815,65.4727395292227],[22.704019409999994,65.46509245999998],[22.72540545,65.46399678],[22.72761395128122,65.4714341709654],[22.728376785891538,65.47125964179347],[22.727792153835214,65.47203428927928],[22.728693716707493,65.4723265268903],[22.728848128798923,65.47284628930879],[22.732651325407428,65.47248443874517],[22.73329588522485,65.47172924003296],[22.73319017883773,65.47137361562352],[22.732281384678465,65.47123975107195],[22.732925926745228,65.47048455413658],[22.734584896425268,65.47021883551203],[22.735282209802783,65.46964144110731],[22.737316161651005,65.46917590080314],[22.73796050937661,65.46842068443456],[22.73924426587373,65.46835471442478],[22.739455816838092,65.46906595321126],[22.737849851694936,65.4695095343685],[22.738061376051583,65.47022077539863],[22.737041904935484,65.47117578974029],[22.73929299214637,65.47230959772929],[22.74943671,65.47178838],[22.750076811653802,65.47393564760426],[22.751742971808344,65.47384990571169],[22.75200790416267,65.47473892709519],[22.75355692277448,65.47556185280729],[22.751946715164287,65.47745004817638],[22.752961825218158,65.47793939857162],[22.75601125186062,65.4779629460582],[22.756117300548954,65.47831855088923],[22.755314191946766,65.47854043358254],[22.75637859367403,65.48065202262265],[22.75573450346559,65.48140731498458],[22.755620692656237,65.48394063097795],[22.75427925088453,65.48527340600073],[22.753502465521024,65.48542725292793],[22.75473706,65.48956879],[22.776140529999996,65.48846573],[22.776801324122026,65.48934815537966],[22.777657768209924,65.48930394994787],[22.778405211463355,65.49034860191985],[22.77690335728167,65.49101478163102],[22.778800839999995,65.49735538],[22.714563019999996,65.50065686],[22.717203869999995,65.50954779999999],[22.802878899999996,65.50513799],[22.80555035,65.51402705],[22.86980703,65.51068668000002],[22.872501939999996,65.5195743],[22.958177729999996,65.51507643999999],[22.96090326999999,65.52396215999998],[22.962558911962564,65.5238746314452],[23.0439526591749,65.41743683403658],[23.131028297547086,65.2981126324507],[23.10846968,65.29933752],[23.105722529999998,65.29045477],[23.084496759999997,65.29160255999999],[23.081758650000005,65.28271927],[23.039315,65.28500499],[23.036592919999993,65.27612069999998],[23.015375049999992,65.27725862999999],[23.01266198,65.26837380000002],[22.949017259999998,65.27176833000001],[22.943639120000004,65.25399572],[22.98604299,65.25173752],[22.97256286,65.20730937],[22.951396779999996,65.20843767],[22.948713720000004,65.19955138000002],[22.927552610000003,65.20067625],[22.92487849,65.19178943],[22.88256424,65.19402935],[22.879906009999992,65.18514154999998],[22.858752879999997,65.18625659999998],[22.85610356,65.17736829],[22.77149925,65.18179701],[22.7688797,65.17290684],[22.747730709999995,65.17400615],[22.742511339999993,65.1562247],[22.72137431,65.15732015999998],[22.718774469999996,65.14842888999999],[22.69764245,65.14952093],[22.69505148,65.14062916],[22.67392448999999,65.14171779999998],[22.671342369999998,65.13282552],[22.629096520000004,65.13499301],[22.62653019,65.12609979],[22.58429061,65.12825455],[22.581740049999997,65.11936039],[22.560624359999995,65.12043289],[22.558082619999997,65.11153824],[22.53697198,65.11260733],[22.53443905,65.10371218],[22.492226010000003,65.10584063000002],[22.49474508,65.11473664],[22.473628829999996,65.11579684999998],[22.476142819999993,65.12469322999998],[22.433890849999997,65.1268056],[22.43139075,65.11790836000002],[22.41026893,65.11895967],[22.407777609999997,65.11006193999998],[22.386660889999998,65.11110986],[22.385811502659994,65.10806424156026],[22.3200684113133,65.1466372251174],[22.120149092088674,65.2593379407591],[22.14807423,65.25801011],[22.15291759,65.27581546000002],[22.174176989999996,65.27479915],[22.17904169,65.29260343999998],[22.200313390000005,65.2915833],[22.19787307,65.28268160000002],[22.282913389999997,65.27857277999999],[22.2804467,65.2696727],[22.40790965,65.26342231],[22.41041857,65.27231985],[22.43166291,65.27126723],[22.434180729999998,65.28016428],[22.47667787,65.27804921999999],[22.47921164,65.28694535],[22.54296426,65.28374906],[22.54552104,65.29264382]],[[22.281995681748672,65.42782262204051],[22.282472917320916,65.42797993375564],[22.282045368034787,65.42800061995779],[22.281995681748672,65.42782262204051]],[[22.54669041406567,65.47234936283895],[22.549531691673007,65.47166558348182],[22.549634903705833,65.47202136088023],[22.548505673570588,65.47261936934348],[22.546417154730893,65.47290447281947],[22.54669041406567,65.47234936283895]],[[22.59187105,65.45273869],[22.594278257644824,65.45261712829881],[22.596654499943877,65.45160879237743],[22.5968746127733,65.45087573514489],[22.59853318204168,65.45061154193648],[22.600671222090483,65.45050361044447],[22.601254545964924,65.45101562421],[22.602537383980508,65.45095084566746],[22.602317430060314,65.45168390951243],[22.60327652094192,65.45199645282787],[22.602469091902197,65.45220349894339],[22.607149074858462,65.45196716424626],[22.60467543176957,65.45084285735345],[22.604467717825973,65.45013139138959],[22.606605689128372,65.45002337651597],[22.607564767525027,65.45033589269875],[22.61007836708967,65.45002835435479],[22.61044213955943,65.45127340325081],[22.613024682703788,65.45087878537936],[22.610654099999998,65.44276577],[22.632026619999998,65.44168345],[22.63723989,65.45946885],[22.65862471,65.45838264],[22.66124141,65.4672748],[22.68263139,65.46618514],[22.685257199999995,65.47507677999998],[22.62105995,65.47833808],[22.620178880375413,65.47532956954264],[22.619437643078747,65.47608753893078],[22.615950039183844,65.47752733840974],[22.6082973499982,65.47809447402798],[22.606753151191274,65.47726999069985],[22.60784112271699,65.47504916420519],[22.609721002819423,65.47405176192159],[22.61400078103923,65.47383551316695],[22.613896685494428,65.4734797890596],[22.61518058659251,65.47341489199788],[22.617540083157298,65.472573623193],[22.618500133221662,65.47288605983447],[22.61942996646029,65.47277231948833],[22.618455559999997,65.4694451],[22.597059699999996,65.47052573],[22.59187105,65.45273869]],[[22.53785642,65.26595933999998],[22.580320559999997,65.26381528999998],[22.5854565,65.28160326000001],[22.62794108,65.27944551],[22.630525979999998,65.28833852],[22.60927762,65.28941933],[22.61185742,65.29831272],[22.56934087,65.30046624],[22.564211340000004,65.28267765],[22.54296426,65.28374906],[22.53785642,65.26595933999998]],[[22.87746973,65.32069211],[22.89872972,65.31957322],[22.901410749999997,65.32846045999999],[22.88014372,65.3295798],[22.87746973,65.32069211]],[[22.901410749999997,65.32846045999999],[22.943938780000003,65.32621281],[22.94663588,65.33509906],[22.904093769999992,65.33734761999999],[22.901410749999997,65.32846045999999]],[[22.69686738,65.29396981],[22.71811502,65.29287661],[22.720731909999994,65.30176771999999],[22.76323538999999,65.29957147999998],[22.765868289999997,65.30846163],[22.70208904,65.31175285],[22.69686738,65.29396981]],[[22.43890074771419,65.37015097398249],[22.50210086,65.36700768],[22.504653619999996,65.37590318],[22.547298510000005,65.37376662],[22.557585440000004,65.4093445],[22.53623557,65.41041603],[22.53880501,65.41931078],[22.49608527,65.42144571],[22.494093125341763,65.41450770592846],[22.493371696089532,65.41383501126938],[22.49246638446331,65.41369965569893],[22.49190454370012,65.41174260575313],[22.489564898615765,65.41113731029449],[22.48790763895803,65.41140029192977],[22.488506557443912,65.4104681852579],[22.489736693224742,65.41022646759575],[22.489124100696298,65.40809148950487],[22.490525872362657,65.40693892484315],[22.49137988110161,65.40689638049881],[22.491533056341083,65.40743012268123],[22.492053457519418,65.40740419384286],[22.490976759999995,65.40365439999998],[22.500896160901423,65.40315947084471],[22.501032318272188,65.4028059705083],[22.502261976510496,65.402564155529],[22.502159736432684,65.40220833597193],[22.50344048338959,65.40214442148441],[22.50234900872084,65.39985290247168],[22.50347627309531,65.39925525967205],[22.50593518930687,65.39877158391735],[22.50610635774027,65.39786072906008],[22.510982831074866,65.39792858419962],[22.509764870000005,65.393694],[22.531102459999996,65.39262634],[22.528538780000005,65.3837314],[22.48587588,65.38586284],[22.48842537,65.39475865],[22.44574064,65.39687893999998],[22.443205359999997,65.38798226999998],[22.44831683189009,65.38772875680955],[22.450269610154535,65.38728517736048],[22.449914499053296,65.38603965760214],[22.452170262936423,65.38484513593204],[22.452018046405325,65.38431134404163],[22.45058583361852,65.38384102039078],[22.45048438131659,65.38348515782046],[22.451815101659147,65.38359962117346],[22.452486225834914,65.38140097765354],[22.455168088863285,65.38018525658296],[22.45602129740762,65.38014292081903],[22.45629563024744,65.37958796412475],[22.457148817207454,65.3795456221933],[22.457697412936216,65.37843570491584],[22.458587838929304,65.37819677666197],[22.41934096999999,65.38014030999999],[22.421867250000002,65.38903748],[22.40052725,65.39008968],[22.403048319999996,65.39898722],[22.381699319999996,65.40003685],[22.380346133947306,65.39524553379341],[22.377163674690976,65.39504089262687],[22.374225438873637,65.39536546725377],[22.373698042528584,65.39503048321238],[22.3710360495336,65.39480016993735],[22.372115935281027,65.39402551918205],[22.372793984593464,65.39182716205461],[22.3718900226191,65.39169106882977],[22.371011295555757,65.39011033329065],[22.369630362210394,65.38981719238969],[22.36942959782909,65.3891053368934],[22.368525746887865,65.38896922235513],[22.368751840139083,65.38823644158968],[22.371865151167693,65.38700123349061],[22.374702047790976,65.38632079032892],[22.377470306494217,65.38506289951644],[22.376673289999996,65.38224084999999],[22.38234665161422,65.38196196025002],[22.382407589220293,65.38143181032304],[22.38524360614044,65.38075117753596],[22.387401353773896,65.37920168517034],[22.38910796698634,65.37911777481054],[22.390663638270134,65.37849997845096],[22.39194355568891,65.37843702019681],[22.39226955444673,65.37806012177194],[22.396756338804696,65.37676770523846],[22.395490769999995,65.37229442],[22.40678320286268,65.37173770938234],[22.408523375581733,65.37130524487515],[22.407895234196367,65.37061448252841],[22.410178970629158,65.3710431532725],[22.41168323240481,65.37024720188839],[22.41047729329762,65.36904364960161],[22.410752492498133,65.36848876716553],[22.411554980993582,65.36826873864148],[22.412082294883398,65.36860359095832],[22.41230702484313,65.3678707588423],[22.413485485356098,65.36745172922753],[22.413357124122513,65.36547326863808],[22.412779432018276,65.36496047326987],[22.410120204134028,65.36473082240792],[22.41082175951596,65.36415490273008],[22.411674534232024,65.36411282268084],[22.41109690616608,65.36360002020066],[22.41244946667485,65.36227022260009],[22.4123486309264,65.36191432810391],[22.411495928778628,65.36195641123119],[22.41069362977319,65.36217643750555],[22.41079444434897,65.36253233332685],[22.409515355436596,65.36259544336184],[22.409790515438363,65.3620405630843],[22.411395107385143,65.36160051594945],[22.410666331767416,65.36055386790336],[22.412371645349726,65.36046970714582],[22.412472474706888,65.36082560169197],[22.417212534216077,65.36077200217169],[22.417111640990555,65.36041611145545],[22.415782236331907,65.36030132802928],[22.418716007788444,65.35997598856999],[22.42149828243396,65.35911676188816],[22.424908627285777,65.35894817845694],[22.428391581201666,65.35751284470467],[22.429771417480538,65.35780545803051],[22.430096628985332,65.35742848581818],[22.43094914834543,65.35738629917638],[22.431447916732207,65.3560985305655],[22.43315286101462,65.35601413810937],[22.432704722110657,65.35747985064833],[22.43473489054808,65.35701846158535],[22.436064201041024,65.35713307854796],[22.436165335349372,65.35748895407187],[22.437870351395013,65.3574045074264],[22.437993124669028,65.35631577106723],[22.439322411917967,65.35643035948425],[22.43957535534327,65.35732004158564],[22.441179144888302,65.35687968516282],[22.441402978431928,65.35614681886807],[22.4399219281756,65.35549844009361],[22.439842270118728,65.35369795783497],[22.438188074860708,65.35396036129508],[22.438310827239142,65.35287162489448],[22.436302758082018,65.35188844705972],[22.434742799147866,65.34943952545223],[22.43331282623815,65.34896901460608],[22.433962933525223,65.34821505741637],[22.43604291632454,65.34793159690477],[22.437472879030793,65.34840208190414],[22.438700633243712,65.34816080526295],[22.439278436831387,65.34867349995912],[22.442362364638544,65.34888152539843],[22.44316398831399,65.34866133725876],[22.443265179195958,65.34901720742512],[22.448935439706577,65.35072084773614],[22.449787705213016,65.35067855697396],[22.453551423143303,65.35175486227786],[22.454403713147368,65.35171254511351],[22.45540805382211,65.35220401341721],[22.4571633500659,65.35229728237806],[22.461404489013436,65.3535301462407],[22.465493743582293,65.35422910888393],[22.472171357822656,65.35642323656558],[22.473754881984544,65.35742713423052],[22.4837230711574,65.36053971876365],[22.486039049766745,65.36258974287412],[22.48629364472657,65.36347932920626],[22.485046640616165,65.36516558670527],[22.482743139837645,65.36618264947998],[22.480611375277018,65.36628884541854],[22.480509598711187,65.36593300645745],[22.47631641011461,65.36487863236191],[22.475209490672537,65.36403146937495],[22.474650217217803,65.36207432904092],[22.469026643856367,65.36054962466822],[22.464337593603094,65.36078277991295],[22.46353578995639,65.36100308272886],[22.46363731385797,65.36135893575306],[22.459800659729733,65.3615495742339],[22.45819691365721,65.36199012867333],[22.457922783341637,65.3625450867367],[22.45659311314398,65.36243066658167],[22.456694549803604,65.36278652518567],[22.454238013517088,65.36326937272254],[22.455314162574275,65.36249416442381],[22.45217785376022,65.36210849078475],[22.451447447476664,65.36106205715896],[22.45001653858769,65.36059171472552],[22.44885998723483,65.35956641530449],[22.450088147626655,65.35932504154975],[22.450615758833234,65.35965975577454],[22.45146831060187,65.35961745254883],[22.451814077047743,65.35779583197493],[22.453316315077544,65.35699948548542],[22.45534606790535,65.35653782262858],[22.45604640956497,65.35596170474302],[22.454565016721066,65.35531347364211],[22.454362273766016,65.35460175216342],[22.450547452686234,65.35334753974917],[22.447138032701364,65.35351669472213],[22.4455851725258,65.35413504552008],[22.446091448312075,65.35591438423529],[22.445542773857166,65.35702425998409],[22.444740919527675,65.35724446317117],[22.44512473272264,65.36011254381792],[22.44628116511071,65.36113787316746],[22.446635697368723,65.3623834073874],[22.445833691388557,65.36260361795674],[22.445609937554533,65.36333649002756],[22.44611642941064,65.3651158264592],[22.444989254508677,65.3657130389194],[22.444136492570536,65.36575530759477],[22.44423777622439,65.36611117616073],[22.445567586473945,65.36622570404025],[22.444288419187224,65.36628911040657],[22.441332889702366,65.36805956076256],[22.440357348295713,65.36919054718388],[22.440885043213456,65.36952529466828],[22.438803417764632,65.36980883897958],[22.43890074771419,65.37015097398249]],[[22.500554280448892,65.40264935941362],[22.500981205612177,65.40262806024516],[22.501032318272188,65.4028059705083],[22.500554280448892,65.40264935941362]],[[22.813993640177465,65.50313168118892],[22.81351175283059,65.50297611209542],[22.813940160945588,65.5029539039303],[22.813993640177465,65.50313168118892]],[[22.814154647924592,65.50222058598246],[22.815011437265266,65.50217616507676],[22.814796974764494,65.50290948398141],[22.813940160945588,65.5029539039303],[22.814154647924592,65.50222058598246]],[[22.788918144895295,65.4746399998396],[22.78806220369119,65.47468426380134],[22.788008970834444,65.4745064748457],[22.78881166856915,65.4742844226261],[22.788918144895295,65.4746399998396]],[[22.78482868531738,65.49001687307414],[22.783972232532452,65.49006111926109],[22.78391898966309,65.48988332893278],[22.784722188951363,65.48966129311543],[22.78482868531738,65.49001687307414]],[[22.76626459858135,65.46281127353065],[22.76583679860335,65.46283334009189],[22.765730693714147,65.4624777427523],[22.76626459858135,65.46281127353065]],[[22.754375869129827,65.46956213479176],[22.754644810116208,65.46900668986099],[22.756356454344928,65.46891853855139],[22.75742431589046,65.46958566405148],[22.758280152867354,65.46954157490637],[22.75758335739359,65.4701190700594],[22.757848442470667,65.4710080795402],[22.75913226520524,65.47094193968492],[22.76100313820573,65.47138713792333],[22.761215310010986,65.47209833965599],[22.76110561757178,65.47318719644484],[22.75987472903665,65.47343115511126],[22.75939001857104,65.47471986288875],[22.757890122249236,65.47551925950695],[22.756231071881842,65.4757852351111],[22.755003948026665,65.47458469485449],[22.756022879849475,65.47362956488222],[22.754375869129827,65.46956213479176]],[[22.75630345098622,65.46874073602828],[22.755875543974742,65.46876277548238],[22.755822544263353,65.46858497275228],[22.75630345098622,65.46874073602828]],[[22.74401794490116,65.46395713772935],[22.744070853133728,65.46413494555527],[22.74364300895753,65.46415694966778],[22.74401794490116,65.46395713772935]],[[22.742417037137443,65.46295629515956],[22.742522827766788,65.46331191218354],[22.743431392193934,65.46344571748465],[22.743268067310208,65.46435676073533],[22.741556668082993,65.46444476104223],[22.740489423612935,65.4637775168506],[22.741345105176897,65.46373352536445],[22.742417037137443,65.46295629515956]],[[22.740864378899822,65.46357771254401],[22.740436540572492,65.46359970750484],[22.74038365832515,65.46342189813262],[22.740864378899822,65.46357771254401]],[[22.688459763664195,65.46409638434221],[22.687063290640985,65.46525075631112],[22.685832044015044,65.46549411485923],[22.684721508826,65.46320413065075],[22.686057683419097,65.46331644667835],[22.685524775841543,65.4629826219334],[22.68638054264323,65.46293894120049],[22.688459763664195,65.46409638434221]],[[22.63974817537619,65.47866891796764],[22.639100724497375,65.47942374665459],[22.63824432350958,65.47946716588817],[22.63760723202885,65.47877746551102],[22.639163294853596,65.47815707561062],[22.63974817537619,65.47866891796764]],[[22.626916235510457,65.49863217375373],[22.627772967720908,65.49858882817921],[22.627929576622424,65.49912239522843],[22.627020629212517,65.49898788585614],[22.626916235510457,65.49863217375373]],[[22.62368700188573,65.50096145936196],[22.625400628785936,65.50087479829415],[22.624230718381906,65.49985098871903],[22.626801041571525,65.49972098179347],[22.626633641369285,65.50063193369105],[22.62577683991651,65.50067527352148],[22.62630963481315,65.50100931680763],[22.624648189349138,65.50127384520788],[22.622390733624957,65.50247096489356],[22.620624827341256,65.50237973444297],[22.620896769599437,65.50182450400169],[22.623362948470138,65.50133883664483],[22.62368700188573,65.50096145936196]],[[22.62602697920883,65.50300907628038],[22.62645541832789,65.50298740586628],[22.62650762215672,65.50316526201921],[22.62602697920883,65.50300907628038]],[[22.622484054792338,65.50427120289368],[22.62371725480093,65.5040283601475],[22.623612881739213,65.50367264553685],[22.626079180174557,65.50318693261089],[22.626235787777354,65.50372050144709],[22.624950431356513,65.5037855075809],[22.62425009486612,65.50436241023714],[22.62301688446042,65.50460525743925],[22.622484054792338,65.50427120289368]],[[22.608316052151586,65.44993694294968],[22.607888462564162,65.44995855314683],[22.60783651321815,65.44978068800579],[22.608316052151586,65.44993694294968]],[[22.599297083856378,65.44876810076425],[22.59881761903132,65.44861181638954],[22.59924519568084,65.44859023203401],[22.599297083856378,65.44876810076425]],[[22.599633336765244,65.44694624316242],[22.60177107229087,65.44683829924122],[22.602406237636405,65.44752817688563],[22.600100346645846,65.44854705971177],[22.59924519568084,65.44859023203401],[22.599633336765244,65.44694624316242]],[[22.600809811208684,65.47179429225687],[22.600381857114925,65.47181588495533],[22.600329906346325,65.47163801721929],[22.600809811208684,65.47179429225687]],[[22.600008996479296,65.446746788328],[22.599581450668406,65.44676837452842],[22.599529565349485,65.4465905058687],[22.600008996479296,65.446746788328]],[[22.588243455772563,65.46593034089014],[22.589047335051333,65.46570935229367],[22.589202917099936,65.46624296985837],[22.588243455772563,65.46593034089014]],[[22.54567963738178,65.47185857070352],[22.54482361680035,65.47190144349392],[22.544772043380053,65.47172355282508],[22.54567963738178,65.47185857070352]],[[22.511144651554755,65.4800809825657],[22.51157282929515,65.48005964053999],[22.51162419684897,65.48023754463689],[22.511144651554755,65.4800809825657]],[[22.50386223933187,65.48946689993552],[22.50343389998943,65.489488221748],[22.503382566196102,65.48931031451752],[22.50386223933187,65.48946689993552]],[[22.50257721899143,65.48953086175315],[22.503005559875934,65.48950954235389],[22.503056891577145,65.48968744973388],[22.50257721899143,65.48953086175315]],[[22.502200203310796,65.48973008767516],[22.50262854782946,65.48970876930784],[22.502679877438474,65.48988667683733],[22.502200203310796,65.48973008767516]],[[22.501702775284425,65.49101807663564],[22.501582361286722,65.49210684053917],[22.498788888446537,65.49296766221869],[22.49906335174705,65.49241262625449],[22.501702775284425,65.49101807663564]],[[22.50091728517971,65.48528238688301],[22.50048901145794,65.48530369967736],[22.500437707613468,65.48512579114364],[22.50091728517971,65.48528238688301]],[[22.499906836330084,65.48479128506472],[22.49905030220732,65.48483390357383],[22.498999009260444,65.48465599444077],[22.499906836330084,65.48479128506472]],[[22.498909421075016,65.49187889933287],[22.498481037349045,65.4919002075543],[22.49842973153038,65.49172229835541],[22.498909421075016,65.49187889933287]],[[22.489288096148503,65.48261241197551],[22.491550109421834,65.48141723653228],[22.49247608289311,65.48010798942161],[22.49424011377881,65.48020073623246],[22.49521716494337,65.47906938525868],[22.497306774049587,65.4787849789299],[22.4983502397786,65.4808985920209],[22.49576289058577,65.48247098533307],[22.49634493077519,65.48298341728653],[22.493877984012148,65.48346701873513],[22.492746971382473,65.48406462818566],[22.490554420622885,65.48399315106509],[22.490451955036907,65.48363732579145],[22.489595440098544,65.48367989049181],[22.48997246917552,65.48348069589592],[22.489288096148503,65.48261241197551]],[[22.492652259493546,65.41585589488064],[22.492225110978985,65.41587717274327],[22.492122944246255,65.41552134561209],[22.492652259493546,65.41585589488064]],[[22.488534045935676,65.48301079672815],[22.489390541054917,65.48296823824809],[22.48944176466195,65.4831461513467],[22.488636482471012,65.48336662359766],[22.488534045935676,65.48301079672815]],[[22.487607778717944,65.48432002266509],[22.487128296613047,65.48416338370271],[22.487556564806468,65.48414210884546],[22.487607778717944,65.48432002266509]],[[22.487402927686645,65.48360836723603],[22.48649520259321,65.48347300042964],[22.489167181475413,65.48370117103244],[22.488841364771872,65.48407827703521],[22.487556564806468,65.48414210884546],[22.487402927686645,65.48360836723603]],[[22.488687701892427,65.4835445369947],[22.488259444592963,65.48356581494821],[22.48820822803363,65.48338790137682],[22.488687701892427,65.4835445369947]],[[22.486169349576908,65.4838501010376],[22.484884552942383,65.48391391008649],[22.484833358511466,65.48373599514586],[22.486169349576908,65.4838501010376]],[[22.45242547426243,65.4191174300561],[22.452222192789204,65.418405711148],[22.45136773289426,65.41844803818077],[22.451012059489983,65.41720252671168],[22.45181566638766,65.41698227213857],[22.450656423383354,65.41595701402481],[22.457064200475447,65.4156394803425],[22.457369285356254,65.41670704714072],[22.456291063394808,65.4174822914242],[22.457023369619492,65.4185286821495],[22.455894219552725,65.41912599654563],[22.4556703582767,65.41985888471642],[22.454113860404938,65.42047736087548],[22.452832073759023,65.42054086667889],[22.45250646181419,65.42091789212706],[22.449942829216663,65.42104486610799],[22.449312333653758,65.42035430077541],[22.45242547426243,65.4191174300561]],[[22.45476575912714,65.36360407101685],[22.45433942223343,65.36362523320132],[22.45428871749621,65.36344730297435],[22.45476575912714,65.36360407101685]],[[22.453212500255244,65.36422250464176],[22.452786151826235,65.36424366254462],[22.452684761235986,65.36388780083283],[22.453212500255244,65.36422250464176]],[[22.45118212147686,65.3646841451505],[22.450755763589182,65.36470529739881],[22.450705080571694,65.36452736574138],[22.45118212147686,65.3646841451505]],[[22.449852368192055,65.36456966629252],[22.449426010865622,65.36459081476808],[22.449375337109604,65.3644128825678],[22.449852368192055,65.36456966629252]],[[22.447771237158506,65.36485332953595],[22.44819760035012,65.3648321856879],[22.44824826711748,65.3650101183565],[22.447771237158506,65.36485332953595]],[[22.44739553430725,65.36505240519779],[22.447821901091142,65.36503126237714],[22.447872565781342,65.36520919519361],[22.44739553430725,65.36505240519779]],[[22.44701982578648,65.36525147998],[22.447446196162677,65.36523033818683],[22.447496858775622,65.3654082711511],[22.44701982578648,65.36525147998]],[[22.446644111596054,65.36545055388254],[22.44707048556459,65.36542941311686],[22.447121146100233,65.36560734622896],[22.446644111596054,65.36545055388254]],[[22.446865857868545,65.40874644541536],[22.446438780283927,65.40876759280289],[22.446388023585516,65.40858966043666],[22.446865857868545,65.40874644541536]],[[22.4462683917359,65.36564962690545],[22.446694769296812,65.36562848716726],[22.446745427755033,65.36580642042719],[22.4462683917359,65.36564962690545]],[[22.435566273413126,65.34777476543478],[22.435039098858542,65.34743999397655],[22.435465192385884,65.34741888896421],[22.435566273413126,65.34777476543478]],[[22.435790201489986,65.34704190652776],[22.436642373445178,65.34699969119623],[22.43631737717486,65.347376675342],[22.435465192385884,65.34741888896421],[22.435790201489986,65.34704190652776]],[[22.43305177430602,65.35565826007337],[22.432199315007548,65.35570045801187],[22.431997173318884,65.35498870026568],[22.432849609954662,65.35494650370488],[22.43305177430602,65.35565826007337]],[[22.431469893221266,65.354653917381],[22.431043678680528,65.354675012318],[22.4309931523228,65.35449707242591],[22.431469893221266,65.354653917381]],[[22.431144733661686,65.35503089202803],[22.430718512700164,65.35505198610977],[22.430667987664748,65.35487404609495],[22.431144733661686,65.35503089202803]],[[22.430819565036714,65.35540786606539],[22.430393337654223,65.35542895929188],[22.43034281394122,65.35525101915427],[22.430819565036714,65.35540786606539]],[[22.430595440058628,65.35614071959556],[22.430169200588885,65.35616181231107],[22.430118676687968,65.35598387210001],[22.430595440058628,65.35614071959556]],[[22.430494387345917,65.3557848394931],[22.430068153542283,65.35580593186427],[22.430017631151806,65.35562799160384],[22.430494387345917,65.3557848394931]],[[22.430270250656477,65.35651769265912],[22.429844004765197,65.35653878451926],[22.42979348218694,65.35636084418543],[22.430270250656477,65.35651769265912]],[[22.429945052187424,65.35689466511289],[22.429518799874426,65.35691575611767],[22.42946827861895,65.35673781566103],[22.429945052187424,65.35689466511289]],[[22.40976327391437,65.36041799274133],[22.40933694496236,65.36043902735872],[22.409286552010236,65.36026107882188],[22.40976327391437,65.36041799274133]],[[22.40891061525692,65.36046006077608],[22.40848428479807,65.36048109299338],[22.40843389751526,65.36030314411313],[22.40891061525692,65.36046006077608]],[[22.40714304584955,65.3710124417591],[22.406716542614774,65.3710334707325],[22.406666142818928,65.37085552138853],[22.40714304584955,65.3710124417591]],[[22.40364353399543,65.36017851579989],[22.404069864234568,65.36015749729827],[22.404120221663987,65.36033544794422],[22.40364353399543,65.36017851579989]],[[22.403267554763303,65.36037748409056],[22.40369388859008,65.36035646661743],[22.40374424393761,65.36053441741045],[22.403267554763303,65.36037748409056]],[[22.40234097263109,65.36168618914922],[22.402391321908684,65.36186414045675],[22.401964962390597,65.361885154502],[22.40234097263109,65.36168618914922]],[[22.401186212676077,65.3606605052772],[22.40203889277427,65.3606184807887],[22.40224027633436,65.36133028646054],[22.401488258512472,65.3617282156964],[22.401186212676077,65.3606605052772]],[[22.401511871507637,65.36028359030675],[22.401085536751946,65.36030460160787],[22.40098486383828,65.35994869784037],[22.401511871507637,65.36028359030675]],[[22.400884193934935,65.35959279397477],[22.400457869765724,65.35961380338966],[22.40040753877755,65.35943585124853],[22.400884193934935,65.35959279397477]],[[22.37081022230675,65.39246571710378],[22.370383335713377,65.39248664702563],[22.37033313221944,65.39230868355395],[22.37081022230675,65.39246571710378]],[[22.370735050165088,65.39066515358657],[22.370308192754326,65.39068608299998],[22.370257993932334,65.39050811945543],[22.370735050165088,65.39066515358657]],[[22.37070981038387,65.39210979047816],[22.37028292947706,65.39213072005792],[22.370182526246897,65.39177479299263],[22.37070981038387,65.39210979047816]],[[22.370559198136363,65.39157590035677],[22.370132325759084,65.3915968294234],[22.37003192703793,65.39124090221178],[22.370559198136363,65.39157590035677]],[[22.370207462894843,65.39339739359308],[22.369780560581088,65.393418321966],[22.369730359016174,65.3932403582742],[22.370207462894843,65.39339739359308]],[[22.362371418192385,65.396307267243],[22.361517503129917,65.39634907948408],[22.361467350771736,65.39617111254334],[22.362371418192385,65.396307267243]],[[22.361040394958565,65.39619201668951],[22.35975952301396,65.3962547219139],[22.35960910457781,65.39572081889546],[22.360940098183743,65.39583608239327],[22.361040394958565,65.39619201668951]],[[22.30917224139878,65.41964972745862],[22.308744853357496,65.41967048773573],[22.308695005030756,65.41949250024176],[22.30917224139878,65.41964972745862]],[[22.284541168279294,65.42607582284678],[22.284968683811375,65.42605512990582],[22.285018386222998,65.42623312668424],[22.284541168279294,65.42607582284678]],[[22.284163348706468,65.42627451170033],[22.28459086783729,65.42625381979452],[22.2846405681404,65.4264318167183],[22.284163348706468,65.42627451170033]],[[22.283785523426307,65.42647319966404],[22.28421304615589,65.42645250879342],[22.284262744350404,65.42663050586259],[22.283785523426307,65.42647319966404]],[[22.28270170235488,65.42724725589039],[22.28312923873489,65.4272265679562],[22.283178931348125,65.42740456543746],[22.28270170235488,65.42724725589039]],[[22.282323852135196,65.42744594043982],[22.28275139211416,65.42742525354093],[22.282801082618434,65.42760325116751],[22.282323852135196,65.42744594043982]]],[[[22.282372519999996,65.43193981],[22.26099091,65.43297267],[22.2634696,65.44187294],[22.28898978332876,65.44063822877283],[22.287524461153705,65.43675559729498],[22.285187103257137,65.43614710907417],[22.279856131984953,65.43568337771842],[22.278851728732217,65.43519073972955],[22.275858020858976,65.43533545440803],[22.27837438018823,65.43503341768614],[22.27827502597208,65.43467741924627],[22.27646504313031,65.4344041138386],[22.27498344803333,65.43375411893645],[22.277927309682273,65.43343142395307],[22.277728631047463,65.43271942611631],[22.279011519829748,65.43265739818723],[22.28011519683528,65.43350603321537],[22.28182575592917,65.43342329941696],[22.2817263622336,65.43306730364093],[22.28263132807336,65.43320392775082],[22.281955204563744,65.43233462635536],[22.282909848750002,65.43264924680041],[22.283188358257934,65.43209456544548],[22.283715387995112,65.43242986967172],[22.284570627063783,65.43238848518757],[22.28412323257557,65.43078651303043],[22.281888575633133,65.43020455107582],[22.282372519999996,65.43193981]],[[22.27498344803333,65.43375411893645],[22.274506148783082,65.4335967841615],[22.27493379650187,65.4335761183528],[22.27498344803333,65.43375411893645]],[[22.274028855244207,65.43343944781938],[22.274456500851873,65.4334187833848],[22.274506148783082,65.4335967841615],[22.274028855244207,65.43343944781938]],[[22.276724384111738,65.43222677240053],[22.27757962989207,65.4321854274875],[22.277629296199063,65.43236342705431],[22.276724384111738,65.43222677240053]],[[22.276018102243714,65.43280211315307],[22.275590468181033,65.43282278189999],[22.27554081466147,65.43264478153506],[22.276018102243714,65.43280211315307]],[[22.27312392317566,65.43330277176571],[22.272268632460563,65.43334409186193],[22.272219000296513,65.43316609019186],[22.27312392317566,65.43330277176571]]]]}},{"type":"Feature","properties":{"cyano_daymap_file_id":3111,"date":"2007-08-23Z","cloud":null,"sub_surfac":null,"surface":null,"no_data":null,"class":1,"color_hex":null,"algae_class":"class_1","source_date":"2007-08-23"},"geometry":{"type":"Polygon","coordinates":[[[22.453453039999996,65.80251055],[22.450866999999995,65.79361451],[22.494206819999995,65.79148610999998],[22.49331939333825,65.79028039058892],[22.493868067250364,65.79032660176486],[22.49300559171821,65.78737445603848],[22.491846550593184,65.7867436382432],[22.49049474442376,65.78662974033413],[22.49072018895468,65.78589678429924],[22.492437984927722,65.78543160908418],[22.491608059999997,65.78259087999999],[22.501500269502515,65.78210295602076],[22.502191921218543,65.78154166069544],[22.503439434878473,65.78129965643353],[22.503335368463564,65.78094385567772],[22.505501222056168,65.78083699399589],[22.506107303037062,65.77990474461176],[22.51043878839632,65.77969091389794],[22.511686131824284,65.77944884382786],[22.51158196067598,65.77909304973545],[22.512585516019715,65.7791925267781],[22.51066354,65.77262769],[22.53231385,65.77155673000001],[22.53378026700394,65.77655121561337],[22.53498515691161,65.7764915228721],[22.533857862857662,65.77564499698003],[22.537045971560516,65.77602844344318],[22.537254989380823,65.77673999003338],[22.53557495463323,65.77700372605703],[22.53654560533828,65.77731657758198],[22.537429962009636,65.78032685996432],[22.538313047719395,65.78028304505818],[22.53928597617919,65.7791659930298],[22.541070685751805,65.7792579851081],[22.540861538187773,65.7785464450262],[22.54216081957023,65.7784820141077],[22.542384729984782,65.77774899703778],[22.543355489590315,65.77806180412084],[22.543683966642252,65.77768455357803],[22.54455012044339,65.77764158515838],[22.546544029725315,65.77844504765571],[22.54481167299432,65.77853100271912],[22.544368377079017,65.77998260571863],[22.55658096,65.77937667],[22.556283265474352,65.77836292571058],[22.555415160559733,65.77872649542994],[22.55449661231088,65.7785916462866],[22.554339477671647,65.77805800778856],[22.55260717816357,65.77814405088104],[22.551583948945872,65.77765342316162],[22.55132217368898,65.7767640194305],[22.55447234018928,65.77552466783318],[22.555459198538248,65.77555671639661],[22.541070498653742,65.7265586291508],[22.540428025871506,65.7262295843243],[22.540271564128787,65.72569592478132],[22.540796316595756,65.725624952272],[22.535686139999996,65.70822318000002],[22.51408899,65.7092941],[22.511493320000003,65.70039918],[22.4683077,65.702531],[22.46572857,65.69363514],[22.44414011,65.69469604],[22.446711960000002,65.70359233],[22.42511427,65.70465062],[22.42699327267625,65.71116163782094],[22.427838867293147,65.71138803660327],[22.427164154597133,65.711753768554],[22.4302492,65.7224439],[22.40863497,65.72350001],[22.41376307,65.74129391],[22.392132259999997,65.74234784],[22.404949939999998,65.78683368],[22.42661741,65.78577757],[22.431772819999992,65.80357059999999],[22.453453039999996,65.80251055]],[[22.53730724581933,65.77691787661684],[22.53865872190893,65.77703136272453],[22.538554190641136,65.77667559064795],[22.539853384759763,65.77661118025908],[22.540077347942,65.77587816606304],[22.54061495278292,65.77621246348258],[22.541481063321516,65.77616951293007],[22.541585632473314,65.77652528262429],[22.540719510204006,65.77656823388686],[22.54087635228871,65.77710188930087],[22.54001020924755,65.77714483673817],[22.53968168429749,65.77752207983565],[22.53654560533828,65.77731657758198],[22.53730724581933,65.77691787661684]],[[22.550693994141938,65.77462944785294],[22.55074633806663,65.77480732895913],[22.55031331532817,65.77482883085332],[22.550693994141938,65.77462944785294]],[[22.546363760326116,65.77484441000858],[22.54679678728231,65.77482291929398],[22.546901423148586,65.77517868467905],[22.546363760326116,65.77484441000858]],[[22.546901423148586,65.77517868467905],[22.54738677723166,65.77533507486307],[22.546953742273143,65.77535656733306],[22.546901423148586,65.77517868467905]],[[22.545759255669996,65.77577680370493],[22.545811568380294,65.7759546868148],[22.545378521447695,65.77597617492772],[22.545759255669996,65.77577680370493]],[[22.545401713230017,65.7790431654827],[22.545454031439228,65.77922104866312],[22.545020929332164,65.7792425363055],[22.545401713230017,65.7790431654827]],[[22.543250888550485,65.77770603595391],[22.543198589221692,65.77752815183194],[22.543631664380534,65.77750666963364],[22.543250888550485,65.77770603595391]],[[22.54030129956792,65.77514515165399],[22.540353573119663,65.77532303702286],[22.53948748873188,65.77536598091017],[22.54030129956792,65.77514515165399]],[[22.537859824728287,65.77580762680493],[22.53727001085203,65.7752954326231],[22.539106710895577,65.77556533689575],[22.537859824728287,65.77580762680493]],[[22.53688921652523,65.77549478323138],[22.536993719088787,65.77585055673157],[22.53656066507907,65.77587201986103],[22.536023119443055,65.77553770755809],[22.53688921652523,65.77549478323138]],[[22.520301116191035,65.72488165479311],[22.520197090915122,65.72452586520272],[22.521873905563115,65.72426233056632],[22.52197795262497,65.72461811879413],[22.521113529468494,65.72466094184189],[22.520457160016353,65.72541533898749],[22.519160479595325,65.72547955921249],[22.51905646711332,65.72512376871501],[22.520301116191035,65.72488165479311]],[[22.520115857165177,65.77073055826534],[22.52027223063015,65.77126423946365],[22.519839236860765,65.7712856544895],[22.520115857165177,65.77073055826534]],[[22.51933266729368,65.72456867813906],[22.51928066167858,65.7243907829523],[22.520145079459397,65.72434797036927],[22.51933266729368,65.72456867813906]],[[22.51921248701848,65.72565745442301],[22.518348023622607,65.72570026216061],[22.518296022040683,65.72552236659675],[22.51921248701848,65.72565745442301]],[[22.51892113046467,65.77115058663571],[22.519025364223115,65.77150637508663],[22.518592365148102,65.77152778662217],[22.518055143251672,65.77119340777651],[22.51892113046467,65.77115058663571]],[[22.511148826873434,65.77911444144854],[22.511096745419813,65.77893654418726],[22.511529876288197,65.77891515265102],[22.511148826873434,65.77911444144854]],[[22.497980642287327,65.77164323606992],[22.49803261564778,65.77182113886786],[22.497599590378712,65.77184249101549],[22.497980642287327,65.77164323606992]],[[22.497651561595433,65.77202039396457],[22.49721853260461,65.77204174506609],[22.49716656432065,65.77186384194057],[22.497651561595433,65.77202039396457]],[[22.488604565389625,65.79069298975638],[22.48806731244357,65.79035850552131],[22.489367346929285,65.79029451723524],[22.490026180454514,65.78954022989753],[22.491378138523995,65.78965413047253],[22.491482082241212,65.79000994059471],[22.490615407142723,65.79005261255989],[22.490337963468903,65.79060766328794],[22.489089873879312,65.79084956598038],[22.48919379181905,65.79120537791533],[22.48735645457694,65.79093487846961],[22.488604565389625,65.79069298975638]],[[22.490771311015102,65.79058632861152],[22.49082328055162,65.79076423391129],[22.49038993006776,65.79078556876416],[22.490771311015102,65.79058632861152]],[[22.47537730366453,65.77095150845622],[22.476036088465676,65.7701972820774],[22.475292190967707,65.7691510993548],[22.47286819801811,65.76836795835607],[22.473682382882178,65.76814748124337],[22.473526995238593,65.76761374270464],[22.47467052067134,65.76701615198816],[22.474740878526667,65.76574947914649],[22.476905599583286,65.76564303482596],[22.476750163441544,65.76510930005169],[22.479295921923022,65.76480361911037],[22.479192268155384,65.76444779786235],[22.480975779825318,65.76454050522383],[22.485165258400297,65.7668607566767],[22.485372757025143,65.76757238909983],[22.48445495308729,65.76743711065964],[22.485043538609492,65.76794952111293],[22.48331164092485,65.76803477270242],[22.482912434769645,65.76967857327406],[22.480418091942465,65.77016222890501],[22.47996682628389,65.77162811381031],[22.477213084596467,65.77122216745842],[22.47667639850044,65.77088763755773],[22.47537730366453,65.77095150845622]],[[22.47341933953891,65.77176958702456],[22.47347114392173,65.77194749984257],[22.473038092137212,65.77196878246279],[22.47341933953891,65.77176958702456]],[[22.472449646377534,65.7714563242748],[22.47288269014835,65.77143504340512],[22.472934490024862,65.7716129564496],[22.472449646377534,65.7714563242748]],[[22.468862852102582,65.77271528551836],[22.468688652352938,65.77362612910052],[22.46705983870155,65.77406702996015],[22.46721513933292,65.77460077594665],[22.464997865957937,65.77452917423774],[22.463853788023847,65.77512669777258],[22.463957281901227,65.77548253101553],[22.46265791795552,65.77554629612574],[22.462884078920673,65.77481337431948],[22.464131658172217,65.7745716911149],[22.46415079028513,65.77312710151357],[22.46491345263092,65.77272875250958],[22.464376891345744,65.77239417807988],[22.465243025571496,65.77235166052893],[22.46513952906718,65.77199582818575],[22.465953895474463,65.77177539058852],[22.465417341469255,65.77144081975074],[22.46411818531396,65.77150459527543],[22.464673833685836,65.77039458139274],[22.46597293232647,65.77033080169475],[22.46668373250712,65.76975452903355],[22.467931031853094,65.7695128174707],[22.468467576376046,65.76984737955094],[22.46976663620275,65.76978356789469],[22.470129073617013,65.77102896783093],[22.471479976682794,65.77114305512572],[22.47158355647681,65.77149888234592],[22.4725014433207,65.7716342374952],[22.47076924864055,65.77171934945],[22.47102818648225,65.77260891869092],[22.468862852102582,65.77271528551836]],[[22.4689804657027,65.77613820443602],[22.469413591472573,65.7761169326209],[22.469465378735496,65.77629484696868],[22.4689804657027,65.77613820443602]],[[22.469465378735496,65.77629484696868],[22.469950297637535,65.77645148790126],[22.4695171667848,65.77647276129117],[22.469465378735496,65.77629484696868]],[[22.46899455255055,65.77920529384407],[22.46769501611945,65.7792691035811],[22.467643233884314,65.77909118858217],[22.468457799101344,65.77887073565994],[22.46899455255055,65.77920529384407]],[[22.468716743563355,65.77976030876971],[22.46882032685383,65.78011613783684],[22.468387133365944,65.78013740862855],[22.468716743563355,65.77976030876971]],[[22.46843892325541,65.78031532330012],[22.468005726045334,65.78033659304442],[22.467953939091515,65.78015867819695],[22.46843892325541,65.78031532330012]],[[22.464978784920017,65.77597376344761],[22.46503054126417,65.77615167960403],[22.46416427908533,65.7761941971987],[22.464978784920017,65.77597376344761]],[[22.461720677001928,65.77685547316447],[22.464371288842838,65.77690586297828],[22.463815503034866,65.7780158771083],[22.46294917586943,65.778058388433],[22.461856638234337,65.77883381593749],[22.460557099296242,65.77889756485025],[22.459968732870475,65.77838505770244],[22.460783344204447,65.77816464533902],[22.46067988115647,65.77780880963934],[22.461927625749897,65.7775671428589],[22.461720677001928,65.77685547316447]],[[22.434089620598847,65.72696137514912],[22.434264824857166,65.72605056143708],[22.437569032553622,65.72534741945529],[22.43810423730262,65.72568210149022],[22.437291057002618,65.725902378662],[22.437064514941106,65.72663526614866],[22.43803207423327,65.72694877485128],[22.438186435497315,65.72748255953262],[22.437476101326407,65.72805869466231],[22.434830541759705,65.72800778786618],[22.434243900595256,65.72749516462437],[22.43543806275142,65.72707580593396],[22.434089620598847,65.72696137514912]]]}},{"type":"Feature","properties":{"cyano_daymap_file_id":3111,"date":"2007-08-23Z","cloud":null,"sub_surfac":null,"surface":null,"no_data":null,"class":1,"color_hex":null,"algae_class":"class_1","source_date":"2007-08-23"},"geometry":{"type":"MultiPolygon","coordinates":[[[[22.71372035,65.71732779999999],[22.714871518465653,65.71726919981522],[22.7169667140691,65.7103161878469],[22.733774120898154,65.71110560624143],[22.73264163,65.70733826],[22.747213878029225,65.70659014505571],[22.747715649125997,65.69814462065249],[22.8019485963681,65.6980889054477],[22.834625625970205,65.691171722962],[22.836544573112967,65.68866233478154],[22.835132079999998,65.68402248999999],[22.840297168630475,65.68375510277505],[22.869060662412803,65.64614136672253],[22.824333449999997,65.64846914999998],[22.827030049999998,65.65735758999999],[22.805489979999997,65.65846928],[22.807983126107843,65.66670019989606],[22.809864529197505,65.66584076832406],[22.81363663573441,65.66528514303488],[22.815845878818337,65.66390729704489],[22.817516216666178,65.66364054728035],[22.818486145588547,65.66395159459672],[22.81875570741408,65.66484045198926],[22.81789355694598,65.6648849503841],[22.81762420127364,65.66544051351683],[22.81643874146469,65.66586279479868],[22.816600448378743,65.66639611179808],[22.81751656147536,65.66652939210798],[22.817139364948247,65.66672941076871],[22.817786122349457,65.66741825126365],[22.816007838824675,65.66877388473726],[22.813582636096182,65.66944064342105],[22.812181401867544,65.66915179951486],[22.812073643221897,65.66879625124106],[22.80910945241831,65.66912962227377],[22.809809927480618,65.66999627363087],[22.809045174942508,65.67020646808318],[22.810874809999994,65.67624685999999],[22.78931822,65.67735644],[22.786689879303417,65.6686586242591],[22.76508066,65.6695733],[22.763318007231412,65.6637196914143],[22.762393762457155,65.66376705619584],[22.76206969421102,65.66414473745402],[22.760939868285643,65.66329993532824],[22.76013115894146,65.66352190249789],[22.758894426480246,65.6623214913102],[22.760190746598834,65.66081078879142],[22.761521479221443,65.66072864497276],[22.71930945,65.6628857],[22.72059244826518,65.66716677972458],[22.721375785294953,65.66712686172636],[22.72059733529458,65.66718308665426],[22.723312627149845,65.6762434113822],[22.72500873747063,65.67632910880882],[22.72511533977419,65.67668473045872],[22.726516061783286,65.6769743827023],[22.72678263326451,65.67786343337792],[22.72527031015484,65.67866263659346],[22.723972867573625,65.67844648676297],[22.727302709999996,65.68955743],[22.70573076,65.6906553],[22.7032883969052,65.6824892359344],[22.70244570879504,65.68289310271852],[22.70066657652784,65.68280297006703],[22.70077287691493,65.6831586118799],[22.699425231016516,65.68304654440824],[22.699318949673543,65.68269090145893],[22.700181935722128,65.682647067784],[22.700878306723798,65.68187563488605],[22.68150489,65.68285871],[22.69212457,65.71842398],[22.670526760000005,65.71951711],[22.67317942,65.72840871],[22.66702211025851,65.72871947787563],[22.692209173667,65.73394201467839],[22.7107938778677,65.7308010551863],[22.714286498970054,65.71921061642944],[22.71372035,65.71732779999999]],[[22.721429038361237,65.66730467431],[22.721913510059544,65.6674605105264],[22.721482292232373,65.66748248686706],[22.721429038361237,65.66730467431]],[[22.698881058568407,65.68415730431647],[22.700122462208416,65.68391373382529],[22.700016167015843,65.6835580915019],[22.700879180517276,65.68351425358682],[22.701038641949705,65.6840477159486],[22.69828370298941,65.68509024087052],[22.69882152221656,65.6854239705073],[22.697148488409923,65.68568944183356],[22.69390187464236,65.68802046812051],[22.691850128412618,65.6884856079452],[22.69131233165903,65.68815185339912],[22.691372234603513,65.68688518639249],[22.694884514464533,65.68544333002087],[22.695747601193354,65.68539952050341],[22.695050472543045,65.68453230995769],[22.697639631054805,65.68440086490993],[22.697964885315674,65.68402330911852],[22.697373978255346,65.68351175375074],[22.698668503059256,65.68344601750276],[22.698562230126477,65.68309037393705],[22.699425231016516,65.68304654440824],[22.698881058568407,65.68415730431647]],[[22.819511181685826,65.67021809147666],[22.819834474033037,65.66984029577824],[22.82199024585568,65.66972900894913],[22.821398075595983,65.67210679846947],[22.81897270970265,65.67277364494852],[22.816762748334174,65.67270711967096],[22.816493156310298,65.67181825895595],[22.81546904116039,65.67132942910771],[22.819511181685826,65.67021809147666]],[[22.80818907311906,65.68921827806992],[22.808296880756757,65.6895738286923],[22.807433885813527,65.68961827645273],[22.80818907311906,65.68921827806992]],[[22.804683240887158,65.68921826016386],[22.804305622466842,65.6894182513686],[22.805006529262215,65.69028492065564],[22.80425126153053,65.69068490405851],[22.801608269011076,65.69064038713051],[22.80144668843259,65.69010705269584],[22.80225584764523,65.68988486080634],[22.802525758362396,65.68932931902305],[22.804683240887158,65.68921826016386]],[[22.75964653962086,65.66336618974361],[22.759215428447753,65.66338827211752],[22.759161926098894,65.6632104753833],[22.75964653962086,65.66336618974361]],[[22.759322435570738,65.66374386550558],[22.75937594034489,65.66392166215937],[22.75894481966366,65.66394374386311],[22.759322435570738,65.66374386550558]],[[22.721384568181463,65.69492752841954],[22.721597860860395,65.69563877596946],[22.719924420918222,65.6959045022071],[22.719066265056302,65.69450397520885],[22.71976967670849,65.6939265879577],[22.721384568181463,65.69492752841954]],[[22.705228415095817,65.70098444071614],[22.708304189778943,65.70100868003522],[22.708517183520126,65.7017199490163],[22.705813945929133,65.70294044361181],[22.70322298387343,65.70307204631924],[22.70338872320655,65.70216101923216],[22.705228415095817,65.70098444071614]],[[22.701980700674216,65.70331565114014],[22.703814476378223,65.70358357307082],[22.7037551945557,65.70485023883455],[22.700193898445757,65.70467001416857],[22.699981104113686,65.7039587314837],[22.701980700674216,65.70331565114014]],[[22.698318369184445,65.72624718360252],[22.69859086277509,65.72569180053382],[22.699455284597903,65.72564795637243],[22.701071460605757,65.7266490998683],[22.701444304864133,65.72789383735993],[22.700147564422164,65.72795961980364],[22.698318369184445,65.72624718360252]],[[22.69867491402436,65.68200152953217],[22.699537878433564,65.68195769973592],[22.700075645969633,65.68229142545106],[22.69867491402436,65.68200152953217]],[[22.699715315993316,65.72798154484558],[22.69928306675713,65.72800346866781],[22.699229815457215,65.7278256482012],[22.699715315993316,65.72798154484558]],[[22.69364291481641,65.709154351741],[22.696287728358598,65.70920072765381],[22.697796320589777,65.70984627375834],[22.69816871604116,65.71109102362985],[22.69557689143898,65.71122250482645],[22.693742647790806,65.71095448828102],[22.692719211838664,65.71046482438926],[22.692506565534153,65.70975352970567],[22.69364291481641,65.709154351741]],[[22.69710834554317,65.68262264192992],[22.697161470478736,65.68280046434701],[22.69672997222754,65.6828223732733],[22.69710834554317,65.68262264192992]],[[22.696457835362196,65.68337774915801],[22.69688934313611,65.68335584090732],[22.696942468379138,65.68353366339909],[22.696457835362196,65.68337774915801]],[[22.695701051253696,65.68377720804797],[22.69613256644834,65.68375530187062],[22.69623880932591,65.68411094744386],[22.695701051253696,65.68377720804797]],[[22.69623880932591,65.68411094744386],[22.69672345507991,65.68426686225476],[22.69629193196981,65.68428877019083],[22.69623880932591,65.68411094744386]],[[22.696079446214625,65.68357747904429],[22.69651095769889,65.68355557183031],[22.696564080838986,65.68373339447608],[22.696079446214625,65.68357747904429]],[[22.694731796227057,65.68346536998911],[22.694950860778768,65.68273217348757],[22.69586697331326,65.68286618747447],[22.694731796227057,65.68346536998911]]],[[[22.61098488,65.74056407],[22.61262989474152,65.74611204301976],[22.632162053826647,65.73949977947564],[22.61098488,65.74056407]]],[[[22.61889518,65.76724233],[22.64053552,65.76615608999998],[22.6401574965187,65.76488572949641],[22.629626611492498,65.76057883753],[22.614929786506174,65.75386865281575],[22.61889518,65.76724233]]],[[[22.701961055873078,65.68273720623337],[22.702286226959334,65.68235964204744],[22.701423254766457,65.68240348753197],[22.701961055873078,65.68273720623337]]]]}}]}