{"type":"FeatureCollection","properties":{"source":"SMHI SE.SR Ytansamling av alger","date":"2007-07-13","note":"Test: SMHI WFS clipped to Lulea municipal sea area and simplified 20 m."},"features":[{"type":"Feature","properties":{"cyano_daymap_file_id":3070,"date":"2007-07-13Z","cloud":null,"sub_surfac":null,"surface":null,"no_data":null,"class":1,"color_hex":null,"algae_class":"class_1","source_date":"2007-07-13"},"geometry":{"type":"Polygon","coordinates":[[[22.834979599999997,65.10625935],[22.834138760849726,65.10341931369675],[22.813630577896,65.099051531591],[22.788717053550343,65.09462874889616],[22.79279226,65.10847246],[22.77169568,65.10957458],[22.77954022,65.13624497],[22.75842093,65.13734546],[22.761032719999996,65.14623589999998],[22.782158939999995,65.14513496],[22.79002676,65.17180456],[22.81117186,65.17069930999999],[22.821717400000004,65.20625604],[22.842888389999995,65.20514601999999],[22.853493199999996,65.24069987999998],[22.874690119999997,65.23958508],[22.88001835,65.2573607],[22.858807450000004,65.2584764],[22.864129599999995,65.27625265999998],[22.82167386,65.27847694],[22.829629879999995,65.30514352999998],[22.808377990000004,65.30625255],[22.82430125,65.35958662999998],[22.845595389999996,65.35847489999999],[22.848263270000004,65.36736322],[22.869562469999998,65.36624804],[22.8722394,65.37513584],[22.89354367,65.37401721],[22.89891768,65.39179169999998],[22.920234070000003,65.39066916],[22.928331399999994,65.41732899999998],[22.94966701,65.41620207999999],[22.95780381,65.44285993],[22.979158659999992,65.44172861999999],[22.987335080000005,65.46838445],[23.005740498181684,65.46740649865629],[23.0439526591749,65.41743683403658],[23.1383421263494,65.2880901187065],[23.089750185962696,65.28445681869319],[23.089709002936797,65.2756147460627],[23.0877229961228,65.2617264628135],[23.083434648887803,65.24793025256493],[23.08043185064679,65.2410880822697],[23.072734007836395,65.22755481896989],[23.062814772555992,65.214278717246],[23.05703780408209,65.2077578360096],[23.0438821336382,65.1949890305416],[23.0286527983404,65.1826346123978],[23.011423917751596,65.1707541953058],[23.002086021599,65.1650103332603],[22.982021613701992,65.1539487475862],[22.960190125166896,65.1434996447016],[22.936695353363596,65.13371361195249],[22.924360538612298,65.1290836625267],[22.8985886497093,65.1203780521599],[22.885184620758892,65.11631308182429],[22.8574198396373,65.1087830198622],[22.8448128521847,65.10574136282564],[22.834979599999997,65.10625935]]]}},{"type":"Feature","properties":{"cyano_daymap_file_id":3070,"date":"2007-07-13Z","cloud":null,"sub_surfac":null,"surface":null,"no_data":null,"class":1,"color_hex":null,"algae_class":"class_1","source_date":"2007-07-13"},"geometry":{"type":"MultiPolygon","coordinates":[[[[22.71372035,65.71732779999999],[22.714871518465653,65.71726919981522],[22.7169667140691,65.7103161878469],[22.733774120898154,65.71110560624143],[22.73264163,65.70733826],[22.747213878029225,65.70659014505571],[22.747715649125997,65.69814462065249],[22.8019485963681,65.6980889054477],[22.834625625970205,65.691171722962],[22.83654784707937,65.68865805344808],[22.827030049999998,65.65735758999999],[22.805489979999997,65.65846928],[22.807983126107843,65.66670019989606],[22.809864529197505,65.66584076832406],[22.81363663573441,65.66528514303488],[22.815845878818337,65.66390729704489],[22.817516216666178,65.66364054728035],[22.818486145588547,65.66395159459672],[22.81875570741408,65.66484045198926],[22.81789355694598,65.6648849503841],[22.81762420127364,65.66544051351683],[22.81643874146469,65.66586279479868],[22.816600448378743,65.66639611179808],[22.81751656147536,65.66652939210798],[22.817139364948247,65.66672941076871],[22.817786122349457,65.66741825126365],[22.816007838824675,65.66877388473726],[22.813582636096182,65.66944064342105],[22.812181401867544,65.66915179951486],[22.812073643221897,65.66879625124106],[22.80910945241831,65.66912962227377],[22.809809927480618,65.66999627363087],[22.809045174942508,65.67020646808318],[22.810874809999994,65.67624685999999],[22.78931822,65.67735644],[22.786689879303417,65.6686586242591],[22.76508066,65.6695733],[22.763318668036707,65.66371965755],[22.762393762457155,65.66376705619584],[22.76206969421102,65.66414473745402],[22.760939868285643,65.66329993532824],[22.76013115894146,65.66352190249789],[22.758894426480246,65.6623214913102],[22.760190746598834,65.66081078879142],[22.76231699801132,65.66039193625294],[22.760695946600357,65.65500652272638],[22.760416918401003,65.65574415426295],[22.75852938912049,65.65674354451339],[22.75901387546092,65.65689926219076],[22.7587433217749,65.657454732967],[22.75863635383183,65.65709913879375],[22.75777433683271,65.65714329446392],[22.75815186587497,65.65694341992793],[22.75745348716912,65.65607650912055],[22.76053574439194,65.65447430324562],[22.75972888,65.65179376],[22.78126576,65.65068859],[22.77055749,65.61513051],[22.792063449999997,65.61402413],[22.78938421,65.6051349],[22.746384699999997,65.60734373],[22.74904951,65.61623387],[22.72753953,65.61733419],[22.73552434,65.64400556],[22.732065381175893,65.64437661424137],[22.713990669999994,65.64510420999999],[22.71133428,65.63621336],[22.68980584,65.63730852],[22.69510612,65.65509105],[22.67356119,65.65618407000001],[22.676207090000002,65.66507568],[22.71930945,65.6628857],[22.72059244826518,65.66716677972458],[22.721375785294953,65.66712686172636],[22.72059733529458,65.66718308665426],[22.723312627149845,65.6762434113822],[22.72500873747063,65.67632910880882],[22.72511533977419,65.67668473045872],[22.726516061783286,65.6769743827023],[22.72678263326451,65.67786343337792],[22.72527031015484,65.67866263659346],[22.723972867573625,65.67844648676297],[22.727302709999996,65.68955743],[22.70573076,65.6906553],[22.7032883969052,65.6824892359344],[22.70244570879504,65.68289310271852],[22.70066657652784,65.68280297006703],[22.70077287691493,65.6831586118799],[22.699425231016516,65.68304654440824],[22.699318949673543,65.68269090145893],[22.700181935722128,65.682647067784],[22.700878306723798,65.68187563488605],[22.68150489,65.68285871],[22.696567068249426,65.73320549661459],[22.7107938778677,65.7308010551863],[22.71428628192099,65.71921133671768],[22.71372035,65.71732779999999]],[[22.75901075577227,65.65834371793115],[22.756581742818167,65.66045402897103],[22.75571961015199,65.66049817416824],[22.755238398299824,65.65889798868284],[22.756100478787424,65.6588538467562],[22.755509040840742,65.65834252322851],[22.756588244232006,65.65756511484518],[22.7587433217749,65.657454732967],[22.75901075577227,65.65834371793115]],[[22.721429038361237,65.66730467431],[22.721913510059544,65.6674605105264],[22.721482292232373,65.66748248686706],[22.721429038361237,65.66730467431]],[[22.698881058568407,65.68415730431647],[22.700122462208416,65.68391373382529],[22.700016167015843,65.6835580915019],[22.700879180517276,65.68351425358682],[22.701038641949705,65.6840477159486],[22.69828370298941,65.68509024087052],[22.69882152221656,65.6854239705073],[22.697148488409923,65.68568944183356],[22.69390187464236,65.68802046812051],[22.691850128412618,65.6884856079452],[22.69131233165903,65.68815185339912],[22.691372234603513,65.68688518639249],[22.694884514464533,65.68544333002087],[22.695747601193354,65.68539952050341],[22.695050472543045,65.68453230995769],[22.697639631054805,65.68440086490993],[22.697964885315674,65.68402330911852],[22.697373978255346,65.68351175375074],[22.698668503059256,65.68344601750276],[22.698562230126477,65.68309037393705],[22.699425231016516,65.68304654440824],[22.698881058568407,65.68415730431647]],[[22.819511181685826,65.67021809147666],[22.819834474033037,65.66984029577824],[22.82199024585568,65.66972900894913],[22.821398075595983,65.67210679846947],[22.81897270970265,65.67277364494852],[22.816762748334174,65.67270711967096],[22.816493156310298,65.67181825895595],[22.81546904116039,65.67132942910771],[22.819511181685826,65.67021809147666]],[[22.80818907311906,65.68921827806992],[22.808296880756757,65.6895738286923],[22.807433885813527,65.68961827645273],[22.80818907311906,65.68921827806992]],[[22.804683240887158,65.68921826016386],[22.804305622466842,65.6894182513686],[22.805006529262215,65.69028492065564],[22.80425126153053,65.69068490405851],[22.801608269011076,65.69064038713051],[22.80144668843259,65.69010705269584],[22.80225584764523,65.68988486080634],[22.802525758362396,65.68932931902305],[22.804683240887158,65.68921826016386]],[[22.75964653962086,65.66336618974361],[22.759215428447753,65.66338827211752],[22.759161926098894,65.6632104753833],[22.75964653962086,65.66336618974361]],[[22.759322435570738,65.66374386550558],[22.75937594034489,65.66392166215937],[22.75894481966366,65.66394374386311],[22.759322435570738,65.66374386550558]],[[22.756667872666483,65.64618725567495],[22.757582976970934,65.64632090784616],[22.75677475947839,65.64654285202552],[22.756667872666483,65.64618725567495]],[[22.75688164951839,65.64689844826898],[22.75601996761242,65.64694259051754],[22.755913089154866,65.64658699354759],[22.75677475947839,65.64654285202552],[22.75688164951839,65.64689844826898]],[[22.75742263301195,65.64578751428965],[22.757476080191214,65.6459653121686],[22.757045255734926,65.64598738542138],[22.75742263301195,65.64578751428965]],[[22.75454680483649,65.65514214757603],[22.7546002555286,65.65531994645094],[22.753738289352857,65.65536407868062],[22.75454680483649,65.65514214757603]],[[22.753791735056733,65.655541877892],[22.753845181567954,65.65571967707666],[22.753414191472462,65.65574174173196],[22.753791735056733,65.655541877892]],[[22.721384568181463,65.69492752841954],[22.721597860860395,65.69563877596946],[22.719924420918222,65.6959045022071],[22.719066265056302,65.69450397520885],[22.71976967670849,65.6939265879577],[22.721384568181463,65.69492752841954]],[[22.708315166131246,65.65858522209648],[22.709177332116138,65.6585413457255],[22.708905687984416,65.65909673872649],[22.708043502992833,65.65914061374981],[22.708315166131246,65.65858522209648]],[[22.705228415095817,65.70098444071614],[22.708304189778943,65.70100868003522],[22.708517183520126,65.7017199490163],[22.705813945929133,65.70294044361181],[22.70322298387343,65.70307204631924],[22.70338872320655,65.70216101923216],[22.705228415095817,65.70098444071614]],[[22.693286568447807,65.65808560476606],[22.692696376065435,65.65757402404282],[22.69140312378608,65.6576396964208],[22.6928092604038,65.65648518221083],[22.69232516799277,65.65632924931283],[22.69265017214468,65.65595170755029],[22.693618352157813,65.65626356977857],[22.696045543390095,65.65559870747455],[22.697769723673268,65.65551109073238],[22.69993135883214,65.65395705464759],[22.70424147329925,65.65373786920578],[22.707848886800008,65.65409588923359],[22.708167667919316,65.65516280030229],[22.70395736838894,65.65718222528555],[22.704222922053866,65.65807132571935],[22.700874081203175,65.66004681936775],[22.70001184828893,65.6600906492755],[22.699361950818343,65.66084576251573],[22.697743573459874,65.66128904628347],[22.693054035389732,65.66170778013498],[22.692463760609936,65.66119619933208],[22.69154843874067,65.66106215679265],[22.691396231154414,65.65908418865597],[22.693286568447807,65.65808560476606]],[[22.701980700674216,65.70331565114014],[22.703814476378223,65.70358357307082],[22.7037551945557,65.70485023883455],[22.700193898445757,65.70467001416857],[22.699981104113686,65.7039587314837],[22.701980700674216,65.70331565114014]],[[22.698318369184445,65.72624718360252],[22.69859086277509,65.72569180053382],[22.699455284597903,65.72564795637243],[22.701071460605757,65.7266490998683],[22.701444304864133,65.72789383735993],[22.700147564422164,65.72795961980364],[22.698318369184445,65.72624718360252]],[[22.69867491402436,65.68200152953217],[22.699537878433564,65.68195769973592],[22.700075645969633,65.68229142545106],[22.69867491402436,65.68200152953217]],[[22.699715315993316,65.72798154484558],[22.69928306675713,65.72800346866781],[22.699229815457215,65.7278256482012],[22.699715315993316,65.72798154484558]],[[22.69364291481641,65.709154351741],[22.696287728358598,65.70920072765381],[22.697796320589777,65.70984627375834],[22.69816871604116,65.71109102362985],[22.69557689143898,65.71122250482645],[22.693742647790806,65.71095448828102],[22.692719211838664,65.71046482438926],[22.692506565534153,65.70975352970567],[22.69364291481641,65.709154351741]],[[22.69710834554317,65.68262264192992],[22.697161470478736,65.68280046434701],[22.69672997222754,65.6828223732733],[22.69710834554317,65.68262264192992]],[[22.696457835362196,65.68337774915801],[22.69688934313611,65.68335584090732],[22.696942468379138,65.68353366339909],[22.696457835362196,65.68337774915801]],[[22.695701051253696,65.68377720804797],[22.69613256644834,65.68375530187062],[22.69623880932591,65.68411094744386],[22.695701051253696,65.68377720804797]],[[22.69623880932591,65.68411094744386],[22.69672345507991,65.68426686225476],[22.69629193196981,65.68428877019083],[22.69623880932591,65.68411094744386]],[[22.696079446214625,65.68357747904429],[22.69651095769889,65.68355557183031],[22.696564080838986,65.68373339447608],[22.696079446214625,65.68357747904429]],[[22.694731796227057,65.68346536998911],[22.694950860778768,65.68273217348757],[22.69586697331326,65.68286618747447],[22.694731796227057,65.68346536998911]]],[[[22.701961055873078,65.68273720623337],[22.702286226959334,65.68235964204744],[22.701423254766457,65.68240348753197],[22.701961055873078,65.68273720623337]]]]}}]}