{"type":"FeatureCollection","properties":{"source":"SMHI SE.SR Ytansamling av alger","date":"2007-08-06","note":"Test: SMHI WFS clipped to Lulea municipal sea area and simplified 20 m."},"features":[{"type":"Feature","properties":{"cyano_daymap_file_id":3094,"date":"2007-08-06Z","cloud":null,"sub_surfac":null,"surface":null,"no_data":null,"class":1,"color_hex":null,"algae_class":"class_1","source_date":"2007-08-06"},"geometry":{"type":"MultiPolygon","coordinates":[[[[22.599656949999996,65.47941915],[22.579048168887603,65.48045711096538],[22.578642924445887,65.48067186628232],[22.579278361178297,65.48136183860949],[22.578607701880884,65.48171722550974],[22.583438050000005,65.49828475],[22.56201684,65.49936068],[22.566941350331987,65.51627306318456],[22.57199258894726,65.51601959951122],[22.571888862413207,65.51566384262102],[22.57365553493681,65.51575563470358],[22.573980481748357,65.51537835491396],[22.574889751033403,65.51551318001945],[22.575097287514385,65.51622468875591],[22.57595470018495,65.51618163001756],[22.57718891371191,65.51593915658984],[22.578267386122107,65.51516304589694],[22.57960535593324,65.51527630495008],[22.579930210228675,65.5148990133231],[22.581268172762098,65.51501225773464],[22.582021673860726,65.51461341596556],[22.58330769168429,65.51454876816923],[22.583632483428275,65.51417146923052],[22.58658116020535,65.5138427037017],[22.587793224425894,65.51320096546421],[22.58603399,65.50717843],[22.628884859999996,65.50501664],[22.63411127,65.52280202],[22.612672490000005,65.52388531],[22.62268628037971,65.55796674280023],[22.622937162774967,65.55767517443113],[22.625083856714706,65.55756680764905],[22.62518851033567,65.55792251849454],[22.623952798438843,65.55816539917792],[22.625020800826178,65.55883347217559],[22.624905411574595,65.55992228125821],[22.623425779049338,65.56048358939468],[22.625737039999994,65.56834985],[22.668684469999995,65.56617579],[22.66817275902844,65.56444653313011],[22.666585878629654,65.56232495293301],[22.665621581839275,65.56201287884244],[22.66589326550425,65.56145756349636],[22.663272293042414,65.55996599652588],[22.66005550570817,65.5594071534818],[22.65995036916842,65.55905147175696],[22.657592722270106,65.5584490056636],[22.656485691272522,65.55776889006313],[22.644587709999996,65.55837199999999],[22.64313478833185,65.55344461032627],[22.642548209480957,65.55325449235829],[22.642879349885153,65.55257832497026],[22.64196564,65.54947960000001],[22.64960012025146,65.54909263799684],[22.649341887940245,65.54821739335611],[22.65009557579796,65.54781819756204],[22.649403923685988,65.54695072292209],[22.649413493993812,65.5455062069085],[22.64731956394824,65.5457927942211],[22.646680504282052,65.5451031521318],[22.644534144927757,65.54521185399335],[22.643570751293197,65.54489963021416],[22.642764626403928,65.54512094533622],[22.640408963751923,65.5445181783705],[22.640251770558113,65.54398463011334],[22.63736290634759,65.54304780637985],[22.636891567002728,65.54144714917943],[22.63947589002907,65.5398723722487],[22.641569280455858,65.53958590550043],[22.642270449127015,65.53900890096841],[22.647368048875727,65.53857020851919],[22.647692342193682,65.53819277074675],[22.64940895667181,65.53810578073768],[22.649733214733264,65.53772833895552],[22.653438080320292,65.53699900076019],[22.654401290339898,65.53731116358657],[22.654611203871255,65.53802253824634],[22.65552197926247,65.53815684984954],[22.655836912443533,65.53922390875718],[22.653576772669986,65.54042156105973],[22.65416340658655,65.54093332967105],[22.65330501748344,65.54097685493089],[22.65303325137649,65.54153214842913],[22.652174840296762,65.5415756675036],[22.65200798898487,65.54248664852028],[22.652918909570552,65.54262097430292],[22.653505582900205,65.54313274506784],[22.656667696171567,65.54351390695206],[22.65725446358887,65.54402566221309],[22.658542184596204,65.5439603374653],[22.658699751686267,65.54449386284422],[22.660574345119368,65.54494026710178],[22.66174812317902,65.54596374254932],[22.66269237823635,65.54591581311193],[22.660796720000004,65.53949994],[22.70369312,65.53731648],[22.714271569999994,65.57288055999999],[22.75721748,65.57068141],[22.754555499999995,65.56179138999998],[22.751529191821785,65.56194656880625],[22.751283308692965,65.56269534847598],[22.74999494435834,65.56276146920166],[22.748166727438374,65.56393846906487],[22.746878292117007,65.56400456400551],[22.74671467073894,65.564915615161],[22.744190844268307,65.5652255759239],[22.744403479785937,65.56593679722023],[22.740161431784188,65.56633477546225],[22.739519394327516,65.56564555696242],[22.740595399404242,65.56486829617434],[22.74349557935243,65.56435856964121],[22.743818762921723,65.56398093763028],[22.74639564274279,65.56384878876658],[22.747095075829957,65.56327131699281],[22.74881293877694,65.56318318603846],[22.7481707570159,65.56249400575997],[22.749348581624233,65.56205838309198],[22.733090739999998,65.56289203],[22.73043794,65.55400149],[22.73253962238252,65.55389373190955],[22.7370420418335,65.55151070437127],[22.737635215277507,65.55057766006924],[22.73951610036555,65.54957859967678],[22.740750750358966,65.54933476740372],[22.74102070502074,65.54877933561647],[22.743649212822092,65.54882505588428],[22.745259890411827,65.5483813632256],[22.74408275078892,65.54735857136998],[22.744941165972055,65.54731453080913],[22.745047404255267,65.54767014172108],[22.74719345693339,65.54756001735178],[22.74875085091815,65.54693848456289],[22.750115907666636,65.54694899761121],[22.749237550000004,65.54401115],[22.77068596,65.5429084],[22.768022819999995,65.53401863],[22.78739768537296,65.53301974029202],[22.787177258124515,65.53268400585463],[22.78631941038498,65.53272828006791],[22.78578376391529,65.53239483832087],[22.78610798561419,65.53057268406153],[22.788301286881477,65.52904626889514],[22.78679374,65.52402393],[22.799546945817173,65.52336462176346],[22.800482188942134,65.52188609700582],[22.801768381561427,65.5218195694657],[22.801608057295823,65.52128622332395],[22.80235860755773,65.52088630318259],[22.806163528965836,65.520508861662],[22.806752652332914,65.52102001104953],[22.807534658082858,65.5206246854793],[22.80555035,65.51402705],[22.826971259999997,65.51291660999999],[22.83501914,65.53958202],[22.813576759999997,65.54069383],[22.816256259999992,65.54958262999999],[22.837705809999996,65.54847036],[22.840394489999998,65.55735862999998],[22.818937769999994,65.55847134999999],[22.824306849999996,65.5762486],[22.80283374,65.57735921],[22.80551412,65.58624818999999],[22.78403179,65.58735624],[22.78938421,65.6051349],[22.72488193,65.60844359],[22.72753953,65.61733419],[22.68451354,65.61952574],[22.68715869,65.62841716],[22.66563548,65.62950884],[22.676207090000002,65.66507568],[22.71930945,65.6628857],[22.720591964496588,65.6671668043769],[22.721375785294953,65.66712686172636],[22.720596819688794,65.66718301127723],[22.72331107111203,65.67624333276207],[22.72500873747063,65.67632910880882],[22.72511533977419,65.67668473045872],[22.726516061783286,65.6769743827023],[22.72678263326451,65.67786343337792],[22.72527031015484,65.67866263659346],[22.72397098855854,65.678446173725],[22.724636269999998,65.68066691999998],[22.76775959,65.67846297000001],[22.77044055,65.68735257],[22.748872639999995,65.68845651999999],[22.75178842701977,65.69814043656024],[22.8019485963681,65.6980889054477],[22.834625625970205,65.691171722962],[23.0439526591749,65.41743683403658],[23.089857081451846,65.35453165596549],[23.082443769999998,65.35493167],[23.079698379999996,65.34604841000001],[23.037152429999995,65.34833468],[23.034423150000002,65.33945042000002],[23.01315415,65.3405886],[23.010433929999998,65.33170380999998],[22.96790392,65.33397028999998],[22.965199789999996,65.32508450999998],[22.943938780000003,65.32621281],[22.94124369,65.31732648999999],[22.89872972,65.31957322],[22.893373649999997,65.30179855999998],[22.85087979,65.30403152],[22.848218789999994,65.29514317999998],[22.826975900000004,65.29625472999999],[22.824323889999995,65.28736586999999],[22.80308605,65.28847399000001],[22.800443029999997,65.27958460999999],[22.77921023,65.28068928999998],[22.7765762,65.27179939],[22.755348449999996,65.27290064],[22.750100270000004,65.25511975000002],[22.728884580000003,65.25621713],[22.72627041,65.24732613999998],[22.70505978,65.24842009],[22.702454560000003,65.23952859],[22.66004149,65.24170667000001],[22.654864819999993,65.22392170999998],[22.633669379999994,65.22500539999997],[22.625939750000004,65.19832614],[22.583585049999996,65.20048196],[22.581026279999993,65.19158786999998],[22.496322019999997,65.19586205],[22.49885286,65.20475788],[22.477665099999996,65.20581942],[22.480190820000004,65.21471561],[22.458994189999995,65.2157746],[22.469087859999995,65.25136047],[22.44786132,65.25241819999998],[22.452905389999998,65.27021162999999],[22.43166291,65.27126723],[22.436700430000002,65.28906127],[22.45795698,65.2880048],[22.460485599999995,65.2969013],[22.4817473,65.29584142],[22.47414598,65.26915304],[22.49538469,65.26809146],[22.49284766,65.25919564],[22.51407745,65.25813150999998],[22.5115353,65.24923606],[22.53275618,65.24816938],[22.527663529999998,65.23037915999998],[22.54886851,65.22931037],[22.546318019999994,65.2204156],[22.567514099999997,65.21934426],[22.57007158,65.22823859000002],[22.59127276,65.22716384],[22.593839139999996,65.23605767],[22.615045410000004,65.2349795],[22.622777049999993,65.26165929999999],[22.64400242,65.26057683],[22.64918048,65.27836216],[22.69165349,65.27618650999999],[22.70208904,65.31175285],[22.680825379999998,65.31284394],[22.678220619999998,65.30395201],[22.61443913,65.30720604],[22.617022779999996,65.31609928999998],[22.595751379999996,65.31717842999998],[22.59317478,65.30828473],[22.57190851,65.30936043999998],[22.574478059999997,65.31825457999999],[22.531925669999996,65.32039789],[22.53448303,65.32929284],[22.42803344,65.33460091],[22.43055737,65.34349795],[22.38795016,65.34560107],[22.390461819999995,65.35449891],[22.36914832,65.3555464],[22.376673289999996,65.38224084999999],[22.38234665161422,65.38196196025002],[22.382407589220293,65.38143181032304],[22.38524360614044,65.38075117753596],[22.387401353773896,65.37920168517034],[22.38910796698634,65.37911777481054],[22.390663638270134,65.37849997845096],[22.39194355568891,65.37843702019681],[22.39226955444673,65.37806012177194],[22.396756338804696,65.37676770523846],[22.395490769999995,65.37229442],[22.40678320286268,65.37173770938234],[22.408523375581733,65.37130524487515],[22.407895234196367,65.37061448252841],[22.410178970629158,65.3710431532725],[22.41168323240481,65.37024720188839],[22.41047729329762,65.36904364960161],[22.410752492498133,65.36848876716553],[22.411554980993582,65.36826873864148],[22.412082294883398,65.36860359095832],[22.41230702484313,65.3678707588423],[22.413485485356098,65.36745172922753],[22.413357124122513,65.36547326863808],[22.412779432018276,65.36496047326987],[22.410120204134028,65.36473082240792],[22.41082175951596,65.36415490273008],[22.411674534232024,65.36411282268084],[22.41109690616608,65.36360002020066],[22.41244946667485,65.36227022260009],[22.4123486309264,65.36191432810391],[22.411495928778628,65.36195641123119],[22.41069362977319,65.36217643750555],[22.41079444434897,65.36253233332685],[22.409515355436596,65.36259544336184],[22.409790515438363,65.3620405630843],[22.411395107385143,65.36160051594945],[22.410666331767416,65.36055386790336],[22.412371645349726,65.36046970714582],[22.412472474706888,65.36082560169197],[22.417212534216077,65.36077200217169],[22.417111640990555,65.36041611145545],[22.415782236331907,65.36030132802928],[22.418716007788444,65.35997598856999],[22.42149828243396,65.35911676188816],[22.424908627285777,65.35894817845694],[22.428391581201666,65.35751284470467],[22.429771417480538,65.35780545803051],[22.430096628985332,65.35742848581818],[22.43094914834543,65.35738629917638],[22.431447916732207,65.3560985305655],[22.43315286101462,65.35601413810937],[22.432704722110657,65.35747985064833],[22.43473489054808,65.35701846158535],[22.436064201041024,65.35713307854796],[22.436165335349372,65.35748895407187],[22.437870351395013,65.3574045074264],[22.437993124669028,65.35631577106723],[22.439322411917967,65.35643035948425],[22.43957535534327,65.35732004158564],[22.441179144888302,65.35687968516282],[22.441402978431928,65.35614681886807],[22.4399219281756,65.35549844009361],[22.439842270118728,65.35369795783497],[22.438188074860708,65.35396036129508],[22.438310827239142,65.35287162489448],[22.436302758082018,65.35188844705972],[22.434742799147866,65.34943952545223],[22.43331282623815,65.34896901460608],[22.433962933525223,65.34821505741637],[22.43604291632454,65.34793159690477],[22.437472879030793,65.34840208190414],[22.438700633243712,65.34816080526295],[22.439278436831387,65.34867349995912],[22.442362364638544,65.34888152539843],[22.44316398831399,65.34866133725876],[22.443265179195958,65.34901720742512],[22.448935439706577,65.35072084773614],[22.449787705213016,65.35067855697396],[22.453551423143303,65.35175486227786],[22.454403713147368,65.35171254511351],[22.45540805382211,65.35220401341721],[22.4571633500659,65.35229728237806],[22.461404489013436,65.3535301462407],[22.465493743582293,65.35422910888393],[22.472171357822656,65.35642323656558],[22.473754881984544,65.35742713423052],[22.4837230711574,65.36053971876365],[22.486039049766745,65.36258974287412],[22.48629364472657,65.36347932920626],[22.485046640616165,65.36516558670527],[22.482743139837645,65.36618264947998],[22.480611375277018,65.36628884541854],[22.480509598711187,65.36593300645745],[22.47631641011461,65.36487863236191],[22.475209490672537,65.36403146937495],[22.474650217217803,65.36207432904092],[22.469026643856367,65.36054962466822],[22.464337593603094,65.36078277991295],[22.46353578995639,65.36100308272886],[22.46363731385797,65.36135893575306],[22.459800659729733,65.3615495742339],[22.45819691365721,65.36199012867333],[22.457922783341637,65.3625450867367],[22.45659311314398,65.36243066658167],[22.456694549803604,65.36278652518567],[22.454238013517088,65.36326937272254],[22.455314162574275,65.36249416442381],[22.45217785376022,65.36210849078475],[22.451447447476664,65.36106205715896],[22.45001653858769,65.36059171472552],[22.44885998723483,65.35956641530449],[22.450088147626655,65.35932504154975],[22.450615758833234,65.35965975577454],[22.45146831060187,65.35961745254883],[22.451814077047743,65.35779583197493],[22.453316315077544,65.35699948548542],[22.45534606790535,65.35653782262858],[22.45604640956497,65.35596170474302],[22.454565016721066,65.35531347364211],[22.454362273766016,65.35460175216342],[22.450547452686234,65.35334753974917],[22.447138032701364,65.35351669472213],[22.4455851725258,65.35413504552008],[22.446091448312075,65.35591438423529],[22.445542773857166,65.35702425998409],[22.444740919527675,65.35724446317117],[22.44512473272264,65.36011254381792],[22.44628116511071,65.36113787316746],[22.446635697368723,65.3623834073874],[22.445833691388557,65.36260361795674],[22.445609937554533,65.36333649002756],[22.44611642941064,65.3651158264592],[22.444989254508677,65.3657130389194],[22.444136492570536,65.36575530759477],[22.44423777622439,65.36611117616073],[22.445567586473945,65.36622570404025],[22.444288419187224,65.36628911040657],[22.441332889702366,65.36805956076256],[22.440357348295713,65.36919054718388],[22.440885043213456,65.36952529466828],[22.438803417764632,65.36980883897958],[22.43890074771419,65.37015097398249],[22.50210086,65.36700768],[22.507208289999994,65.38479861999998],[22.48587588,65.38586284],[22.490976759999995,65.40365439999998],[22.500896160901423,65.40315947084471],[22.501032318272188,65.4028059705083],[22.502261976510496,65.402564155529],[22.502159736432684,65.40220833597193],[22.50344048338959,65.40214442148441],[22.50234900872084,65.39985290247168],[22.50347627309531,65.39925525967205],[22.50593518930687,65.39877158391735],[22.50610635774027,65.39786072906008],[22.510982831074866,65.39792858419962],[22.509764870000005,65.393694],[22.552438130000002,65.39155569],[22.557585440000004,65.4093445],[22.53623557,65.41041603],[22.53880501,65.41931078],[22.5174461,65.42037974999998],[22.527714629999988,65.45595986999999],[22.50632529,65.45702757],[22.508890100000002,65.46592288000001],[22.530286579999995,65.46485473999999],[22.53286046,65.47374955],[22.597059699999996,65.47052573],[22.599656949999996,65.47941915]],[[22.701604206188144,65.53028031991951],[22.697767495001784,65.52932887868215],[22.6970732887969,65.52862815870476],[22.679613439999994,65.52951807999999],[22.674249067640872,65.51135769072724],[22.671175094855574,65.51154918883631],[22.671070039430905,65.51119351414702],[22.66844538696831,65.51114649330277],[22.669197737668593,65.51074721634411],[22.66866403567396,65.51041334019392],[22.666039463738823,65.51036627673655],[22.66764917332322,65.50992342065695],[22.66749167520289,65.50938990404666],[22.666048219910607,65.50892176857795],[22.666380640054477,65.50709978923084],[22.665042283257154,65.50698732165051],[22.664884859728218,65.5064538015643],[22.666389387118315,65.50565528118855],[22.66847989180123,65.50536846557627],[22.669984246189838,65.5045699112163],[22.67126998443627,65.50450449870033],[22.67057886975105,65.5036371156339],[22.671675059807864,65.50264371990099],[22.669373284835398,65.49485135823785],[22.667797199419212,65.49421167792698],[22.66727260421051,65.49243328522205],[22.667762161636567,65.49114482359957],[22.668275568085882,65.49113518006303],[22.666480709999995,65.48505892],[22.69038449978966,65.483839270568],[22.692853070869294,65.48336759678345],[22.692836666340213,65.48371415302108],[22.70928726,65.48287479],[22.707718589930053,65.47757953503927],[22.706206389781077,65.47708912661605],[22.70599566412286,65.47637783260366],[22.704335996521518,65.47664324433332],[22.70417799247335,65.47610977147527],[22.70321651028753,65.47579790783993],[22.70380934402076,65.47486500055211],[22.702953222469052,65.47490878382806],[22.702367205863034,65.47439719839754],[22.703170656186682,65.47417559382657],[22.70306534720041,65.47381994418564],[22.703921432909286,65.4737761606496],[22.70381611566339,65.47342051162029],[22.705422917829104,65.47297728381777],[22.705692936891563,65.47242191492698],[22.70628478318815,65.4727395292227],[22.704019409999994,65.46509245999998],[22.72540545,65.46399678],[22.72761395128122,65.4714341709654],[22.728376785891538,65.47125964179347],[22.727792153835214,65.47203428927928],[22.728693716707493,65.4723265268903],[22.728848128798923,65.47284628930879],[22.732651325407428,65.47248443874517],[22.73329588522485,65.47172924003296],[22.73319017883773,65.47137361562352],[22.732281384678465,65.47123975107195],[22.732925926745228,65.47048455413658],[22.734584896425268,65.47021883551203],[22.735282209802783,65.46964144110731],[22.737316161651005,65.46917590080314],[22.73796050937661,65.46842068443456],[22.73924426587373,65.46835471442478],[22.739455816838092,65.46906595321126],[22.737849851694936,65.4695095343685],[22.738061376051583,65.47022077539863],[22.737041904935484,65.47117578974029],[22.73929299214637,65.47230959772929],[22.74943671,65.47178838],[22.750076811653802,65.47393564760426],[22.751742971808344,65.47384990571169],[22.75200790416267,65.47473892709519],[22.75355692277448,65.47556185280729],[22.751946715164287,65.47745004817638],[22.752961825218158,65.47793939857162],[22.75601125186062,65.4779629460582],[22.756117300548954,65.47831855088923],[22.755314191946766,65.47854043358254],[22.75637859367403,65.48065202262265],[22.75573450346559,65.48140731498458],[22.755620692656237,65.48394063097795],[22.75427925088453,65.48527340600073],[22.753502465521024,65.48542725292793],[22.75473706,65.48956879],[22.776140529999996,65.48846573],[22.776801324122026,65.48934815537966],[22.777657768209924,65.48930394994787],[22.778405211463355,65.49034860191985],[22.77690335728167,65.49101478163102],[22.778800839999995,65.49735538],[22.714563019999996,65.50065686],[22.717203869999995,65.50954779999999],[22.73862562,65.50844987],[22.746581579999994,65.53512092999999],[22.70369312,65.53731648],[22.701604206188144,65.53028031991951]],[[22.721429038361237,65.66730467431],[22.721913510059544,65.6674605105264],[22.721482292232373,65.66748248686706],[22.721429038361237,65.66730467431]],[[22.72335075,65.31065876],[22.725971539999996,65.31954974],[22.704702789999995,65.32064426999999],[22.70208904,65.31175285],[22.72335075,65.31065876]],[[22.500554280448892,65.40264935941362],[22.500981205612177,65.40262806024516],[22.501032318272188,65.4028059705083],[22.500554280448892,65.40264935941362]],[[22.54669041406567,65.47234936283895],[22.549531691673007,65.47166558348182],[22.549634903705833,65.47202136088023],[22.548505673570588,65.47261936934348],[22.546417154730893,65.47290447281947],[22.54669041406567,65.47234936283895]],[[22.59187105,65.45273869],[22.594278257644824,65.45261712829881],[22.596654499943877,65.45160879237743],[22.5968746127733,65.45087573514489],[22.59853318204168,65.45061154193648],[22.600671222090483,65.45050361044447],[22.601254545964924,65.45101562421],[22.602537383980508,65.45095084566746],[22.602317430060314,65.45168390951243],[22.60327652094192,65.45199645282787],[22.602469091902197,65.45220349894339],[22.607149074858462,65.45196716424626],[22.60467543176957,65.45084285735345],[22.604467717825973,65.45013139138959],[22.606605689128372,65.45002337651597],[22.607564767525027,65.45033589269875],[22.61007836708967,65.45002835435479],[22.61044213955943,65.45127340325081],[22.613024682703788,65.45087878537936],[22.610654099999998,65.44276577],[22.632026619999998,65.44168345],[22.63723989,65.45946885],[22.65862471,65.45838264],[22.66124141,65.4672748],[22.68263139,65.46618514],[22.685257199999995,65.47507677999998],[22.62105995,65.47833808],[22.620178880375413,65.47532956954264],[22.619437643078747,65.47608753893078],[22.615950039183844,65.47752733840974],[22.6082973499982,65.47809447402798],[22.606753151191274,65.47726999069985],[22.60784112271699,65.47504916420519],[22.609721002819423,65.47405176192159],[22.61400078103923,65.47383551316695],[22.613896685494428,65.4734797890596],[22.61518058659251,65.47341489199788],[22.617540083157298,65.472573623193],[22.618500133221662,65.47288605983447],[22.61942996646029,65.47277231948833],[22.618455559999997,65.4694451],[22.597059699999996,65.47052573],[22.59187105,65.45273869]],[[22.786689879303417,65.6686586242591],[22.76508066,65.6695733],[22.763318668036707,65.66371965755],[22.762393762457155,65.66376705619584],[22.76206969421102,65.66414473745402],[22.760939868285643,65.66329993532824],[22.76013115894146,65.66352190249789],[22.758894426480246,65.6623214913102],[22.760190746598834,65.66081078879142],[22.76231699801132,65.66039193625294],[22.760695946600357,65.65500652272638],[22.760416918401003,65.65574415426295],[22.75852938912049,65.65674354451339],[22.75901387546092,65.65689926219076],[22.7587433217749,65.657454732967],[22.75863635383183,65.65709913879375],[22.75777433683271,65.65714329446392],[22.75815186587497,65.65694341992793],[22.75745348716912,65.65607650912055],[22.76053574439194,65.65447430324562],[22.75972888,65.65179376],[22.802800619999996,65.64958038],[22.807984180763732,65.6667000315607],[22.809864529197505,65.66584076832406],[22.81363663573441,65.66528514303488],[22.815845878818337,65.66390729704489],[22.817516216666178,65.66364054728035],[22.818486145588547,65.66395159459672],[22.81875570741408,65.66484045198926],[22.81789355694598,65.6648849503841],[22.81762420127364,65.66544051351683],[22.81643874146469,65.66586279479868],[22.816600448378743,65.66639611179808],[22.81751656147536,65.66652939210798],[22.817139364948247,65.66672941076871],[22.817786122349457,65.66741825126365],[22.816007838824675,65.66877388473726],[22.813582636096182,65.66944064342105],[22.812181401867544,65.66915179951486],[22.812073643221897,65.66879625124106],[22.80910945241831,65.66912962227377],[22.809809927480618,65.66999627363087],[22.809045820752054,65.67020629058058],[22.810874809999994,65.67624685999999],[22.78931822,65.67735644],[22.786689879303417,65.6686586242591]],[[22.75901075577227,65.65834371793115],[22.756581742818167,65.66045402897103],[22.75571961015199,65.66049817416824],[22.755238398299824,65.65889798868284],[22.756100478787424,65.6588538467562],[22.755509040840742,65.65834252322851],[22.756588244232006,65.65756511484518],[22.7587433217749,65.657454732967],[22.75901075577227,65.65834371793115]],[[22.827739653616135,65.63386240724091],[22.827632489883403,65.6349512875515],[22.825425748094528,65.63488485485897],[22.825801902000737,65.63324040299995],[22.827093526595448,65.6331736029147],[22.827739653616135,65.63386240724091]],[[22.822572294375163,65.6312407254844],[22.820796391533957,65.63115196604971],[22.82047334141655,65.63008533756802],[22.82128048711853,65.62986306547191],[22.821495596248415,65.62912972924843],[22.822787029854346,65.62906296782369],[22.825800860003202,65.63035156682396],[22.825908614355193,65.6307071052041],[22.825101484014965,65.63092940176946],[22.825855258895658,65.63197375409239],[22.823702640189822,65.63208506295804],[22.82354104482849,65.63155175262197],[22.822411059204832,65.63215183371675],[22.822572294375163,65.6312407254844]],[[22.815522742275878,65.62673006355358],[22.81627602771109,65.62633004506503],[22.816060829566652,65.62561895136106],[22.817298299367923,65.62537446490997],[22.817621104491078,65.62499667922545],[22.819826989357836,65.62506323436784],[22.821441226396693,65.62606311675711],[22.824938486508973,65.62606283720524],[22.825046207627516,65.62641837652258],[22.82230239004168,65.62746303193016],[22.82246392933398,65.62799634413891],[22.820795922075543,65.62826312396764],[22.820580580953948,65.62755203814937],[22.81799784293907,65.62768551108319],[22.81826684732955,65.62712995123476],[22.815522742275878,65.62673006355358]],[[22.821442579518827,65.63328522008311],[22.822572635869715,65.63268514545587],[22.82321863084198,65.6333739704073],[22.822895811144196,65.63375176820132],[22.821442579518827,65.63328522008311]],[[22.822519119009293,65.63395179488698],[22.82208856067031,65.63397404999658],[22.822034701060833,65.63379627926791],[22.822519119009293,65.63395179488698]],[[22.822034385768553,65.63235185899939],[22.8220882417666,65.63252962976212],[22.8216577065512,65.63255188340749],[22.822034385768553,65.63235185899939]],[[22.819511181685826,65.67021809147666],[22.819834474033037,65.66984029577824],[22.82199024585568,65.66972900894913],[22.821398075595983,65.67210679846947],[22.81897270970265,65.67277364494852],[22.816762748334174,65.67270711967096],[22.816493156310298,65.67181825895595],[22.81546904116039,65.67132942910771],[22.819511181685826,65.67021809147666]],[[22.818966404684325,65.62799656938483],[22.8190202288139,65.6281743415576],[22.81858976259136,65.62819658577554],[22.818966404684325,65.62799656938483]],[[22.81159354835869,65.63397448312652],[22.810140501026282,65.63350782482661],[22.80540610668562,65.62941888866114],[22.805299273373045,65.62761890271508],[22.80793632211872,65.62621899363192],[22.809281405944365,65.62633012508927],[22.809442669531457,65.62686345401805],[22.81164869987672,65.62693012659865],[22.81224047760689,65.62744122753914],[22.81369321458144,65.62790786891782],[22.814554146751348,65.62786340705654],[22.814338848835526,65.62859673538512],[22.815630278108422,65.62853003493984],[22.815145921133787,65.62981892017874],[22.81433872215484,65.63004116018533],[22.81444631811388,65.63039670835066],[22.815845453061446,65.63068555302006],[22.81563017323509,65.63141888302202],[22.81654503337483,65.63155218214192],[22.816975587642297,65.6329743663502],[22.816383585011888,65.63390770974857],[22.817083276806326,65.6347743352668],[22.815468595623237,65.63521883458249],[22.813800189174952,65.6340411180707],[22.81159354835869,65.63397448312652]],[[22.813993640177465,65.50313168118892],[22.81351175283059,65.50297611209542],[22.813940160945588,65.5029539039303],[22.813993640177465,65.50313168118892]],[[22.814154647924592,65.50222058598246],[22.815011437265266,65.50217616507676],[22.814796974764494,65.50290948398141],[22.813940160945588,65.5029539039303],[22.814154647924592,65.50222058598246]],[[22.80814424936664,65.65004095296995],[22.81035225679521,65.65010762389177],[22.810513720412505,65.65064094977693],[22.808682336987086,65.65181871438648],[22.805342943479445,65.65235198782278],[22.80814424936664,65.65004095296995]],[[22.80818907311906,65.68921827806992],[22.808296880756757,65.6895738286923],[22.807433885813527,65.68961827645273],[22.80818907311906,65.68921827806992]],[[22.8050267973564,65.63539659322001],[22.803734993937777,65.6354632072792],[22.80341257972161,65.6343965358203],[22.804166271633445,65.63399657321398],[22.805027425216743,65.63395216312233],[22.805726741448225,65.63481884491051],[22.8050267973564,65.63539659322001]],[[22.80539896178528,65.64675204660958],[22.804698703801648,65.64732979675986],[22.803837105847645,65.64737420960726],[22.802867980750808,65.64706306046801],[22.802706700999302,65.64652972457158],[22.80442984227062,65.6464409073884],[22.80539896178528,65.64675204660958]],[[22.804683240887158,65.68921826016386],[22.804305622466842,65.6894182513686],[22.805006529262215,65.69028492065564],[22.80425126153053,65.69068490405851],[22.801608269011076,65.69064038713051],[22.80144668843259,65.69010705269584],[22.80225584764523,65.68988486080634],[22.802525758362396,65.68932931902305],[22.804683240887158,65.68921826016386]],[[22.80238342688466,65.64690748348818],[22.80243718471917,65.64708526227595],[22.802006387875238,65.64710746286953],[22.80238342688466,65.64690748348818]],[[22.793782298370672,65.63001802316269],[22.796687475388353,65.63095164867967],[22.79652532915137,65.6318627387959],[22.79415667032355,65.63270693884878],[22.792811310429393,65.63259567611705],[22.792219787551435,65.63208449670897],[22.792544375835906,65.63026232244505],[22.793782298370672,65.63001802316269]],[[22.788918144895295,65.4746399998396],[22.78806220369119,65.47468426380134],[22.788008970834444,65.4745064748457],[22.78881166856915,65.4742844226261],[22.788918144895295,65.4746399998396]],[[22.78482868531738,65.49001687307414],[22.783972232532452,65.49006111926109],[22.78391898966309,65.48988332893278],[22.784722188951363,65.48966129311543],[22.78482868531738,65.49001687307414]],[[22.76626459858135,65.46281127353065],[22.76583679860335,65.46283334009189],[22.765730693714147,65.4624777427523],[22.76626459858135,65.46281127353065]],[[22.754375869129827,65.46956213479176],[22.754644810116208,65.46900668986099],[22.756356454344928,65.46891853855139],[22.75742431589046,65.46958566405148],[22.758280152867354,65.46954157490637],[22.75758335739359,65.4701190700594],[22.757848442470667,65.4710080795402],[22.75913226520524,65.47094193968492],[22.76100313820573,65.47138713792333],[22.761215310010986,65.47209833965599],[22.76110561757178,65.47318719644484],[22.75987472903665,65.47343115511126],[22.75939001857104,65.47471986288875],[22.757890122249236,65.47551925950695],[22.756231071881842,65.4757852351111],[22.755003948026665,65.47458469485449],[22.756022879849475,65.47362956488222],[22.754375869129827,65.46956213479176]],[[22.75964653962086,65.66336618974361],[22.759215428447753,65.66338827211752],[22.759161926098894,65.6632104753833],[22.75964653962086,65.66336618974361]],[[22.759322435570738,65.66374386550558],[22.75937594034489,65.66392166215937],[22.75894481966366,65.66394374386311],[22.759322435570738,65.66374386550558]],[[22.756667872666483,65.64618725567495],[22.757582976970934,65.64632090784616],[22.75677475947839,65.64654285202552],[22.756667872666483,65.64618725567495]],[[22.75688164951839,65.64689844826898],[22.75601996761242,65.64694259051754],[22.755913089154866,65.64658699354759],[22.75677475947839,65.64654285202552],[22.75688164951839,65.64689844826898]],[[22.75742263301195,65.64578751428965],[22.757476080191214,65.6459653121686],[22.757045255734926,65.64598738542138],[22.75742263301195,65.64578751428965]],[[22.75630345098622,65.46874073602828],[22.755875543974742,65.46876277548238],[22.755822544263353,65.46858497275228],[22.75630345098622,65.46874073602828]],[[22.75454680483649,65.65514214757603],[22.7546002555286,65.65531994645094],[22.753738289352857,65.65536407868062],[22.75454680483649,65.65514214757603]],[[22.751974968999313,65.56500677796657],[22.752404459555684,65.56498473295247],[22.7524576726771,65.56516253485336],[22.751974968999313,65.56500677796657]],[[22.7524576726771,65.56516253485336],[22.754175638388308,65.56507434197222],[22.754282090040526,65.56542994424606],[22.752993599705206,65.56549609180801],[22.7524576726771,65.56516253485336]],[[22.753791735056733,65.655541877892],[22.753845181567954,65.65571967707666],[22.753414191472462,65.65574174173196],[22.753791735056733,65.655541877892]],[[22.748968512661552,65.56516105918183],[22.748539015693357,65.56518309451496],[22.748485829254985,65.56500529095919],[22.748968512661552,65.56516105918183]],[[22.74187515763075,65.56769118749864],[22.742681094132077,65.56746934648199],[22.742145255060898,65.56713575210239],[22.74289801964925,65.56673610397641],[22.746657391135898,65.56618227492896],[22.746493752915132,65.56709332604403],[22.745687861673247,65.56731518688386],[22.7457942085467,65.56767079622291],[22.74493512460534,65.56771484859708],[22.74552418466131,65.56822623736643],[22.744665081857796,65.56827028840488],[22.744607704792706,65.56953694845988],[22.74278308896014,65.56926942453406],[22.742623619681268,65.5687360067855],[22.74171134508441,65.56860223527114],[22.74187515763075,65.56769118749864]],[[22.74401794490116,65.46395713772935],[22.744070853133728,65.46413494555527],[22.74364300895753,65.46415694966778],[22.74401794490116,65.46395713772935]],[[22.742417037137443,65.46295629515956],[22.742522827766788,65.46331191218354],[22.743431392193934,65.46344571748465],[22.743268067310208,65.46435676073533],[22.741556668082993,65.46444476104223],[22.740489423612935,65.4637775168506],[22.741345105176897,65.46373352536445],[22.742417037137443,65.46295629515956]],[[22.740864378899822,65.46357771254401],[22.740436540572492,65.46359970750484],[22.74038365832515,65.46342189813262],[22.740864378899822,65.46357771254401]],[[22.732931647689796,65.64288813806553],[22.733522273387432,65.64339955777506],[22.732065381175893,65.64437661424137],[22.72991125269743,65.64448660766988],[22.73007579974498,65.64357556431317],[22.731314971071672,65.64333176201444],[22.73163924975439,65.6429541443539],[22.732931647689796,65.64288813806553]],[[22.714286899815153,65.63318837197154],[22.71557886500789,65.63312251791318],[22.71568512460593,65.63347814952941],[22.713962479596212,65.63356595395676],[22.71331935821835,65.63287663507819],[22.714127542472895,65.63265492272313],[22.714664432872564,65.6329886056239],[22.714286899815153,65.63318837197154]],[[22.708315166131246,65.65858522209648],[22.709177332116138,65.6585413457255],[22.708905687984416,65.65909673872649],[22.708043502992833,65.65914061374981],[22.708315166131246,65.65858522209648]],[[22.693286568447807,65.65808560476606],[22.692696376065435,65.65757402404282],[22.69140312378608,65.6576396964208],[22.6928092604038,65.65648518221083],[22.69232516799277,65.65632924931283],[22.69265017214468,65.65595170755029],[22.693618352157813,65.65626356977857],[22.696045543390095,65.65559870747455],[22.697769723673268,65.65551109073238],[22.69993135883214,65.65395705464759],[22.70424147329925,65.65373786920578],[22.707848886800008,65.65409588923359],[22.708167667919316,65.65516280030229],[22.70395736838894,65.65718222528555],[22.704222922053866,65.65807132571935],[22.700874081203175,65.66004681936775],[22.70001184828893,65.6600906492755],[22.699361950818343,65.66084576251573],[22.697743573459874,65.66128904628347],[22.693054035389732,65.66170778013498],[22.692463760609936,65.66119619933208],[22.69154843874067,65.66106215679265],[22.691396231154414,65.65908418865597],[22.693286568447807,65.65808560476606]],[[22.688459763664195,65.46409638434221],[22.687063290640985,65.46525075631112],[22.685832044015044,65.46549411485923],[22.684721508826,65.46320413065075],[22.686057683419097,65.46331644667835],[22.685524775841543,65.4629826219334],[22.68638054264323,65.46293894120049],[22.688459763664195,65.46409638434221]],[[22.63974817537619,65.47866891796764],[22.639100724497375,65.47942374665459],[22.63824432350958,65.47946716588817],[22.63760723202885,65.47877746551102],[22.639163294853596,65.47815707561062],[22.63974817537619,65.47866891796764]],[[22.626916235510457,65.49863217375373],[22.627772967720908,65.49858882817921],[22.627929576622424,65.49912239522843],[22.627020629212517,65.49898788585614],[22.626916235510457,65.49863217375373]],[[22.62368700188573,65.50096145936196],[22.625400628785936,65.50087479829415],[22.624230718381906,65.49985098871903],[22.626801041571525,65.49972098179347],[22.626633641369285,65.50063193369105],[22.62577683991651,65.50067527352148],[22.62630963481315,65.50100931680763],[22.624648189349138,65.50127384520788],[22.622390733624957,65.50247096489356],[22.620624827341256,65.50237973444297],[22.620896769599437,65.50182450400169],[22.623362948470138,65.50133883664483],[22.62368700188573,65.50096145936196]],[[22.62602697920883,65.50300907628038],[22.62645541832789,65.50298740586628],[22.62650762215672,65.50316526201921],[22.62602697920883,65.50300907628038]],[[22.622484054792338,65.50427120289368],[22.62371725480093,65.5040283601475],[22.623612881739213,65.50367264553685],[22.626079180174557,65.50318693261089],[22.626235787777354,65.50372050144709],[22.624950431356513,65.5037855075809],[22.62425009486612,65.50436241023714],[22.62301688446042,65.50460525743925],[22.622484054792338,65.50427120289368]],[[22.608316052151586,65.44993694294968],[22.607888462564162,65.44995855314683],[22.60783651321815,65.44978068800579],[22.608316052151586,65.44993694294968]],[[22.599297083856378,65.44876810076425],[22.59881761903132,65.44861181638954],[22.59924519568084,65.44859023203401],[22.599297083856378,65.44876810076425]],[[22.599633336765244,65.44694624316242],[22.60177107229087,65.44683829924122],[22.602406237636405,65.44752817688563],[22.600100346645846,65.44854705971177],[22.59924519568084,65.44859023203401],[22.599633336765244,65.44694624316242]],[[22.600809811208684,65.47179429225687],[22.600381857114925,65.47181588495533],[22.600329906346325,65.47163801721929],[22.600809811208684,65.47179429225687]],[[22.600008996479296,65.446746788328],[22.599581450668406,65.44676837452842],[22.599529565349485,65.4465905058687],[22.600008996479296,65.446746788328]],[[22.588243455772563,65.46593034089014],[22.589047335051333,65.46570935229367],[22.589202917099936,65.46624296985837],[22.588243455772563,65.46593034089014]],[[22.57521467699256,65.51513589779125],[22.575487709036373,65.51458073796145],[22.576072053692837,65.51509283875605],[22.57521467699256,65.51513589779125]],[[22.57538394180513,65.51422498388932],[22.57581261542889,65.51420345465053],[22.575916388394564,65.51455920836963],[22.57538394180513,65.51422498388932]],[[22.54567963738178,65.47185857070352],[22.54482361680035,65.47190144349392],[22.544772043380053,65.47172355282508],[22.54567963738178,65.47185857070352]],[[22.514629610566544,65.37632062841669],[22.51638669554108,65.37641318785433],[22.516420610387026,65.37803566798422],[22.514594931849405,65.37920978115446],[22.51198459979437,65.37915985889735],[22.51307706548041,65.3769396722934],[22.514629610566544,65.37632062841669]],[[22.45476575912714,65.36360407101685],[22.45433942223343,65.36362523320132],[22.45428871749621,65.36344730297435],[22.45476575912714,65.36360407101685]],[[22.453212500255244,65.36422250464176],[22.452786151826235,65.36424366254462],[22.452684761235986,65.36388780083283],[22.453212500255244,65.36422250464176]],[[22.45118212147686,65.3646841451505],[22.450755763589182,65.36470529739881],[22.450705080571694,65.36452736574138],[22.45118212147686,65.3646841451505]],[[22.449852368192055,65.36456966629252],[22.449426010865622,65.36459081476808],[22.449375337109604,65.3644128825678],[22.449852368192055,65.36456966629252]],[[22.447771237158506,65.36485332953595],[22.44819760035012,65.3648321856879],[22.44824826711748,65.3650101183565],[22.447771237158506,65.36485332953595]],[[22.44739553430725,65.36505240519779],[22.447821901091142,65.36503126237714],[22.447872565781342,65.36520919519361],[22.44739553430725,65.36505240519779]],[[22.44701982578648,65.36525147998],[22.447446196162677,65.36523033818683],[22.447496858775622,65.3654082711511],[22.44701982578648,65.36525147998]],[[22.446644111596054,65.36545055388254],[22.44707048556459,65.36542941311686],[22.447121146100233,65.36560734622896],[22.446644111596054,65.36545055388254]],[[22.4462683917359,65.36564962690545],[22.446694769296812,65.36562848716726],[22.446745427755033,65.36580642042719],[22.4462683917359,65.36564962690545]],[[22.435566273413126,65.34777476543478],[22.435039098858542,65.34743999397655],[22.435465192385884,65.34741888896421],[22.435566273413126,65.34777476543478]],[[22.435790201489986,65.34704190652776],[22.436642373445178,65.34699969119623],[22.43631737717486,65.347376675342],[22.435465192385884,65.34741888896421],[22.435790201489986,65.34704190652776]],[[22.43305177430602,65.35565826007337],[22.432199315007548,65.35570045801187],[22.431997173318884,65.35498870026568],[22.432849609954662,65.35494650370488],[22.43305177430602,65.35565826007337]],[[22.431469893221266,65.354653917381],[22.431043678680528,65.354675012318],[22.4309931523228,65.35449707242591],[22.431469893221266,65.354653917381]],[[22.431144733661686,65.35503089202803],[22.430718512700164,65.35505198610977],[22.430667987664748,65.35487404609495],[22.431144733661686,65.35503089202803]],[[22.430819565036714,65.35540786606539],[22.430393337654223,65.35542895929188],[22.43034281394122,65.35525101915427],[22.430819565036714,65.35540786606539]],[[22.430595440058628,65.35614071959556],[22.430169200588885,65.35616181231107],[22.430118676687968,65.35598387210001],[22.430595440058628,65.35614071959556]],[[22.430494387345917,65.3557848394931],[22.430068153542283,65.35580593186427],[22.430017631151806,65.35562799160384],[22.430494387345917,65.3557848394931]],[[22.430270250656477,65.35651769265912],[22.429844004765197,65.35653878451926],[22.42979348218694,65.35636084418543],[22.430270250656477,65.35651769265912]],[[22.429945052187424,65.35689466511289],[22.429518799874426,65.35691575611767],[22.42946827861895,65.35673781566103],[22.429945052187424,65.35689466511289]],[[22.40976327391437,65.36041799274133],[22.40933694496236,65.36043902735872],[22.409286552010236,65.36026107882188],[22.40976327391437,65.36041799274133]],[[22.40891061525692,65.36046006077608],[22.40848428479807,65.36048109299338],[22.40843389751526,65.36030314411313],[22.40891061525692,65.36046006077608]],[[22.40714304584955,65.3710124417591],[22.406716542614774,65.3710334707325],[22.406666142818928,65.37085552138853],[22.40714304584955,65.3710124417591]],[[22.40364353399543,65.36017851579989],[22.404069864234568,65.36015749729827],[22.404120221663987,65.36033544794422],[22.40364353399543,65.36017851579989]],[[22.403267554763303,65.36037748409056],[22.40369388859008,65.36035646661743],[22.40374424393761,65.36053441741045],[22.403267554763303,65.36037748409056]],[[22.40234097263109,65.36168618914922],[22.402391321908684,65.36186414045675],[22.401964962390597,65.361885154502],[22.40234097263109,65.36168618914922]],[[22.401186212676077,65.3606605052772],[22.40203889277427,65.3606184807887],[22.40224027633436,65.36133028646054],[22.401488258512472,65.3617282156964],[22.401186212676077,65.3606605052772]],[[22.401511871507637,65.36028359030675],[22.401085536751946,65.36030460160787],[22.40098486383828,65.35994869784037],[22.401511871507637,65.36028359030675]],[[22.400884193934935,65.35959279397477],[22.400457869765724,65.35961380338966],[22.40040753877755,65.35943585124853],[22.400884193934935,65.35959279397477]]],[[[22.808223809999998,65.52291604999999],[22.8078241143951,65.52158710016273],[22.80702003528206,65.52190891024081],[22.807082860763177,65.52297503416762],[22.808223809999998,65.52291604999999]]],[[[22.744505581432996,65.5677368729687],[22.743593333231065,65.56760311252083],[22.74375281399457,65.56813652912163],[22.744665081857796,65.56827028840488],[22.744505581432996,65.5677368729687]]],[[[22.74208775422204,65.56840241247198],[22.74337642164434,65.568336355885],[22.743323262665797,65.56815855022387],[22.74208775422204,65.56840241247198]]]]}}]}