{"type":"FeatureCollection","properties":{"source":"SMHI SE.SR Analyskarta havsis","source_date":"2023-11-06","season":"2023/24","simplification_m":20},"features":[{"type":"Feature","properties":{"ice_type":9,"ice_type_name":"new_ice","iceact":"70","mean_thickness_cm":2.0,"max_thickness_cm":5.0,"min_thickness_cm":1.0,"source_date":"2023-11-06"},"geometry":{"type":"MultiPolygon","coordinates":[[[[22.393281698000067,65.77872116400005],[22.39455178600002,65.77217585000004],[22.392987623000064,65.76995795700003],[22.389376836000054,65.76811995000003],[22.38445899500004,65.76688052600007],[22.379533947000027,65.76677565600005],[22.374908838000064,65.76776195500008],[22.36869560900004,65.76982830900005],[22.36554296900004,65.77031202100004],[22.36241800700003,65.76976924000007],[22.35878159200007,65.76714248900004],[22.358179006000057,65.76486280800005],[22.35867693200004,65.76373290400005],[22.36514617100005,65.75825425900007],[22.367848683000037,65.75474937500007],[22.368580979000058,65.75075955600006],[22.367710656000046,65.74617784800007],[22.364861508000043,65.73867516600006],[22.36166188100003,65.73406986100008],[22.35779683900006,65.73172264400006],[22.34649898500004,65.72765722400004],[22.34331981200006,65.72547279000008],[22.342508719000023,65.72361503500008],[22.342608987000055,65.72136954100004],[22.34509445400005,65.71419669100004],[22.345466512000034,65.71132441400005],[22.343873982000048,65.70771404100003],[22.34073410700006,65.70462046100005],[22.340143233809204,65.70500934688584],[22.341107044854297,65.70532291142644],[22.340979382636334,65.706411615926],[22.341843550866372,65.70636981867281],[22.342910714630495,65.70703988496926],[22.340673294329587,65.70841105691956],[22.339376935217572,65.70847374202077],[22.33991052363383,65.70880878469126],[22.339046270234928,65.70885057178839],[22.33851269196658,65.70851552598816],[22.337699164622794,65.70873527419182],[22.338689282740635,65.71067204185468],[22.337774240248873,65.71053585361983],[22.337011363146704,65.71093356788356],[22.335714867037986,65.71099622310567],[22.335384117937124,65.71137304572476],[22.333604721653867,65.71127859476634],[22.333756816754548,65.71181250670242],[22.33246026714195,65.71187513470741],[22.332612342856073,65.71240904797416],[22.331041547485963,65.71217520397458],[22.32668278242233,65.71590613106898],[22.327524093129725,65.71608266541676],[22.3277774363699,65.71697253010913],[22.32642994941718,65.716857136419],[22.326275854591803,65.71631578498538],[22.325208664000055,65.71739006000007],[22.323450089000065,65.72048378000005],[22.32363700900003,65.72556495700006],[22.325471878000027,65.72882270800004],[22.32665637303071,65.73021147157125],[22.327254917300486,65.73052911272254],[22.32806921357561,65.7303094129531],[22.327917104956352,65.72977549549958],[22.327001432204064,65.72963924857703],[22.327281827683088,65.72908446811869],[22.32738322065687,65.72944041365216],[22.328782079151647,65.72973376465899],[22.328984915596802,65.73044565316961],[22.33173207806548,65.73085434022407],[22.332468994402994,65.73190128879034],[22.33381729515634,65.73201662112112],[22.333486266066206,65.73239344229553],[22.33412179468349,65.73308444134274],[22.333307465546053,65.73330417380248],[22.333510460281055,65.73401605474267],[22.33490963643824,65.73430934636667],[22.335977820467914,65.73497945136265],[22.334298304165632,65.73524096290541],[22.334450583246433,65.73577487232237],[22.333636173351728,65.7359946073186],[22.334221038834908,65.73650763495039],[22.333075512431545,65.73710418983747],[22.334625726514325,65.73903017520392],[22.33483022626509,65.73864327131076],[22.336713087401506,65.73909362717639],[22.33686544366384,65.73962753342485],[22.335567508243077,65.73969020131582],[22.335786390471036,65.74071492890728],[22.337984701895095,65.74047559025358],[22.3378831108627,65.74011965371434],[22.340911650602113,65.73997336514205],[22.34162448088111,65.73939765707962],[22.344500396133157,65.73871739823636],[22.34429705436932,65.73800553532637],[22.34483133879206,65.73834055396172],[22.34612917941406,65.73827780802552],[22.347274448745477,65.73768115742958],[22.349488314182004,65.73775450441885],[22.349717432456035,65.73702172291868],[22.35213478942488,65.73780688565071],[22.350887868969433,65.73804764552507],[22.350989629246715,65.73840357174656],[22.349793542303853,65.73882228619512],[22.349997043150616,65.7395341402214],[22.349131782325628,65.73957599437941],[22.348800888236738,65.73995284752883],[22.349487897514443,65.74082174040005],[22.35030231757178,65.740601920524],[22.350454965201298,65.74113581034369],[22.351320275658765,65.74109394818673],[22.351574733103135,65.74198376233244],[22.35076028130048,65.74220358931983],[22.35086205950889,65.74255951544866],[22.34999669909613,65.74260137548478],[22.348672972100342,65.74410879272574],[22.347476587030204,65.74452749185076],[22.34778182828797,65.74559527750992],[22.345669013939407,65.74587784233047],[22.34510868289655,65.74698746591487],[22.34200246482309,65.74840051787257],[22.342104151769004,65.74875645072638],[22.33866638700115,65.75054627880628],[22.33925169834289,65.75105928278147],[22.34136500975099,65.75077680219064],[22.340320712772485,65.75172934924993],[22.341745737921233,65.75364517329194],[22.340447112537532,65.75370788943688],[22.339071449890593,65.75503726672969],[22.338205648546722,65.7550790640172],[22.330894486139808,65.75867937004695],[22.328431679970787,65.75915410309004],[22.32759729493522,65.75997888233013],[22.328219093620714,65.76007128358077],[22.32798919428118,65.7608040401658],[22.326409453532197,65.76142142527159],[22.32651098724372,65.76177736998528],[22.325695697645997,65.76199707096252],[22.325465712219994,65.7627298245622],[22.323987302013574,65.76370313184617],[22.32469794455873,65.76619475558348],[22.323882501217323,65.76641444833385],[22.323347881871413,65.76607935946284],[22.322048577439595,65.76614192529682],[22.317178900042066,65.76908255771761],[22.315348987259593,65.76932667833344],[22.313097000000024,65.77095985400005],[22.311029434000034,65.77300071700006],[22.31033897400005,65.77484703100004],[22.311330795000064,65.77648353600006],[22.313692093000036,65.77795219400006],[22.317022324000042,65.77927207900005],[22.322930726929766,65.78089370626967],[22.32389332810469,65.78030611603279],[22.330444157813503,65.78017103440982],[22.330901733636885,65.78177276638671],[22.33200970840737,65.78261101421117],[22.33734156828678,65.78353511854476],[22.34321721300006,65.78203361900006],[22.351232636000077,65.77933246400005],[22.352858043655562,65.77958180964957],[22.35389384454105,65.77921971847546],[22.355627002765704,65.77913592565535],[22.35659560955653,65.77944994170385],[22.35660521588566,65.78005265119616],[22.359857524000063,65.78080823500005],[22.36249410500005,65.78196826000003],[22.37648357000006,65.78981640600004],[22.380790355000048,65.79342678200004],[22.38427887987985,65.79891041589103],[22.38509019697903,65.79755621881037],[22.387868782132248,65.79651919489707],[22.38837694179234,65.79523147632722],[22.3909499892843,65.79348261348325],[22.390260081873148,65.79261393604008],[22.389393119231915,65.79265603547077],[22.39053971502154,65.79205904679287],[22.390437154249238,65.79170315487197],[22.38990113702736,65.79136831318478],[22.388218554704068,65.79163044916571],[22.387682567491723,65.79129559939135],[22.388498222638454,65.7910755633247],[22.387631308255443,65.79111765227445],[22.387044085681786,65.79060485289097],[22.387962243819654,65.7907407144518],[22.389388424906258,65.78958884985288],[22.391937709631048,65.78928459451349],[22.393745741530704,65.78793369088179],[22.394612536897185,65.78789156832735],[22.3947012564601,65.78819931012983],[22.3943302745036,65.78570373478644],[22.392212270836932,65.78566252028956],[22.39195589350807,65.78477279292207],[22.393514608977945,65.78342032942426],[22.393281698000067,65.77872116400005]],[[22.390790530794295,65.77310104960674],[22.38867598292732,65.77338422781159],[22.38928616147273,65.77245240451705],[22.391018726772057,65.77236821510628],[22.390790530794295,65.77310104960674]],[[22.388889956171226,65.78023039058627],[22.389425720086688,65.78056523828363],[22.38769259813928,65.780649414971],[22.387538898853247,65.78011557281013],[22.39003602667087,65.77963341075962],[22.389756502280097,65.78018829804358],[22.388889956171226,65.78023039058627]],[[22.360709740875677,65.73558740941557],[22.360811624704397,65.73594332787447],[22.36037906530201,65.73596428560637],[22.360709740875677,65.73558740941557]],[[22.358648819967645,65.73604810431938],[22.358750677610942,65.73640402441058],[22.358318108491137,65.7364249763813],[22.358648819967645,65.73604810431938]],[[22.35972462346363,65.76125582376926],[22.360157607078182,65.76123486379231],[22.360259605037037,65.7615907814916],[22.35972462346363,65.76125582376926]],[[22.358043665187658,65.76151761117603],[22.359877612761487,65.76178970080097],[22.358196621600204,65.76205149021261],[22.358043665187658,65.76151761117603]],[[22.345018112150203,65.71289187527229],[22.345068892028095,65.71306984133713],[22.344636699590463,65.71309075078965],[22.345018112150203,65.71289187527229]],[[22.34227268109895,65.71248341120065],[22.34130680352255,65.71216927775134],[22.343950643909338,65.71222182672683],[22.34227268109895,65.71248341120065]],[[22.3443320493969,65.71202295299739],[22.344382822505775,65.71220091935739],[22.343950643909338,65.71222182672683],[22.3443320493969,65.71202295299739]],[[22.35193111559333,65.74016226811173],[22.35203290025151,65.74051819339776],[22.351600255739413,65.74053912701197],[22.351065837512564,65.74020413342673],[22.35193111559333,65.74016226811173]],[[22.350836093203892,65.75013861869071],[22.351268899187797,65.75011768568662],[22.35131981016305,65.7502956483739],[22.350836093203892,65.75013861869071]],[[22.35131981016305,65.7502956483739],[22.3525673125043,65.75005487934055],[22.35266915281511,65.75041080365253],[22.351854448436562,65.75063063892935],[22.35131981016305,65.7502956483739]],[[22.339196628584745,65.71245172725642],[22.340976122697956,65.71254611186262],[22.341712846292868,65.71359301760697],[22.34056848310266,65.7141896176465],[22.3387381374369,65.71391726080759],[22.338433718870803,65.712849448966],[22.339196628584745,65.71245172725642]],[[22.337875690043436,65.71089179163461],[22.337926416093577,65.71106976060527],[22.3374942501076,65.71109064951223],[22.337875690043436,65.71089179163461]],[[22.34119184498733,65.73941856103811],[22.341141029506836,65.7392405940393],[22.34157366247178,65.73921969025355],[22.34119184498733,65.73941856103811]],[[22.335571689258135,65.7335556971647],[22.336054999159867,65.73371277925683],[22.33615653473803,65.73406871755921],[22.33524066754881,65.73393252208037],[22.335571689258135,65.7335556971647]],[[22.334655843332026,65.73341949796198],[22.33508838521152,65.73339861348161],[22.335139145220836,65.73357658303898],[22.334655843332026,65.73341949796198]],[[22.337044149366438,65.73871679867723],[22.33709493540516,65.73889476732761],[22.336662303521344,65.73891565837793],[22.337044149366438,65.73871679867723]],[[22.336128111275414,65.73858061019097],[22.336611520411456,65.73873768955497],[22.336178890686217,65.73875857921098],[22.336128111275414,65.73858061019097]],[[22.335644707996963,65.73842352923563],[22.3360773326348,65.73840264114646],[22.336128111275414,65.73858061019097],[22.335644707996963,65.73842352923563]],[[22.334885352871705,65.7326867350073],[22.33493610980208,65.73286470466259],[22.33450357670503,65.7328855886255],[22.334885352871705,65.7326867350073]],[[22.334554331477673,65.73306355842881],[22.33460508702,65.73324152820763],[22.334172547298323,65.73326241129402],[22.334554331477673,65.73306355842881]],[[22.334351317005016,65.7323516790688],[22.334402069468712,65.73252964894552],[22.33396954145677,65.73255053134206],[22.334351317005016,65.7323516790688]],[[22.329151769320372,65.71564326748171],[22.32920244659024,65.715821239829],[22.32877019279093,65.71584210480377],[22.329151769320372,65.71564326748171]],[[22.32641687228939,65.72912619025324],[22.326366182808847,65.72894821710533],[22.326798657963348,65.72892735682095],[22.32641687228939,65.72912619025324]],[[22.325781651835364,65.72843515606135],[22.326264806153482,65.7285922707362],[22.32583233608366,65.72861312945479],[22.325781651835364,65.72843515606135]],[[22.32529850337034,65.72827803979635],[22.325730968355543,65.72825718264347],[22.325781651835364,65.72843515606135],[22.32529850337034,65.72827803979635]],[[22.334954528426927,65.78211869300439],[22.33582124339511,65.78207690540414],[22.33640725168552,65.78258991354507],[22.335540520624736,65.78263170463079],[22.334954528426927,65.78211869300439]],[[22.333017646394353,65.78149037662892],[22.33306850594066,65.78166834588693],[22.332635153025127,65.78168923243534],[22.333017646394353,65.78149037662892]]],[[[22.385185245000056,65.80088147400004],[22.385777093000055,65.80223995600005],[22.386639968000047,65.80422557700005],[22.38882409958761,65.80116415738979],[22.38601294378453,65.8007592788248],[22.385185245000056,65.80088147400004]]],[[[22.35083698998832,65.73786968237744],[22.350404388632736,65.73789061217646],[22.35045526468559,65.73806857549694],[22.35083698998832,65.73786968237744]]]]}},{"type":"Feature","properties":{"ice_type":9,"ice_type_name":"new_ice","iceact":"70","mean_thickness_cm":4.0,"max_thickness_cm":5.0,"min_thickness_cm":2.0,"source_date":"2023-11-06"},"geometry":{"type":"Polygon","coordinates":[[[22.335123839741865,65.65807268913291],[22.335123839729945,65.6431922010754],[22.33298075398336,65.6429299059035],[22.33183921618018,65.64352641293354],[22.330115021655235,65.64360984860633],[22.32897338752884,65.64420633502675],[22.328010261342076,65.64389209034219],[22.32719864102713,65.64411176389245],[22.32195232464606,65.64256125344288],[22.321851414640907,65.64220529948949],[22.32040697355216,65.64173385998012],[22.319544915207178,65.64177551496715],[22.31944904350138,65.64143720874623],[22.316953659000035,65.64397239700003],[22.316507339000054,65.65052604700003],[22.31587965131966,65.65192765156223],[22.31805864170548,65.65195053902252],[22.31795774110723,65.6515945824029],[22.32389341049755,65.65094698400031],[22.327090259831404,65.64989035118853],[22.32843424575783,65.65000577308469],[22.33008141952116,65.65118902442809],[22.328636322431457,65.65071766964354],[22.327773981679222,65.6507593741144],[22.326503851206702,65.65244454356164],[22.32444883255368,65.65290471830838],[22.324169108227917,65.653459487198],[22.323306667737118,65.65350116727184],[22.31960001360578,65.65584522731774],[22.315920395233807,65.6567445527007],[22.316071741549134,65.65727848966864],[22.314296134462385,65.65718377610007],[22.313635284004306,65.65793732132538],[22.310156809343038,65.65954843235806],[22.30226349161352,65.66101136829697],[22.302464953477877,65.66172330557465],[22.299927022882983,65.66202595591615],[22.297971435992963,65.66284175515996],[22.29667723037679,65.66290405555235],[22.29644714161095,65.66363676659198],[22.29208264866812,65.66366636173738],[22.28751706298723,65.66298387110623],[22.285410240853,65.66326554219519],[22.283554579837332,65.66443714345888],[22.2822602529632,65.6644993222016],[22.281548055108836,65.66507474624109],[22.279491212208043,65.66553433018025],[22.277685330770016,65.66688385728564],[22.27788617296999,65.66759583308888],[22.275778865635907,65.66787737529363],[22.27521702071122,65.66898675609946],[22.273541100949767,65.66924756277507],[22.27163430461425,65.67024103196574],[22.26434798530065,65.67077067463704],[22.260695034270693,65.67022403101797],[22.25933100800209,65.66848534601968],[22.259893527862435,65.66737601747077],[22.26113796633068,65.66713602673794],[22.262131870483785,65.66600602541568],[22.262944738937005,65.66578668774969],[22.261480631147116,65.66369202098272],[22.26267478089177,65.66327401906494],[22.26433089682302,65.66139066689016],[22.266718854760505,65.66055461215058],[22.266568501035394,65.66002061655384],[22.26766215380331,65.65924658079906],[22.26746166997905,65.65853458799398],[22.268705614222938,65.65829454004124],[22.267361432615072,65.65817859144717],[22.26721108225392,65.65764459644659],[22.265866940515085,65.65752863424136],[22.265766729709274,65.65717263638356],[22.264522810177148,65.65741266003135],[22.263459766010676,65.65674200443272],[22.262597099438743,65.65678334191625],[22.260140028702136,65.65581865747136],[22.260502018533373,65.65399732428156],[22.259589382557508,65.65386064267587],[22.259670286672897,65.65259397378942],[22.258657614989797,65.65210128293661],[22.257094631652734,65.64965055820973],[22.258288219342113,65.64923259616181],[22.258900449119242,65.64830127639117],[22.25976284092915,65.64825996255645],[22.260425041481163,65.64750663886238],[22.261618477057496,65.64708865210402],[22.261699279487182,65.64582198306896],[22.262511527777413,65.64560265368479],[22.263504598249824,65.64447265129164],[22.26358530746948,65.64320598213573],[22.265009332199245,65.6420553026146],[22.26442806393496,65.64154197454884],[22.265290220679862,65.64150063159582],[22.26519009230778,65.64114463252697],[22.267195211382823,65.64050725932647],[22.268187893041592,65.63937723003578],[22.267436780154245,65.6367072511482],[22.268579536476988,65.63611121678655],[22.27666785645268,65.63536206540616],[22.27699855931982,65.63498537089681],[22.27859981348508,65.63471033126658],[22.280542374000046,65.63210487400004],[22.280939102000044,65.63058280900003],[22.280267715000036,65.62958335900004],[22.278745651000065,65.62899589500006],[22.27634620700007,65.62895393400002],[22.27338600200005,65.62952232400004],[22.27006721500004,65.63068199200006],[22.266584396000034,65.63245582600005],[22.262292862000038,65.63547706600008],[22.25847947971106,65.6388931210133],[22.260367394585398,65.64263862377656],[22.25950519061763,65.64267993922986],[22.25889310415472,65.6436112600847],[22.25764976203978,65.6438512218819],[22.25774979961295,65.64420722679431],[22.256937552648978,65.6444265306945],[22.25483187253106,65.64470776668527],[22.25341701220934,65.64436702626887],[22.250528336000055,65.64796257000005],[22.24485588100003,65.65726280200003],[22.24323082000006,65.66175651600008],[22.24279594400002,65.66594123800006],[22.24416160600003,65.67034339900005],[22.246435165000033,65.67320060700007],[22.249037290417395,65.67538461777295],[22.250393511949195,65.6755876559449],[22.250643731307655,65.67647767866445],[22.255392089806243,65.67625059965219],[22.256355586713784,65.67656530120935],[22.258082257056074,65.67648267934881],[22.260841969595848,65.67851538114968],[22.26208692908472,65.67827537763974],[22.262187187627617,65.6786313774201],[22.263432139529073,65.67839136296497],[22.2643958126548,65.67870601184723],[22.264727214251483,65.67832933741887],[22.266885656941618,65.6782259371331],[22.267648695870882,65.67782857309228],[22.269857263446024,65.67790312871256],[22.269827033588047,65.67934779491907],[22.26901380578378,65.67956717285516],[22.26878280921691,65.6802998506387],[22.267919368993155,65.68034122581606],[22.268019717256585,65.68069722087856],[22.26591123493495,65.68097863754538],[22.266061721559463,65.68151263244513],[22.264816646621558,65.68175266961941],[22.264254061189888,65.68286201692817],[22.262727565318006,65.68365671109446],[22.26095030151035,65.68356138992682],[22.258477503562865,65.68416387591512],[22.26038683698226,65.68875920727409],[22.26321804792747,65.68850404092656],[22.26380040144228,65.68901736300593],[22.263036981639974,65.68941471136749],[22.262906066648437,65.69050338100776],[22.26168526313796,65.69069310500004],[22.263086319000024,65.69219780000003],[22.266482077674983,65.69461478127721],[22.267083724528522,65.69445258461691],[22.267234329584525,65.6949865771732],[22.26858043488087,65.69510250830581],[22.268016009423174,65.69550147777856],[22.26899910000003,65.69606971700006],[22.27486414441588,65.69846849777602],[22.277654648000066,65.69867134100008],[22.281274796000048,65.69764518700003],[22.285284042000054,65.69548225400007],[22.289669210750866,65.69244649686465],[22.287694962062236,65.6914796109321],[22.28739296456457,65.69041167381873],[22.289531067911096,65.68868529510416],[22.291208065535947,65.68842430166848],[22.2914888363814,65.68786958349925],[22.29278430372397,65.68780731510016],[22.29354721152617,65.68740982235549],[22.29309394950708,65.68580793643414],[22.29576380731932,65.68441669271499],[22.29566306065525,65.68406071985778],[22.297339695121252,65.68379966229371],[22.297238929702743,65.68344369066136],[22.29891550759545,65.68318261626322],[22.29881472342481,65.68282664585598],[22.29967818691331,65.68278509495545],[22.300009118898615,65.68240834820078],[22.30130428862615,65.68234601008062],[22.301203475568606,65.68199004153561],[22.30388549207316,65.68095886066034],[22.313646317000067,65.67328834500006],[22.32133385642278,65.66849957855018],[22.316561782821058,65.66826011517165],[22.31577699554964,65.66703508538804],[22.318393245099525,65.66546549577386],[22.318572239211623,65.66455477969943],[22.320146386524883,65.66393752972313],[22.320706198050964,65.66282800275954],[22.32194982717719,65.66258752190387],[22.322509535089004,65.6614779892976],[22.324234946380493,65.66139462814031],[22.32456526189201,65.66101783390613],[22.32900672757998,65.6597206387253],[22.32890564039379,65.65936469121407],[22.329768264922535,65.65932297755035],[22.330859972598063,65.65854850604752],[22.332915314695782,65.65808824139914],[22.335123839741865,65.65807268913291]],[[22.335008169008063,65.643914268897],[22.335058717806014,65.64409224058866],[22.334627664045083,65.64411311053361],[22.335008169008063,65.643914268897]],[[22.323807593781808,65.6583481990413],[22.324289403238016,65.65850533306721],[22.323858099642287,65.65852617486944],[22.323807593781808,65.6583481990413]],[[22.323325790144015,65.65819106343027],[22.3237570886851,65.65817022318882],[22.323807593781808,65.6583481990413],[22.323325790144015,65.65819106343027]],[[22.32071055493382,65.65976072816392],[22.32043068436163,65.66031549157647],[22.31865485520082,65.6602208311274],[22.320178259257407,65.65942560556132],[22.320407643384353,65.65869286546474],[22.323376292331538,65.6583690394545],[22.322867183106016,65.65965655052092],[22.32071055493382,65.65976072816392]],[[22.31728275928679,65.66154997753509],[22.318347381276176,65.66222024086383],[22.31624098108111,65.66250233539184],[22.315910525592063,65.66287911288101],[22.31413453346382,65.66278440117244],[22.313551812497387,65.66227127551376],[22.315226855615208,65.66201003608711],[22.3151259467305,65.66165407768132],[22.31728275928679,65.66154997753509]],[[22.289017368759648,65.67139087494382],[22.287190586587833,65.67111786362068],[22.285493757930038,65.66975615058433],[22.285141891345347,65.66851021417285],[22.286235325201254,65.66773604687955],[22.287098310562275,65.66769457205713],[22.28656627457982,65.66735932920234],[22.287810452286617,65.66711912255235],[22.28847228064699,65.66636568029408],[22.29111137759309,65.66641919323374],[22.292305158589762,65.66600096202646],[22.29738192562989,65.66539586483309],[22.299006991448856,65.66495681452763],[22.300430563835892,65.66380580744612],[22.301293391089843,65.66376425353113],[22.300660540678603,65.66307309146117],[22.30200511008055,65.66318874159558],[22.30233577348469,65.66281199234479],[22.304061351488244,65.66272885871548],[22.305456306565215,65.66302246185496],[22.309288427937194,65.66265732247747],[22.309439679321354,65.66319126696098],[22.310403318453307,65.66350562442786],[22.31337265253288,65.66318198729108],[22.31258287768347,65.66502422145719],[22.3119217896543,65.6657777615121],[22.31072834473331,65.66619614357664],[22.31054906588152,65.66710685316313],[22.309585288382298,65.66679249796915],[22.307428002735826,65.66689649341276],[22.30628483885739,65.66749282401581],[22.305421897213662,65.66753440738924],[22.30394796043459,65.66850747742895],[22.30308498052081,65.66854904790067],[22.303185756471176,65.66890501557933],[22.301610898891195,65.66952209666931],[22.30023745221246,65.67085110212975],[22.296806787867048,65.67263991713288],[22.294368397163073,65.6732984584138],[22.292160173306293,65.67322425564785],[22.290282919885268,65.67277329482815],[22.289017368759648,65.67139087494382]],[[22.31445487365509,65.66854218987685],[22.3145558056154,65.66889814849404],[22.314124319788732,65.66891896442712],[22.31445487365509,65.66854218987685]],[[22.313339625464625,65.66769392115471],[22.31344053814338,65.66804988070123],[22.313009065349828,65.66807069334064],[22.313339625464625,65.66769392115471]],[[22.301626264655653,65.67421203148093],[22.302108244384524,65.67436923419764],[22.301676655493214,65.67439001578009],[22.301626264655653,65.67421203148093]],[[22.301144290754227,65.67405482717909],[22.30157587458061,65.67403404715759],[22.301626264655653,65.67421203148093],[22.301144290754227,65.67405482717909]],[[22.299468323331,65.67431592026182],[22.299569076630636,65.67467189054888],[22.299137480250963,65.67469266499263],[22.298605141464794,65.67435746724585],[22.299468323331,65.67431592026182]],[[22.294972514039273,65.67543430331936],[22.294792633707292,65.6763450000789],[22.29258414831074,65.67627080600862],[22.29185055054224,65.67522363231313],[22.29324605544882,65.67551734222924],[22.294972514039273,65.67543430331936]],[[22.289713666023903,65.67695003198847],[22.290425992029707,65.6763745684686],[22.291771215840345,65.67649030283864],[22.290778241116932,65.67762048888747],[22.28775664751862,65.67776571353593],[22.28717408973716,65.67725248518578],[22.28851934652678,65.67736824801982],[22.288850377647048,65.67699152459521],[22.289713666023903,65.67695003198847]],[[22.286943626319477,65.67798518539931],[22.287044224823283,65.67834116547492],[22.286612555281636,65.67836190505471],[22.28608029813532,65.6780266626562],[22.286943626319477,65.67798518539931]],[[22.279580500124528,65.69529683244383],[22.280062750300498,65.6954541024459],[22.27963078888628,65.69547482501095],[22.279580500124528,65.69529683244383]],[[22.279098255787627,65.69513956085606],[22.279530212124392,65.69511883985258],[22.279580500124528,65.69529683244383],[22.279098255787627,65.69513956085606]],[[22.270881348267704,65.67532840447602],[22.270981713830313,65.67568439742612],[22.270550073061546,65.67570509110861],[22.270881348267704,65.67532840447602]],[[22.2690042962844,65.67487717887641],[22.266364359289547,65.67482329003963],[22.266264061133256,65.67446729338918],[22.26880363001882,65.67416518966877],[22.2690042962844,65.67487717887641]],[[22.26361003287995,65.65727600395519],[22.26317869124129,65.65729667381675],[22.263128604437863,65.65711867382961],[22.26361003287995,65.65727600395519]],[[22.25788187574226,65.67577067299025],[22.25836362687758,65.675928016615],[22.25793196993347,65.67594867461591],[22.25788187574226,65.67577067299025]],[[22.25740013043746,65.67561332778217],[22.257831782309193,65.67559267134061],[22.25788187574226,65.67577067299025],[22.25740013043746,65.67561332778217]]]}},{"type":"Feature","properties":{"ice_type":9,"ice_type_name":"new_ice","iceact":"70","mean_thickness_cm":4.0,"max_thickness_cm":5.0,"min_thickness_cm":2.0,"source_date":"2023-11-06"},"geometry":{"type":"MultiPolygon","coordinates":[[[[22.491601881625307,65.83042808929949],[22.504290518267812,65.82240434426984],[22.503887010731383,65.82188282217798],[22.504913321330008,65.8219690695841],[22.507557376647082,65.81985528350404],[22.505812234013366,65.81944185638523],[22.50588104886093,65.81817518432307],[22.504804923070374,65.81750635154194],[22.5069738432571,65.81739943888977],[22.50751192455021,65.81773384840209],[22.508761123385135,65.81749178405616],[22.509920391365526,65.81785827341137],[22.51310920700007,65.81428337100004],[22.51460961779269,65.81132081784705],[22.51392699433572,65.81110094895392],[22.515098927584003,65.81001554075236],[22.51482671726371,65.80816900443486],[22.51527924674039,65.80814666387819],[22.515424728000028,65.80663871800004],[22.514117554720073,65.80152659746155],[22.512254593551674,65.80089668386563],[22.51188961619271,65.79965140923929],[22.510380671378204,65.79900400531308],[22.508992581335885,65.79726781149438],[22.50764015201842,65.79715407171165],[22.507535950688407,65.79679827513547],[22.50666907938591,65.79684104026562],[22.505593858775768,65.796172204212],[22.505437607479955,65.79563850672858],[22.509664072679534,65.79367913122613],[22.508050404421876,65.7905860590332],[22.506146271536952,65.79055044034288],[22.505921234931176,65.79128341517153],[22.502177259141433,65.79200947234149],[22.501900047604575,65.79256454182297],[22.50092921930617,65.7922514714415],[22.499247784792516,65.79251482078547],[22.499143721790126,65.79215901712664],[22.49784362249544,65.79222308939265],[22.497670359159482,65.79313395685644],[22.49588480968344,65.79304146489542],[22.495988832001068,65.79339727117691],[22.49425526889202,65.79348266349436],[22.49486203154043,65.79255045212312],[22.495676774530743,65.7923298520274],[22.495468752020578,65.79161823875276],[22.494602030806156,65.79166093382761],[22.493579333097784,65.79116991166602],[22.49331939333825,65.79028039058892],[22.494671403396612,65.79039426145707],[22.49533008240606,65.78963995272004],[22.497392681722356,65.78917739198155],[22.498103265654088,65.78860097494334],[22.499021898244177,65.78873616304399],[22.499351158274724,65.78835900041649],[22.500217759076524,65.7883162795317],[22.500113703060965,65.78796047646944],[22.50146561713825,65.78807428803971],[22.500772162914178,65.78720614638075],[22.502453236950977,65.7869427837705],[22.50305956008833,65.78601054411408],[22.503874026324674,65.78578990294396],[22.503613796774207,65.78490040227803],[22.502157974837246,65.78443080663685],[22.501412577332882,65.7833847662073],[22.502018862069107,65.78245253107366],[22.501481615792787,65.78211809404446],[22.502191921218543,65.78154166069544],[22.503431167457258,65.78127139070334],[22.50036377900005,65.78170691100007],[22.494939161000048,65.78309216200006],[22.486996671000036,65.78609516400006],[22.46370051200006,65.79687663500005],[22.456537264000076,65.80146613700003],[22.45304798438483,65.80585031688217],[22.455336369504458,65.80477804770133],[22.457122618069718,65.80487100757264],[22.457019076660362,65.80451517014622],[22.45831991767115,65.80445143869179],[22.460746947389133,65.80523478145082],[22.461614192341475,65.80519227368514],[22.46151058736725,65.80483643992669],[22.462481434143797,65.80514976102049],[22.464701349128706,65.805221373536],[22.464008630891538,65.80435305759852],[22.464875839706636,65.80431053164476],[22.464772193963142,65.8039547004991],[22.4655875602868,65.80373425509177],[22.465276611389825,65.80266676300865],[22.46328325921503,65.80186223253176],[22.463787716536388,65.800574299578],[22.46488108107924,65.7997988501449],[22.465748134957312,65.79975632074282],[22.468368109870607,65.79818411592007],[22.469668597670296,65.79812029114638],[22.471576789050992,65.79712432741601],[22.474888948116263,65.79642029737504],[22.47473333059858,65.79588656229713],[22.47771558496723,65.79555958662445],[22.478045241762658,65.79518246613722],[22.478912114275108,65.79513986368295],[22.478374889167156,65.7948053450294],[22.47967517675284,65.79474143689708],[22.479086052757577,65.79422901096022],[22.47984908627731,65.7938305835878],[22.48114932031638,65.79376666341096],[22.483923526827343,65.79272793352321],[22.486575797428998,65.79277792099467],[22.48716503407598,65.79329031689407],[22.485968727565453,65.79371010239763],[22.485795035805403,65.79462096055109],[22.484650583393563,65.79521864384205],[22.484910283938166,65.79610818203729],[22.48317649448386,65.79619345063676],[22.482465371912813,65.79676980337894],[22.481598451658417,65.79681242649556],[22.481702295106697,65.79716824426532],[22.483436155974708,65.79708299172506],[22.48504821608447,65.79808648476128],[22.488134517894874,65.79811511879677],[22.489330988858864,65.79769531469168],[22.490301889624057,65.79800845819686],[22.490995305625773,65.79887664785663],[22.490665796213143,65.79925379488776],[22.487249793641237,65.79960235359177],[22.486364971706006,65.80108958421366],[22.481648047085105,65.80150198884097],[22.481751913930488,65.8018578063508],[22.480884821140304,65.80190042709805],[22.481110649159092,65.80116748151036],[22.47975812281206,65.80105349545691],[22.480573265363017,65.80083297214875],[22.48112876021499,65.79972289977141],[22.475596833993055,65.80035564218485],[22.47330689795692,65.80155085718681],[22.472751028706476,65.80266090472898],[22.4718838910196,65.80270347475313],[22.47283621057492,65.80446131464686],[22.471742899161217,65.80523682057877],[22.47210603160798,65.80648220906966],[22.469207398352953,65.80860950222288],[22.469952285223727,65.80965570502579],[22.471894572957655,65.81028222780154],[22.47258772708975,65.81115050368186],[22.473558947904426,65.81146375063716],[22.47279530719761,65.8118621524698],[22.472951000564045,65.81239588879505],[22.472083535633868,65.81243846314602],[22.472064948368793,65.81388304846644],[22.4708155600533,65.81412481426983],[22.471023120011584,65.81483646566687],[22.468401670811566,65.81640873047255],[22.468175370263037,65.81714166185175],[22.46671831534015,65.81667173987965],[22.465850694039926,65.8167142803227],[22.46722284763588,65.81538379482174],[22.465836702575412,65.81364718958352],[22.464431733110303,65.81335515844867],[22.463356878978697,65.81268602117385],[22.46248938523645,65.81272854126723],[22.462333906183154,65.81219479218872],[22.460184462631258,65.81085647794579],[22.459265223386573,65.81072106179998],[22.460080850024525,65.8105006432894],[22.459925437022147,65.80996689111555],[22.46079284287146,65.80992438645272],[22.459770031108615,65.80943313871464],[22.461886680563637,65.80914895387052],[22.462164918733286,65.80859394719279],[22.46336230366382,65.80817433791013],[22.463329575875832,65.80655183265347],[22.46085054374477,65.80559061581184],[22.459601443289753,65.8058322870001],[22.459705026716207,65.80618812226489],[22.45705139606997,65.8061376807217],[22.455141982209597,65.80713347461858],[22.452209710522634,65.80745437524142],[22.44708016100003,65.81693054900006],[22.445140950000052,65.81878242700003],[22.440283481000044,65.82171224000005],[22.43752984100007,65.82280031000005],[22.43178429100004,65.82424811500005],[22.42338411800006,65.82486467400008],[22.40700141900004,65.82426544200005],[22.40153972900004,65.82309294800008],[22.39704900588087,65.82093510416101],[22.393318853287678,65.82151578548927],[22.389795769656097,65.82150631509619],[22.388596541231696,65.82192536460819],[22.38686063295112,65.82200955873412],[22.386095318764387,65.82240754252075],[22.3866832861254,65.82292033834456],[22.38446199232941,65.82284760398738],[22.382418213251313,65.82186406124741],[22.381167556048517,65.82210510515402],[22.38101369458484,65.82157125802358],[22.381932939267667,65.82170714540774],[22.381779064795438,65.8211732991734],[22.38330973445866,65.82037737064128],[22.383538487168984,65.81964454203462],[22.385656874458874,65.81936139804255],[22.385554250467795,65.81900550346616],[22.389025659860014,65.81883712910808],[22.39004752998591,65.81932885985742],[22.39188595627323,65.8196005209011],[22.394751711767096,65.81934081832402],[22.390005660000043,65.81424441500008],[22.389274986000036,65.81026063700007],[22.385117018055357,65.80072990966798],[22.38379357003362,65.80068651622862],[22.383383553120858,65.79926292783065],[22.38427887987985,65.79891041589103],[22.38325249100006,65.79690910800008],[22.380790355000048,65.79342678200004],[22.37648357000006,65.78981640600004],[22.36249410500005,65.78196826000003],[22.359857524000063,65.78080823500005],[22.35660521588566,65.78005265119616],[22.356621474224195,65.78107253398942],[22.355092232874718,65.78186818121718],[22.354225562498872,65.78191007792887],[22.35399624635541,65.7826428680216],[22.352747195554915,65.78288366366627],[22.351753083175574,65.78401425817142],[22.34930576064001,65.78467376708352],[22.347776081137088,65.78546934513668],[22.347878023507157,65.78582527162885],[22.34701120610338,65.78586712874727],[22.347113139809938,65.78622305583364],[22.346246307546892,65.78626490874697],[22.346348232589257,65.78662083642745],[22.345098915604837,65.78686157197556],[22.344869302590975,65.7875943511788],[22.343237422876097,65.7880339576728],[22.342344586393423,65.78952042673782],[22.34109509077588,65.78976113119894],[22.33741495066972,65.79384577457277],[22.337880344552993,65.79388546271699],[22.337302012450174,65.79396263655659],[22.33191108700003,65.79953956600006],[22.330408096000046,65.80255699200006],[22.331811905000052,65.80295753500006],[22.33426217964895,65.80275012487846],[22.33583572892334,65.80210299865423],[22.33649938665095,65.80134933016076],[22.337800423247586,65.80128662448887],[22.33851494549663,65.80071091482708],[22.339815943976436,65.80064819233279],[22.340096748617473,65.80009338448565],[22.341780400433258,65.79983176919235],[22.342443827575487,65.79907807704917],[22.34369375776191,65.79883735737187],[22.34354083922579,65.7983034634835],[22.344408081523152,65.79826162201145],[22.348285214865445,65.79645067685564],[22.35203438261658,65.79572834950653],[22.35318199455391,65.79513163199817],[22.353079934731184,65.79477571019291],[22.355247691469096,65.79467096505343],[22.356012690820986,65.7942731389469],[22.355859549771047,65.79373925954677],[22.35716014571588,65.79367639301707],[22.35907245286088,65.79268179841567],[22.362438349316502,65.7921581439776],[22.36483492181146,65.79132046464008],[22.367818166523136,65.79099562859686],[22.36761368536889,65.7902838079933],[22.369449795976116,65.79055576151436],[22.37067471168559,65.79175945390942],[22.369374252062862,65.79182243436306],[22.370012295566344,65.79251325903866],[22.369196431728955,65.79273319824291],[22.369349841711376,65.79326706165308],[22.368100431558908,65.79350798652118],[22.367259996248702,65.79517254399794],[22.36611271531918,65.79576936422396],[22.366470584517373,65.79701505334177],[22.371444537119014,65.79749596651367],[22.37073084637415,65.79807182233455],[22.371317926219113,65.79858468588358],[22.37011943628831,65.79900358314646],[22.37027291024682,65.79953744500358],[22.36869188345109,65.80015528069389],[22.368029206432343,65.80090907970754],[22.36866745360559,65.80159990803246],[22.367902442171665,65.80199779770857],[22.36805589164476,65.80253166202749],[22.366857166735787,65.80295053591881],[22.36667920260087,65.80386129822223],[22.36736864275764,65.80473008675938],[22.366603520443938,65.80512797098609],[22.366476685123892,65.80621668847407],[22.36522662410805,65.80645759605936],[22.365099727046065,65.80754631299241],[22.36423221273815,65.80758827470737],[22.364105270651045,65.80867699124283],[22.363288849200806,65.80889690420204],[22.364463258307634,65.80992268388809],[22.363264135311635,65.81034153336907],[22.363034870265913,65.81107433649717],[22.362218364324708,65.81129424453968],[22.36237176257387,65.81182811505312],[22.361121391147115,65.81206899198598],[22.36017771656805,65.81337760521829],[22.355916155721097,65.81538778524728],[22.356120553187644,65.8160996222803],[22.353650410345047,65.81684817027306],[22.352164700514756,65.81917746109951],[22.350260726051967,65.82083744829119],[22.350275858539646,65.82179458518276],[22.352369516149977,65.82295653030896],[22.353722698408784,65.82307163929919],[22.354565583330604,65.82447436421113],[22.35331452603972,65.82471518374994],[22.35351894056762,65.82542702408281],[22.352318924568593,65.82584579610017],[22.352472221743746,65.8263796775048],[22.350889140315953,65.82699734834365],[22.350276376839727,65.8279290424948],[22.34639475989443,65.82974008098802],[22.346496893902433,65.8300960065145],[22.343380961242595,65.83150917963977],[22.34348306201184,65.83186510749717],[22.342231539356817,65.8321058406626],[22.340954075799193,65.83379120068693],[22.342205692306543,65.83355047709509],[22.341669389721964,65.83321546874369],[22.342818873135904,65.83261881136625],[22.343687272875282,65.8325769629167],[22.34309992293733,65.8320639957072],[22.344351435025903,65.83182325552619],[22.344453550711616,65.83217918259173],[22.34532193242513,65.83213732501916],[22.345858258623036,65.83247232031913],[22.3439425539403,65.83346678163758],[22.34263990888066,65.83352955507144],[22.34317623073423,65.83386455983016],[22.341975654746385,65.83428325589236],[22.34131136269418,65.83503695418423],[22.34039183789933,65.83490082490182],[22.340136662501894,65.83401099924217],[22.339906562314,65.83474377551947],[22.337556199870146,65.83575907518228],[22.33975254162164,65.83727711943793],[22.345500299919056,65.837361045954],[22.34437639047446,65.8365130893396],[22.343507859261663,65.83655494296282],[22.34465744429972,65.83595827078337],[22.344402108823772,65.835068453785],[22.34493848662651,65.83540345181872],[22.345806976183322,65.83536159045819],[22.345934762683882,65.83427288118394],[22.347569488721795,65.83383321859618],[22.349433982244594,65.8326607514094],[22.350353470965036,65.83279682659705],[22.350685460745183,65.8324199596425],[22.351553838398928,65.83237806667229],[22.351017441051013,65.83204309205647],[22.353188345942158,65.83193834602875],[22.352422212940922,65.83233616879404],[22.355410364965415,65.83201152846043],[22.35691747328598,65.83266048139973],[22.357070914616187,65.83319435679445],[22.356253662978762,65.83341424005918],[22.355666044560817,65.83290132375969],[22.355385259560194,65.83345616000021],[22.35732666573803,65.8340841486254],[22.361234534837624,65.8338954198123],[22.36200057389461,65.83349755374222],[22.363737354503456,65.83341363394074],[22.36524475300969,65.83406250191284],[22.366088659179606,65.83546515335418],[22.364785977968122,65.83552811602874],[22.362819603005736,65.83634485366507],[22.359447971915504,65.83686857143896],[22.35921840382102,65.83760137168342],[22.360086939616977,65.83755942867906],[22.36067475739019,65.83807232605098],[22.359474281826945,65.83849115869145],[22.35150368401385,65.83833455894037],[22.35096715838307,65.83799958538117],[22.34917891293109,65.83790540191782],[22.34762058780852,65.83707841169641],[22.34593457757041,65.83734011397972],[22.347824962835787,65.8377902600001],[22.34754396001341,65.83834508389378],[22.348412543757096,65.83830320681744],[22.348565849057948,65.83883709204443],[22.35068622179151,65.83855441442162],[22.353343101476682,65.83860667464064],[22.35344537387996,65.83896259418368],[22.355565699290494,65.83867984927798],[22.35566800278594,65.8390357670352],[22.35658775277216,65.83917180218464],[22.359678998256502,65.83920298785338],[22.361569753992903,65.83965296020621],[22.363792459220154,65.83972601410663],[22.363614205577434,65.84063677552301],[22.358887865993253,65.84104547423539],[22.357482541181675,65.84075246227157],[22.35830001204927,65.84053257033716],[22.35776335146568,65.84019762194552],[22.353701068513434,65.83985239260969],[22.351810430338944,65.83940232173588],[22.352576777722135,65.83900449999794],[22.350788457195584,65.83891033609704],[22.351427247786305,65.83960123124753],[22.352832442818872,65.83989430016011],[22.353420173317733,65.84040722627913],[22.354671986212388,65.84016639865267],[22.354774284446506,65.84052231705718],[22.355642927541894,65.84048039829797],[22.357636052219185,65.84128633641862],[22.362030538922326,65.84125456745183],[22.362184147931146,65.84178843608892],[22.36131547348296,65.84183039234496],[22.361852215092856,65.84216532747953],[22.36049798866241,65.84205030054927],[22.359680489686795,65.84227020451402],[22.360217219808007,65.84260514550276],[22.358914159823392,65.84266806171844],[22.36070276744128,65.84276212773516],[22.36129072251794,65.84327502141534],[22.363896882985845,65.84314913693738],[22.36461192486718,65.84257330018853],[22.3659149633047,65.84251033557757],[22.366144375497687,65.84177752677452],[22.36777921362867,65.84133764681926],[22.367625491760343,65.84080378489018],[22.368774690291698,65.84020693493105],[22.370077596647796,65.84014393607748],[22.370180107874123,65.84049984211555],[22.371636824201644,65.84097068847677],[22.372505449388765,65.84092867399977],[22.371663923829537,65.84259326601867],[22.36959472573426,65.8430541888155],[22.36606866192815,65.84304419944795],[22.364868048826676,65.84346307579106],[22.365277887725327,65.84488671546916],[22.364025951552627,65.84512763118501],[22.362978864906776,65.84608036009219],[22.363720624027323,65.84712711022492],[22.365995225951824,65.84737808109686],[22.366021998641592,65.84900066273632],[22.365204330586586,65.84922059787522],[22.362060655782837,65.84901157953283],[22.36241921905087,65.85025727131921],[22.3616014795558,65.85047718785961],[22.36137187352195,65.8512099916745],[22.357272769596925,65.85085355407965],[22.356881835837655,65.85310218567649],[22.357538825171464,65.85319929497648],[22.35685925043494,65.85323208569294],[22.356508255000048,65.85605430600003],[22.356966019000026,65.85818672200003],[22.35845375100007,65.85952568100004],[22.36084998529686,65.86057338036873],[22.362578716413694,65.8599927755315],[22.36247621705252,65.85963686429918],[22.359995628208274,65.85867402475571],[22.361094549303438,65.8578992668466],[22.360940847289307,65.85736539802727],[22.362857613187007,65.8563707134304],[22.363113841545715,65.85726049094184],[22.364034287712965,65.85739647458918],[22.364546869963025,65.85917602403002],[22.363728869250362,65.85939595444667],[22.36388264374755,65.85992981976632],[22.365289102040222,65.86022276198979],[22.36603139696278,65.86126949574175],[22.36690071903609,65.86122750647597],[22.36661990304796,65.86178236361567],[22.367489241311716,65.8617403708482],[22.36733537890061,65.86120651000023],[22.367872618060545,65.86154141920443],[22.369176608373134,65.8614784176754],[22.369330510980397,65.86201227628536],[22.36698680156563,65.86292598687501],[22.369844437000037,65.86407280000002],[22.373025894000026,65.86512565600003],[22.376108170000062,65.86566734300003],[22.378587723000066,65.86557579000004],[22.385075885508222,65.86441813338207],[22.385875543080502,65.86283584540412],[22.38745992440449,65.86221779947681],[22.389581756181435,65.8619345679876],[22.389913517259004,65.86155761803883],[22.392521362505747,65.86143122909485],[22.39367086786764,65.86083418895568],[22.39351646824871,65.86030035964805],[22.394282762534516,65.85990232926797],[22.396021200012687,65.85981802642708],[22.39668447049406,65.85906410026999],[22.39885743269808,65.85895868529497],[22.398628832698172,65.8596915353168],[22.399881130681653,65.85945033259911],[22.400492768037203,65.85851845052014],[22.4022310874637,65.85843407817926],[22.40325482732723,65.85892570248438],[22.40412399693412,65.85888350298265],[22.40468392977639,65.85777366685228],[22.405884531025684,65.85735447777965],[22.407880538852247,65.85815973235852],[22.408749673439885,65.858117506887],[22.409876672025067,65.85896495966243],[22.412690515037042,65.85954997565858],[22.412793709166266,65.85990584644627],[22.4154012515101,65.85977907004832],[22.41637367058983,65.86009266930836],[22.416580169205762,65.86080440477762],[22.417449376037204,65.86076212913744],[22.419133725348324,65.86142869814361],[22.427280945820794,65.86118261480473],[22.429286785688472,65.86054678457339],[22.431025128535126,65.86046208450935],[22.43250478255666,65.85948772809763],[22.43424304105019,65.85940299224653],[22.436136561254365,65.85985201462591],[22.436390314019413,65.86072427335597],[22.442369461000055,65.86012458800006],[22.449981114916636,65.85899310074073],[22.44809681540053,65.85854647702654],[22.448965883507316,65.85850402349517],[22.448427667698116,65.85816940897622],[22.44929672240206,65.85812695369292],[22.4491930315871,65.85777111239729],[22.45001022117492,65.85755073257279],[22.45266917151784,65.85760124496609],[22.459733139893068,65.85698145180353],[22.46139717100004,65.85656166100006],[22.465646744000026,65.85481452900007],[22.465513229000067,65.85401725800007],[22.463571625984965,65.85304058919895],[22.46351776770236,65.85400281196313],[22.46469830896259,65.85502775958199],[22.459484745239486,65.85528293525984],[22.459348220689826,65.85330459574386],[22.45842745115171,65.85316918940094],[22.455366971198128,65.8547625282694],[22.453142778023683,65.85469082140091],[22.4529871881142,65.85415706386564],[22.453804230530356,65.85393666517628],[22.454361906849368,65.85282666912715],[22.4556133223395,65.85258501836006],[22.45545769645583,65.85205126368903],[22.456222771993787,65.85165293469494],[22.45552899375741,65.85078459052366],[22.45412207748018,65.85049248335918],[22.45281889558265,65.85055620172297],[22.4522611958591,65.85166619236571],[22.44981019849113,65.85232734932079],[22.449913871480213,65.85268319036949],[22.447948988166278,65.85350100898543],[22.445394083935376,65.8538062549804],[22.44518685532831,65.85309456554697],[22.446717368151916,65.85229800309537],[22.448163982651696,65.84970098926426],[22.449311658159452,65.84910354852049],[22.450180404767952,65.8490610911891],[22.450459280504248,65.84850609967015],[22.452961747741387,65.84802285533404],[22.454057383398084,65.84724746142876],[22.454926057903805,65.84720497781029],[22.455327979857405,65.8455612241118],[22.456196594898696,65.84551873384453],[22.456909602434774,65.84494248527],[22.458646781295908,65.84485748230665],[22.46012450465257,65.8438828772511],[22.46099305350462,65.84384036035239],[22.461271643938787,65.84328535186883],[22.463060598866562,65.84337821593921],[22.465128068600652,65.84291604427554],[22.466190046151116,65.84051806747736],[22.467058469371167,65.8404755173098],[22.465930454089715,65.83962849633157],[22.46702534864233,65.83885301662667],[22.469630435256768,65.83872533884167],[22.47060268417851,65.83903859462559],[22.473589978588492,65.83871165057552],[22.473764312031626,65.83780080002727],[22.47598707857067,65.83787222059088],[22.475831137005418,65.837338489764],[22.477515736608815,65.8370753677286],[22.476925634541075,65.8365629429526],[22.477793902949884,65.83652033325099],[22.477689922695248,65.8361645141348],[22.480190661054458,65.83568084061413],[22.481336968765206,65.83508317265569],[22.481563020860996,65.83435022417994],[22.48281327631647,65.8341083619345],[22.482605203608095,65.83339673156219],[22.480660880651712,65.83277036493006],[22.48083493454662,65.83185950904088],[22.487623521852942,65.83098461240988],[22.48871739837411,65.83020898715282],[22.491601881625307,65.83042808929949]],[[22.383696616048315,65.82324557634549],[22.383594000546196,65.82288968037244],[22.38446199232941,65.82284760398738],[22.383696616048315,65.82324557634549]],[[22.356712895744792,65.8319486471947],[22.35535923138135,65.8318335693266],[22.354771668622323,65.83132064905054],[22.353903332934756,65.83136255991684],[22.353801090480278,65.83100664038554],[22.354950190725983,65.83040989536771],[22.35479681332033,65.82987601722618],[22.3562015063805,65.83016905995486],[22.355613966968605,65.82965614269351],[22.359087047413617,65.82948843320901],[22.35972581046891,65.83017929393358],[22.358423378062064,65.83024219995606],[22.358959831594436,65.83057714802084],[22.35814267875686,65.83079704044971],[22.358781451191753,65.83148790503213],[22.359700943882054,65.83162392390078],[22.35952258466693,65.83253468157206],[22.357632394826535,65.83208467845701],[22.357785846860804,65.83261855303178],[22.35691747328598,65.83266048139973],[22.356712895744792,65.8319486471947]],[[22.49072018895468,65.78589678429924],[22.493163863679413,65.78523504278083],[22.49533012818776,65.78512832157509],[22.496075334712227,65.78617439361558],[22.49373561091362,65.78719199031063],[22.493839575220516,65.78754779862224],[22.492435745831305,65.78725601417707],[22.491846550593184,65.7867436382432],[22.49049474442376,65.78662974033413],[22.49072018895468,65.78589678429924]],[[22.497202533030393,65.79604446125892],[22.49768799519694,65.79620100861463],[22.497254560169416,65.79622236380357],[22.497202533030393,65.79604446125892]],[[22.496717076741476,65.79588791230051],[22.497150506681923,65.79586655868883],[22.497202533030393,65.79604446125892],[22.496717076741476,65.79588791230051]],[[22.503086606580467,65.81614728779643],[22.503138723164476,65.81632518746494],[22.502704954977883,65.81634656140591],[22.503086606580467,65.81614728779643]],[[22.49540010710306,65.8154430585863],[22.495243926490023,65.81490934995162],[22.49324868656331,65.81410522955198],[22.4987139157053,65.8147384950798],[22.502062747967233,65.81565633387955],[22.50265284133761,65.8161686615605],[22.500536102158414,65.81645341273403],[22.499564370209328,65.8161403424968],[22.49734344237046,65.81606924715847],[22.49540010710306,65.8154430585863]],[[22.482251120335405,65.80959312521489],[22.48051641299236,65.80967837254803],[22.480308640792654,65.8089667361435],[22.478314329263192,65.80816241145516],[22.47833257965868,65.80671782867496],[22.4793738222359,65.80576436730558],[22.478854589112284,65.80398526995963],[22.48097056692417,65.803700826953],[22.48247907026411,65.8043485260805],[22.482582962372856,65.80470434277916],[22.481715775468583,65.80474696916923],[22.481386058450603,65.80512409818274],[22.481541880799966,65.8056578244757],[22.486033856408202,65.80597836774136],[22.487057018624792,65.80646943597141],[22.48792425286492,65.80642677875856],[22.489346728146206,65.80527401679171],[22.494341702947704,65.80430631065043],[22.496197328132446,65.80313214069669],[22.496023955276417,65.8040430073822],[22.494393730389284,65.80448421417078],[22.494653879460113,65.80537373139117],[22.496700516366403,65.80635574230749],[22.496579195984427,65.80744451210167],[22.493699894841093,65.80812767491437],[22.493370314720902,65.8085048284856],[22.489901122397416,65.8086755540783],[22.488912165454888,65.8098069901549],[22.48917218988521,65.81069651794631],[22.487055737833412,65.81098107933929],[22.486396303114102,65.81173535974668],[22.484453560574888,65.81110902601036],[22.48370804178758,65.81006290018705],[22.482251120335405,65.80959312521489]],[[22.488604565389625,65.79069298975638],[22.48806731244357,65.79035850552131],[22.489367346929285,65.79029451723524],[22.490026180454514,65.78954022989753],[22.491378138523995,65.78965413047253],[22.491482082241212,65.79000994059471],[22.490615407142723,65.79005261255989],[22.490337963468903,65.79060766328794],[22.489089873879312,65.79084956598038],[22.48919379181905,65.79120537791533],[22.48735645457694,65.79093487846961],[22.488604565389625,65.79069298975638]],[[22.490771311015102,65.79058632861152],[22.49082328055162,65.79076423391129],[22.49038993006776,65.79078556876416],[22.490771311015102,65.79058632861152]],[[22.487337296754497,65.79689110189791],[22.487822716953357,65.79704768106316],[22.487389257874838,65.79706900845207],[22.487337296754497,65.79689110189791]],[[22.486851882434227,65.79673452113028],[22.487285336423746,65.79671319531833],[22.487337296754497,65.79689110189791],[22.486851882434227,65.79673452113028]],[[22.491825568596116,65.81976966514561],[22.489934111218634,65.81932131281319],[22.48983004668586,65.81896550279845],[22.488476544322253,65.8188516035815],[22.4883725022058,65.81849579235467],[22.486741238200153,65.81893692753137],[22.485387749462724,65.81882300079079],[22.48512775712537,65.81793346622666],[22.486273179603252,65.81733576985395],[22.485857181296137,65.81591251685909],[22.487766014850617,65.81491634433314],[22.489067289439127,65.81485234648407],[22.489969250589386,65.81643215776305],[22.491582820127878,65.81743556701824],[22.49250246070793,65.81757078454625],[22.49258913654826,65.81937116880147],[22.494098869544672,65.82001874103088],[22.494133607384846,65.82164121991708],[22.492085814550517,65.8206591858234],[22.491825568596116,65.81976966514561]],[[22.48636647399252,65.79657793876038],[22.486418427655167,65.7967558457181],[22.48598497208661,65.79677716908186],[22.48636647399252,65.79657793876038]],[[22.48948131659441,65.8298105029347],[22.489533372397318,65.82998840784357],[22.48909936043185,65.83000974549279],[22.48948131659441,65.8298105029347]],[[22.47318459636721,65.80263961788013],[22.473236473733042,65.80281753007105],[22.472802903131154,65.80283881709606],[22.47318459636721,65.80263961788013]],[[22.46860918619785,65.81712038558776],[22.46866106701694,65.81729829930335],[22.468227248137193,65.81731957574348],[22.46860918619785,65.81712038558776]],[[22.461025172805023,65.80467977697722],[22.460539764126743,65.80452311242601],[22.461406985542915,65.80448060606733],[22.461025172805023,65.80467977697722]],[[22.467256324615196,65.83360841073706],[22.467360148218532,65.83396423847334],[22.46692604715522,65.83398551395891],[22.467256324615196,65.83360841073706]],[[22.462361055453055,65.81832898241045],[22.462412896038497,65.81850689864068],[22.46154520437655,65.81854941529267],[22.462361055453055,65.81832898241045]],[[22.461422364413846,65.81963817179914],[22.461474201681806,65.81981608838059],[22.46104033326045,65.81983734487461],[22.461422364413846,65.81963817179914]],[[22.458540741835957,65.82032069365171],[22.46076196291027,65.8203923507917],[22.46086563275879,65.82074818443128],[22.458955316001386,65.82174403484427],[22.456785791115767,65.82185027095747],[22.45520555578521,65.82246899506505],[22.452550245270285,65.82241849157558],[22.452291343604625,65.82152889058196],[22.458540741835957,65.82032069365171]],[[22.448602989108956,65.85725857764062],[22.448830138610607,65.8565256670686],[22.449802828536143,65.85683905098594],[22.449472012676686,65.85721612166118],[22.448602989108956,65.85725857764062]],[[22.439399008920866,65.82865537687597],[22.438148586825626,65.8288968852415],[22.438045191542873,65.82854103353188],[22.439399008920866,65.82865537687597]],[[22.421780644016366,65.84683750284742],[22.423290285538098,65.84748577600868],[22.422524809742637,65.84788394391482],[22.421656048158084,65.847926244133],[22.421118413081494,65.84759152787001],[22.419432515308884,65.84785404024409],[22.41966043299667,65.84712116569638],[22.421780644016366,65.84683750284742]],[[22.416127960596516,65.82582021883294],[22.416488751618424,65.82706576194533],[22.414370098307923,65.82734933634929],[22.413700269888725,65.82503617283255],[22.4163042751696,65.82490941507247],[22.41689289925142,65.82542208815364],[22.416127960596516,65.82582021883294]],[[22.423606610742,65.85919938876766],[22.421919983495822,65.85946193561792],[22.420947522963043,65.85914837204535],[22.420792569120593,65.85861457566386],[22.422965374390678,65.85850881944529],[22.423606610742,65.85919938876766]],[[22.41931650711623,65.85200992612126],[22.41936813146325,65.85218785902491],[22.41849921824542,65.85223014275272],[22.41931650711623,65.85200992612126]],[[22.404426256680782,65.85688397306932],[22.404477789729754,65.8570619118758],[22.404043236458833,65.85708301294787],[22.404426256680782,65.85688397306932]],[[22.39434580504925,65.83878798673132],[22.395802852541365,65.83925859942391],[22.395882907231233,65.84105910062509],[22.394351437788746,65.84185516287641],[22.392179898052817,65.84196050014786],[22.390774160000806,65.84166779847186],[22.390311577062707,65.84006629534004],[22.39092314237387,65.83913445222858],[22.39434580504925,65.83878798673132]],[[22.384852402168907,65.84556355151577],[22.3825264404818,65.84513491354663],[22.38237238531344,65.84460106967232],[22.383138400648225,65.84420309783148],[22.386127502879408,65.84387784737591],[22.386230254023864,65.84423374032728],[22.38952770872428,65.84497610083073],[22.390144576427947,65.84711144030454],[22.387052375844025,65.84708088035987],[22.384852402168907,65.84556355151577]],[[22.392287032911128,65.85909689444928],[22.390114026683097,65.85920221643045],[22.39164663549547,65.85840618575025],[22.392515810407403,65.85836405221353],[22.392287032911128,65.85909689444928]],[[22.369910015919274,65.7921573506203],[22.370343508342714,65.79213635678836],[22.37039465071897,65.7923143108362],[22.369910015919274,65.7921573506203]],[[22.368969750100987,65.79653321674856],[22.36940331701567,65.79651222487153],[22.369454463338503,65.79669017919466],[22.368969750100987,65.79653321674856]],[[22.369454463338503,65.79669017919466],[22.36993918246095,65.79684714004385],[22.369505610438786,65.79686813349313],[22.369454463338503,65.79669017919466]],[[22.37012612503744,65.83725468440433],[22.371863127352274,65.83717067006974],[22.37255370082326,65.83803942421729],[22.370101859888166,65.83869931025464],[22.3682622695755,65.83842739803592],[22.37012612503744,65.83725468440433]],[[22.377513971119356,65.86287967277444],[22.379355422750216,65.86315145570904],[22.379177607684714,65.86406223100809],[22.377209564814812,65.86487916982247],[22.375368009289765,65.86460736203104],[22.375111268739857,65.86371760999319],[22.375826603092662,65.86314171799138],[22.377513971119356,65.86287967277444]],[[22.376589603886128,65.85967657734223],[22.37664095097051,65.85985452729938],[22.376206323100263,65.8598755499312],[22.376589603886128,65.85967657734223]],[[22.352314316165863,65.78903906462469],[22.354812993665174,65.78855746465689],[22.353818767801773,65.78968807370225],[22.350988491900633,65.79054652201255],[22.349637040287103,65.79043137217805],[22.349535051749836,65.79007544731107],[22.352314316165863,65.78903906462469]],[[22.35264638105656,65.79479665554628],[22.352595355251044,65.79461869443338],[22.35302890598325,65.79459774925331],[22.35264638105656,65.79479665554628]],[[22.360211115820672,65.830336280053],[22.360262279372748,65.8305142372756],[22.359828130891966,65.83053520875085],[22.360211115820672,65.830336280053]],[[22.35975067889147,65.82873466393876],[22.359801835435864,65.82891262138355],[22.35893359081452,65.8289545599806],[22.35975067889147,65.82873466393876]],[[22.357783470479585,65.82648411367128],[22.357834608053388,65.82666207195797],[22.357400522154524,65.82668303593209],[22.357783470479585,65.82648411367128]],[[22.36093069138219,65.83896211008195],[22.360981880518555,65.83914006681407],[22.360547587210508,65.83916104172118],[22.36093069138219,65.83896211008195]],[[22.359576638483333,65.8388470733218],[22.35962781798031,65.83902503059994],[22.359193525287864,65.83904600165124],[22.359576638483333,65.8388470733218]],[[22.357354018046014,65.8387739572646],[22.357405181996928,65.83895191543611],[22.35697088836254,65.83897288017693],[22.357354018046014,65.8387739572646]],[[22.356997051397826,65.84059546925006],[22.356945886343144,65.84041751095326],[22.35738020438556,65.84039654605013],[22.356997051397826,65.84059546925006]],[[22.350429959063376,65.83153015430393],[22.35168137324148,65.83128935498986],[22.35221776281031,65.83162432734893],[22.35096633776281,65.83186513116223],[22.350429959063376,65.83153015430393]],[[22.35196221765095,65.83073452498793],[22.353647732634112,65.83047276090367],[22.352983878421657,65.83122650577486],[22.35168137324148,65.83128935498986],[22.35196221765095,65.83073452498793]],[[22.355591772127703,65.84030243945539],[22.356026089553232,65.84028147840827],[22.356077247921267,65.84045943707719],[22.355591772127703,65.84030243945539]],[[22.353034994134727,65.83140446587532],[22.35308611062582,65.83158242595111],[22.352651937107062,65.8316033772635],[22.353034994134727,65.83140446587532]],[[22.345807189980846,65.83229435736803],[22.34550079445119,65.83122657914451],[22.346420211863954,65.83136267869573],[22.346267004549773,65.83082879036591],[22.34795258731277,65.83056708849584],[22.34736520134977,65.83005413803282],[22.348233505687702,65.83001226464354],[22.34856549316843,65.82963540231638],[22.349484868311173,65.82977148382105],[22.349331608818854,65.82923759906271],[22.351119249138605,65.82933178653136],[22.351451185670513,65.82895491841742],[22.35231944494453,65.8289130222257],[22.35165558912931,65.82966676134137],[22.350889497725777,65.83006457602198],[22.34997010503395,65.82992850314223],[22.34968922518675,65.83048332982064],[22.348769823322545,65.83034724980222],[22.348923079101983,65.83088113515795],[22.348054746803527,65.8309230127355],[22.345807189980846,65.83229435736803]],[[22.338313897313647,65.79386455934272],[22.338364822760216,65.79404252619267],[22.337931267056955,65.79406342973991],[22.338313897313647,65.79386455934272]],[[22.346650100743943,65.83062989461942],[22.346599031019483,65.8304519319424],[22.347033191034864,65.83043099796821],[22.346650100743943,65.83062989461942]],[[22.34560268014317,65.83464973869424],[22.34565375298696,65.83482770167215],[22.345219517455654,65.83484863244578],[22.34560268014317,65.83464973869424]]],[[[22.351232636000077,65.77933246400005],[22.348582497000052,65.78030168400005],[22.343193426484095,65.78204066089646],[22.345788243202033,65.7815959960419],[22.346119682409196,65.78121914423083],[22.346986345396978,65.78117729366515],[22.347317761864684,65.78080043946801],[22.349000084413827,65.78053875725229],[22.35096274374948,65.77972223309423],[22.352858043655562,65.77958180964957],[22.351232636000077,65.77933246400005]]],[[[22.340841610551163,65.78273686907434],[22.34214277646363,65.78267408335701],[22.342774446084555,65.78216469702848],[22.340841610551163,65.78273686907434]]],[[[22.33811696933226,65.78352528285724],[22.338446099893105,65.78357411942609],[22.339574756588927,65.78310478522452],[22.33811696933226,65.78352528285724]]],[[[22.359092590616605,65.84175730409956],[22.357687224123318,65.84146429441824],[22.35789191953173,65.84217612616993],[22.358862976556033,65.84249010423915],[22.359680489686795,65.84227020451402],[22.359092590616605,65.84175730409956]]],[[[22.356252641814418,65.83034701878987],[22.35663565223552,65.83014809881546],[22.3562015063805,65.83016905995486],[22.356252641814418,65.83034701878987]]],[[[22.34051985316458,65.83381211797531],[22.341005114453246,65.83396916554602],[22.340954075799193,65.83379120068693],[22.34051985316458,65.83381211797531]]],[[[22.45978265539261,65.8532833385663],[22.459730748768667,65.85310542207927],[22.459296317020144,65.85312667908067],[22.45978265539261,65.8532833385663]]],[[[22.36162094920035,65.83983091666569],[22.361135452603882,65.83967393686211],[22.361186644857785,65.83985189349536],[22.36162094920035,65.83983091666569]]],[[[22.36031803383443,65.83989384347262],[22.36042040886607,65.84024975736024],[22.36128903170391,65.8402078066878],[22.361186644857785,65.83985189349536],[22.36031803383443,65.83989384347262]]],[[[22.35801541951818,65.83188575488631],[22.359317936284388,65.83182285153545],[22.359266776135556,65.83164489396455],[22.35801541951818,65.83188575488631]]],[[[22.361264275608423,65.84165243580965],[22.360829940168998,65.84167341192261],[22.360881135089492,65.84185136863177],[22.361264275608423,65.84165243580965]]],[[[22.358091529182545,65.83061908238334],[22.357657376808827,65.83064004772429],[22.357708523431807,65.83081800596432],[22.358091529182545,65.83061908238334]]],[[[22.35753009736312,65.83172876195042],[22.357964268224116,65.83170779679435],[22.357913117708602,65.83152983867768],[22.35753009736312,65.83172876195042]]],[[[22.357606230964308,65.83046208945954],[22.35717208076346,65.83048305339994],[22.357223223656664,65.83066101183836],[22.357606230964308,65.83046208945954]]],[[[22.357120938648656,65.8303050949369],[22.356686790620703,65.8303260574768],[22.356737929784217,65.83050401611351],[22.357120938648656,65.8303050949369]]],[[[22.355256966548065,65.83147765098484],[22.35747894979919,65.8315508036601],[22.356406052785978,65.83088089514685],[22.35510357513508,65.83094377328729],[22.355256966548065,65.83147765098484]]],[[[22.344459059480776,65.79843958631919],[22.3448926824106,65.79841866357235],[22.344841701509434,65.79824069943776],[22.344459059480776,65.79843958631919]]],[[[22.34292843249346,65.79923512481064],[22.343362070297797,65.79921420627183],[22.343311098071442,65.79903624154298],[22.34292843249346,65.79923512481064]]],[[[22.34828458566351,65.83019022667612],[22.348718739617787,65.83016928796768],[22.34866765669053,65.82999132610857],[22.34828458566351,65.83019022667612]]],[[[22.34800366666941,65.83074505062798],[22.347569502305596,65.83076598740291],[22.34762057948805,65.83094394968384],[22.34800366666941,65.83074505062798]]],[[[22.34843783025578,65.83072411262611],[22.34838674794754,65.83054615066744],[22.34800366666941,65.83074505062798],[22.34843783025578,65.83072411262611]]],[[[22.350737339104413,65.83873237527165],[22.349868745420338,65.83877426566295],[22.34991985760431,65.83895222683542],[22.350737339104413,65.83873237527165]]],[[[22.347186411395143,65.83096488540522],[22.34723748640334,65.83114284783503],[22.34767165744796,65.83112191194022],[22.347186411395143,65.83096488540522]]],[[[22.34900014862353,65.83881615114467],[22.349051254900225,65.83899411266422],[22.349485556641348,65.83897317036352],[22.34900014862353,65.83881615114467]]]]}},{"type":"Feature","properties":{"ice_type":9,"ice_type_name":"new_ice","iceact":"70","mean_thickness_cm":2.0,"max_thickness_cm":5.0,"min_thickness_cm":1.0,"source_date":"2023-11-06"},"geometry":{"type":"MultiPolygon","coordinates":[[[[22.045866876650887,65.5143086238472],[22.046592517593723,65.51386544048434],[22.046447682763905,65.51333117680575],[22.048781211132052,65.51232052101129],[22.050594406252202,65.5125965256257],[22.050497800079295,65.51224035287929],[22.05402180252106,65.51081330879119],[22.053490291390833,65.50885437159334],[22.052106414257256,65.50855835162774],[22.05229396689076,65.50764787381048],[22.05553318951152,65.50677510638056],[22.055629839912854,65.50713127551175],[22.056487952709197,65.50709115675097],[22.056016470602327,65.50855595112432],[22.057303707807247,65.50849576721617],[22.057491078201195,65.50758528469858],[22.0622044419772,65.50574169800171],[22.06196261294947,65.50485128749257],[22.063104536552,65.5042568097773],[22.064820542748908,65.50417648465314],[22.06682034837032,65.50354181016569],[22.067346131353293,65.50387788056409],[22.06863310662089,65.50381760272481],[22.068729922327947,65.50417376190553],[22.069636328412557,65.50431164919512],[22.069497816444848,65.5054002218],[22.0675947480826,65.50639109233435],[22.067933606575902,65.50763765144255],[22.069940364479514,65.50862574394466],[22.069179069780738,65.50902209789152],[22.069372765573117,65.50973441482745],[22.067801656223157,65.51034903438439],[22.068043745695565,65.51123943299511],[22.067185518105422,65.51127961842859],[22.067282347475068,65.51163577837245],[22.068189008121802,65.51177367188708],[22.06733076325266,65.51181385831008],[22.066617749893513,65.51238828055567],[22.067337388588843,65.51343666959937],[22.066049935872034,65.5134969409745],[22.066391926509834,65.5139287760383],[22.080915451000063,65.51960182200007],[22.085943222000026,65.52061271700006],[22.09132957500003,65.52103614800006],[22.09696388200007,65.52098655700007],[22.108541489000064,65.51986122100004],[22.11966044971143,65.51790960849124],[22.118810840633518,65.5157071535162],[22.119337538191267,65.51604303415449],[22.12153204467732,65.51611987907164],[22.123004587515787,65.5151485942165],[22.123569998104625,65.5140397435493],[22.12485731665054,65.51397898385126],[22.126339921410576,65.51463044153533],[22.126573731095487,65.51389795397503],[22.127383103904037,65.51367937514662],[22.128338970284783,65.51399496100497],[22.13215199684893,65.51363447313177],[22.13224972239994,65.51399058265844],[22.133107917620546,65.51395002832328],[22.132961313124564,65.51341586499699],[22.134726539142257,65.51351279759949],[22.135769369815232,65.51256167676131],[22.13677418489,65.51305526208172],[22.138968476394474,65.5131318560872],[22.139310845955702,65.51437822054007],[22.140413641218867,65.51522788410233],[22.142890417069314,65.51474996574777],[22.14298829404435,65.51510606686247],[22.141369718661995,65.5155433855519],[22.14227688309319,65.51568082994797],[22.14242369343254,65.51621498223604],[22.1437110661437,65.5161540615385],[22.144765125946297,65.51682564107942],[22.14653061986559,65.51692243330909],[22.146677525619687,65.51745658053741],[22.147535807636324,65.51741594349427],[22.147633760007345,65.51777204086292],[22.148608126437843,65.51780597782685],[22.144840926000022,65.51180770600006],[22.140950968000023,65.50842656800006],[22.13830401200005,65.50733416100007],[22.135414179000065,65.50671881100004],[22.132352378000057,65.50651009700003],[22.129189513000025,65.50663759800005],[22.122631954315203,65.5076692491517],[22.121530837921085,65.50818405854612],[22.122057412530243,65.50851993092556],[22.120770355065936,65.50858066427683],[22.11944438413993,65.51008610434397],[22.117923222952886,65.51087929286145],[22.115875400860965,65.51133657484144],[22.115972894180402,65.51169269712324],[22.110394846255403,65.51195557912358],[22.10920499096478,65.51237234265169],[22.10748861177877,65.51245317507109],[22.105966945794364,65.513246248153],[22.104679610371594,65.51330684722248],[22.1047769599525,65.51366297809338],[22.103967391287895,65.51388143781608],[22.0984373637259,65.51432195074506],[22.097773609440416,65.51507458163043],[22.096915311198593,65.51511493644993],[22.0963402973086,65.51460090617641],[22.094477901148586,65.51414738639694],[22.09271275584495,65.51404998326063],[22.09208925992357,65.51335786566028],[22.086178528987254,65.5139961640811],[22.085036727130387,65.51459081478455],[22.084178421044598,65.51463109740057],[22.082704438097338,65.5156020179169],[22.081846094444064,65.51564228765741],[22.079991291233704,65.51681139077894],[22.07703541274581,65.51713033736205],[22.07626678951446,65.51590392292111],[22.075311464513998,65.51558800286527],[22.07434909328544,65.51364926987138],[22.076494818114757,65.51354869403436],[22.078017414640144,65.51275590862768],[22.077920433915253,65.51239975701763],[22.07877867834393,65.51235951050495],[22.0786816890187,65.51200335946388],[22.080536221674112,65.51083427493121],[22.079808744490776,65.50816314952418],[22.078376136537287,65.50768929705117],[22.07665995003637,65.50776977774336],[22.07632067323022,65.50652324221488],[22.077559279917374,65.50628481087804],[22.078223413127198,65.50553226502271],[22.08060349090859,65.50469921259148],[22.082110444024195,65.50066078709399],[22.083618828908868,65.500253861372],[22.082800536996313,65.49851686882619],[22.08043581911852,65.49929657719761],[22.080573855650325,65.49820799907266],[22.081334667352415,65.49781159235494],[22.080331485191824,65.49731762309064],[22.080089132957525,65.4964272465355],[22.081392823566688,65.49591678450119],[22.078732961000075,65.49278072100005],[22.07585003446182,65.49158635065257],[22.07458973992107,65.49217651008287],[22.073303354174058,65.4922368329738],[22.072687805552587,65.49316743398104],[22.07149817180971,65.49358389874983],[22.07093093125367,65.49469257224644],[22.066745782360805,65.4968724804199],[22.0632180214323,65.49667698200865],[22.060403061221876,65.49590701361062],[22.059303693708028,65.49505673422297],[22.058445981101787,65.4950968651364],[22.05753400637926,65.49333608855665],[22.058063660794645,65.49208689240771],[22.04494564100003,65.49153106200004],[22.042025942000066,65.49183525600006],[22.036297720000046,65.49352856200004],[22.030662891000073,65.49619191000004],[22.028428382985553,65.49737439456374],[22.028761047068347,65.49774506447551],[22.024904599387327,65.4995476805889],[22.025000800194174,65.49990387358115],[22.026335807532732,65.50002205289157],[22.026528255261628,65.50073443654712],[22.02538563236452,65.50132864464454],[22.025481847643476,65.50168483718394],[22.02462385498247,65.50172477885042],[22.0243391600054,65.50227903798236],[22.023148325480086,65.50269513352765],[22.02324451634573,65.5030513277166],[22.024102555097535,65.50301139343887],[22.02386593801338,65.50374374863375],[22.02691725896827,65.50378204007673],[22.028440836495424,65.50298974452056],[22.029298863632246,65.50294978086578],[22.029968585478223,65.50382026989111],[22.028493143517835,65.50479067586184],[22.0287338315125,65.50568115067679],[22.02754291663614,65.5060972815795],[22.026307889522602,65.50795814510055],[22.021206757193845,65.50837585998708],[22.0202042751786,65.50788148529277],[22.01886888814429,65.50776325546774],[22.017818405301632,65.50709076558529],[22.01562488577236,65.5070124066194],[22.015003598428912,65.50631995059152],[22.011141836935543,65.50649938970999],[22.00918842213503,65.50731144531412],[22.00790110989836,65.50737122036377],[22.00732801269761,65.50685683384653],[22.0046690503743,65.50692230563699],[21.992258094000075,65.50815749400003],[21.98080617400006,65.50970297400004],[21.959102114955044,65.51342725144546],[21.957642586070293,65.51438446070439],[21.95597317731626,65.51464170189276],[21.955063980334383,65.51401523759522],[21.949097148000078,65.51460546700008],[21.94538769600007,65.51465074000004],[21.941080123498903,65.5141382929377],[21.940853086659413,65.51497691338703],[21.940042057625508,65.51519450883171],[21.940137170782016,65.51555076571688],[21.938849262649867,65.51560995854123],[21.938944361365557,65.51596621630968],[21.935080546406187,65.51614373227004],[21.93393514481438,65.516737274763],[21.932647161217684,65.51679641549148],[21.93274218055886,65.51715267789598],[21.93097733751716,65.5170533846927],[21.92902059571668,65.51786443537044],[21.928733699829998,65.51841853452204],[21.921911301695182,65.51891172961113],[21.92157680427158,65.51928768145227],[21.917854597688034,65.51999917004113],[21.915992030349642,65.52116633173156],[21.91470377932206,65.52122532219069],[21.913987116508284,65.52179905765863],[21.913128258750227,65.52183837469131],[21.912458928312244,65.52259024189036],[21.909929627088776,65.52288629289234],[21.90878335400875,65.52347965300024],[21.907924431519127,65.52351894109862],[21.90687611468951,65.52284566129471],[21.908593916334514,65.52276709252834],[21.909216002966932,65.5218371013993],[21.911173666868457,65.52102629833192],[21.910412683731607,65.51979897308705],[21.911653503904905,65.51956188063842],[21.91222803663727,65.51845373968217],[21.914949294147295,65.51724730334652],[21.91623734830799,65.51718831263773],[21.91633214554685,65.51754458741833],[21.91809697541426,65.5176440515931],[21.918621161546252,65.51798065330067],[21.92072052851978,65.51770414118336],[21.920625670725308,65.51734786972204],[21.922582641823652,65.5165369254743],[21.923443633410205,65.51487465846667],[21.925734712135498,65.51368772106288],[21.926355984111396,65.51275766698554],[21.927214519278238,65.5127182778898],[21.928886106655042,65.51083845718686],[21.933357657344775,65.50956849974258],[21.933168330000054,65.50797491100008],[21.934019764000027,65.50620566400005],[21.935996810000063,65.50442502000004],[21.94251597500005,65.50086716900006],[21.976264342000036,65.48591023100005],[21.994968103000076,65.48020946100007],[22.002276863000077,65.47748430800006],[22.01382347170487,65.47170446302941],[22.01478758064506,65.47008304626529],[22.01564455421007,65.4700431701226],[22.01598179409178,65.46928370870863],[22.005495065581545,65.47035012144843],[22.001599876240036,65.47105672051107],[21.998458870959873,65.47228452365577],[21.994269111871073,65.47283959126887],[21.99066664319925,65.47198695328296],[21.98771095300003,65.47243309000002],[21.981489182000075,65.4737911220001],[21.974901199000044,65.47583580000004],[21.968381882000074,65.47838401800004],[21.966091485369972,65.47942041551133],[21.966174339012486,65.47973009460148],[21.965316687765558,65.47977098300511],[21.965126510869126,65.48068009091732],[21.96388803042321,65.48091759990211],[21.962173149477646,65.48261964626664],[21.960934549746263,65.48285713216738],[21.961077434286363,65.483391495997],[21.959838787840486,65.48362897335613],[21.95964812900851,65.4845393653835],[21.95831418815903,65.48442058717175],[21.95883819451883,65.4847570513616],[21.958075858709883,65.48515285547921],[21.955598320038234,65.48562775314937],[21.955741113853264,65.48616212285755],[21.954883502373786,65.48620166516312],[21.95459746992807,65.48675580546855],[21.952929782380494,65.48701299692739],[21.952262447531524,65.48776502170577],[21.951404777144337,65.48780454482714],[21.949927244647665,65.48877420355524],[21.949069536905185,65.4888137137774],[21.94964108120273,65.48932833569387],[21.948735796448958,65.48918971869223],[21.94802073273693,65.48976360053597],[21.946781662236088,65.49000097485306],[21.946876756530376,65.4903572278255],[21.944779871936706,65.49063407964495],[21.941728854451426,65.49221700496946],[21.941156098452282,65.4933252416333],[21.939869287857857,65.49338443282379],[21.93915391683114,65.49395827557495],[21.938296019398358,65.49399772644641],[21.93839101563941,65.49435398565579],[21.93449134585797,65.49601424492863],[21.9346236417382,65.49651061248899],[21.932334441456014,65.49769766720705],[21.931476408895602,65.49773708064745],[21.931237222326764,65.49846931449228],[21.928172114182622,65.49952822802221],[21.92351741296229,65.50209806462684],[21.923841755894156,65.50331654993143],[21.92107028480676,65.50340987135688],[21.912451728426532,65.50782059560606],[21.913057287857946,65.5084988654496],[21.909478365442478,65.50974455309377],[21.909238467190704,65.510476758623],[21.908379972993227,65.51051604530612],[21.906852254485806,65.51130716866713],[21.90556446469474,65.51136607700161],[21.901508212384464,65.51245307501046],[21.90160278801147,65.51280936111527],[21.900362190114723,65.51304636908327],[21.900504035069932,65.51358079945945],[21.90346185227013,65.51326528525631],[21.903698372164072,65.51415599657977],[21.902123004860677,65.51476893311786],[21.902264897134742,65.51530336138349],[21.899830738921807,65.51595552391012],[21.89959052104289,65.51668771703864],[21.898731805210282,65.51672695102837],[21.898538828248228,65.51763728682688],[21.89734524422153,65.51805241656335],[21.895623664473458,65.5197537686594],[21.893523848402555,65.52002993667644],[21.891089028568594,65.5206819646656],[21.890754061331126,65.52105785269704],[21.88946574694763,65.52111662885697],[21.888469706443892,65.51899844619186],[21.89009287520474,65.51856379372359],[21.89076275927865,65.51781202028035],[21.893102843269457,65.51680370767508],[21.89329600592695,65.5158933770651],[21.894824404710015,65.51510238434484],[21.894588177034045,65.51421165643801],[21.891535689095143,65.51417070568242],[21.890389362276586,65.51476392701966],[21.88423232456488,65.51612656611154],[21.881939113196413,65.51731289455358],[21.88065095959094,65.5173715941624],[21.880556649805047,65.5170152925242],[21.883519928530408,65.51507724191492],[21.88299624974014,65.51474051388026],[21.88213756785647,65.51477965336117],[21.88194893317266,65.5140670519838],[21.87980227374357,65.51416487626413],[21.878226330471783,65.51477756927773],[21.876461822659323,65.5146776370028],[21.874503520870093,65.51548799688025],[21.8732154370901,65.51554663252978],[21.873121236677843,65.51519032522756],[21.874220876203186,65.51441907760032],[21.874226273633237,65.51279615197113],[21.875613756648328,65.51147088967275],[21.87871817645136,65.51006739306764],[21.879576709657687,65.51002827437975],[21.88072308455961,65.50943513448564],[21.880628808382962,65.50907883252624],[21.88411473979669,65.50747751582358],[21.884020425906666,65.50712121631783],[21.88559577660601,65.50650846839264],[21.886171164799975,65.50540041822065],[21.886982358654492,65.50518311008686],[21.888321624285716,65.50367959209679],[21.892952121639752,65.50148488220348],[21.89467221446879,65.50119262156939],[21.897436142000057,65.49835777300005],[21.89768409700002,65.49738502500003],[21.896203995000068,65.49736595200005],[21.893266678000032,65.49813652000005],[21.879135688009576,65.50343437704264],[21.879215006228176,65.50373429262369],[21.876064251758354,65.50495963968116],[21.874436268333447,65.5070170621771],[21.872243078199276,65.50693662059643],[21.871143683050224,65.50770785167951],[21.869473794348693,65.50796414256385],[21.867562811189266,65.50895256547234],[21.86589280606646,65.50920881789789],[21.865604647033205,65.5097628089527],[21.864363849524413,65.50999952352441],[21.86459900080891,65.51089030863415],[21.86340516503312,65.51130517294989],[21.863640297823544,65.51219595969978],[21.862828687515407,65.51241314646447],[21.863251925578258,65.51401656392797],[21.86244025604022,65.51423374915213],[21.862534306604715,65.51459006450139],[21.861675592700667,65.51462908813164],[21.860957922492222,65.5152025816968],[21.857710937571753,65.51607125005201],[21.8509345896783,65.51673941247702],[21.84974026759961,65.51715417340532],[21.84983415761486,65.51751049811482],[21.848738702642898,65.51720977309635],[21.84613990800005,65.51899528500007],[21.84507179300005,65.52046775800005],[21.8460534361044,65.52153522131854],[21.84857749900004,65.52222633400002],[21.85754051074941,65.52329073567144],[21.860020856428434,65.52317810289915],[21.861121213318675,65.52240694395937],[21.862745063416554,65.52197257862449],[21.86412759821563,65.52227034271402],[21.86364503960694,65.52373463456863],[21.86498061567831,65.52385423294666],[21.864839430386272,65.52331976329445],[21.866174989997557,65.52343935128457],[21.866033782968547,65.52290488294463],[21.869040194145246,65.52276818385037],[21.869281320105262,65.52203603093272],[21.871193169723917,65.52104757848406],[21.871098972941585,65.52069126992606],[21.87391663137776,65.51984185997675],[21.87739920558373,65.51986360484439],[21.87935267883235,65.52067612786261],[21.880159397015507,65.5220817733705],[21.877147949928634,65.52384161546593],[21.877430837584136,65.52491052682274],[21.87876653093043,65.52503000242712],[21.878525649251507,65.52576216813726],[21.876472304198767,65.52621625726678],[21.87301616381905,65.5278024111112],[21.875066757000067,65.52852058400002],[21.878320694000024,65.52876853900005],[21.887039183166358,65.5280154175767],[21.888017764138937,65.52713262016553],[21.89212410467339,65.52622410401858],[21.896943361629855,65.52636473569886],[21.898614133292266,65.52610813337338],[21.89956776527503,65.5264251841659],[21.901862799272962,65.52635877643772],[21.930521480556592,65.52390605139456],[21.934215346279107,65.52267473382125],[21.934739842407375,65.52301127673067],[21.93559869938807,65.52297183703216],[21.935074193147777,65.52263529719468],[21.936362458081994,65.52257613316449],[21.93712619368934,65.52218042565579],[21.939368384534884,65.52243804133997],[21.945332524901826,65.5219835532381],[21.94647788622372,65.52138992488771],[21.947336668458693,65.5213504192636],[21.94724143158533,65.52099416810545],[21.94915019401063,65.52000476023083],[21.95120173361242,65.51954970212134],[21.95186986317052,65.51879767491633],[21.953539578968652,65.51854047613735],[21.95611559727775,65.51842182748325],[21.95931169612333,65.51899583338601],[21.959884135307103,65.51951040786386],[21.960742831229602,65.5194708269575],[21.961076760889817,65.51909479393349],[21.962030869726505,65.51941144651013],[21.961935440965274,65.51905520640707],[21.963223455690898,65.51899581602984],[21.96312801249742,65.51863957681282],[21.964034400858015,65.51877809711456],[21.964749868939982,65.51820413597505],[21.966085573956224,65.51832284063067],[21.966419412050858,65.51794679667204],[21.968947542343663,65.51764981249235],[21.969281330693587,65.517273762684],[21.97114185550471,65.51772884098355],[21.971476287748512,65.51897565668682],[21.972948609944766,65.51991925737387],[21.97794375499769,65.5192431032131],[21.977916145916005,65.51867819103693],[21.9794420864501,65.51788636721882],[21.979346426957253,65.51753014028182],[21.983400093632497,65.51644108013551],[21.985975740743513,65.51632192654127],[21.98869329212939,65.51511419937384],[21.990410286422016,65.5150347094147],[21.992746184047594,65.51402489607622],[21.99803840457336,65.51269769752108],[22.0001844041639,65.51259820173676],[21.999565787606976,65.51352853335649],[22.000424214097233,65.51348872977573],[22.000616075037687,65.5142011518015],[22.002332965468216,65.51412152749177],[22.00285814989427,65.51445782762988],[22.005910718707995,65.51449653113534],[22.007912779559902,65.51386261465395],[22.010058829388136,65.51376297829307],[22.010343941543876,65.51320874218429],[22.010869208774444,65.51354501372283],[22.014683953272304,65.51318747155136],[22.013543807501254,65.51540444257952],[22.019123761283563,65.51514511485149],[22.020648225396208,65.51435288951185],[22.021506640122286,65.5143129663937],[22.021317974510467,65.51522341645051],[22.020558067155093,65.5156281514859],[22.034734726000064,65.51540565500004],[22.045866876650887,65.5143086238472]],[[22.136187531044726,65.5109186243853],[22.13661657488004,65.51089833717336],[22.136714348921775,65.51125444335547],[22.136187531044726,65.5109186243853]],[[22.136225508130956,65.50947391151574],[22.137034661761742,65.50925528314653],[22.136361241767446,65.50838530520552],[22.138604032781632,65.50863996143327],[22.1387018237028,65.50899606617497],[22.13789269248524,65.50921470324883],[22.13808826307658,65.5099269136925],[22.139375338175977,65.50986603277228],[22.13661657488004,65.51089833717336],[22.136225508130956,65.50947391151574]],[[22.13593223895434,65.5084055912969],[22.135883363331715,65.50822753784576],[22.136312363267503,65.50820725192087],[22.13593223895434,65.5084055912969]],[[22.13638307055815,65.51163083732247],[22.135954014475256,65.51165112399016],[22.13590513137179,65.51147307062425],[22.13638307055815,65.51163083732247]],[[22.136149554243865,65.5123633372216],[22.13572048591264,65.51238362334503],[22.13562272031388,65.51202751644283],[22.136149554243865,65.5123633372216]],[[22.134927623724014,65.5079119984279],[22.134498627337216,65.50793228038992],[22.13444976255191,65.5077542263698],[22.134927623724014,65.5079119984279]],[[22.066771954576833,65.5033637298358],[22.06720093915509,65.50334364013763],[22.067249335826464,65.50352172030266],[22.066771954576833,65.5033637298358]],[[22.068472858397794,65.51121933846248],[22.068521281357707,65.51139741795106],[22.068092165775713,65.51141751264862],[22.068472858397794,65.51121933846248]],[[22.05992586221458,65.49574899976788],[22.059068128052708,65.49578913441779],[22.05901980439154,65.49561105091873],[22.05992586221458,65.49574899976788]],[[22.044126065820937,65.50316010359842],[22.04498406954939,65.50312005115877],[22.044887582129565,65.50276387365173],[22.0474132814656,65.50246560145739],[22.047322107286018,65.50373225033348],[22.046179839505193,65.50432661213502],[22.04675363670215,65.5048408446614],[22.044420681517686,65.50585146380092],[22.044517176342804,65.5062076415207],[22.042849198502388,65.5064658276921],[22.0421789768318,65.5055954005378],[22.044126065820937,65.50316010359842]],[[22.044758426109045,65.5070980854221],[22.044189780478714,65.50820667173402],[22.042285533413164,65.50919723490391],[22.041427325145587,65.50923727397986],[22.041567022410973,65.50814871591008],[22.044758426109045,65.5070980854221]],[[22.04301431989269,65.51349140341051],[22.042585146265516,65.51351142628724],[22.042536895369704,65.51333333686925],[22.04301431989269,65.51349140341051]],[[22.03312966778014,65.50908312435537],[22.0316058894508,65.50987546900409],[22.03031851292511,65.50993543549282],[22.030458676859222,65.50884688326065],[22.031316892588833,65.50880690635955],[22.031649667117097,65.50843072869148],[22.033366063940033,65.50835075683126],[22.03312966778014,65.50908312435537]],[[21.987261905788255,65.51463947259171],[21.986832661898937,65.51465933793008],[21.98678478853842,65.51448122721109],[21.987261905788255,65.51463947259171]],[[21.985734841186876,65.51380850952285],[21.986593302301806,65.51376878411067],[21.986736915898458,65.51430311646968],[21.985401333931097,65.51418459298559],[21.985734841186876,65.51380850952285]],[[21.97109408234672,65.51755072436502],[21.971523388190015,65.51753090310493],[21.971571164231754,65.51770901956071],[21.97109408234672,65.51755072436502]],[[21.952691281651926,65.48774525833012],[21.952738863732918,65.48792338264093],[21.952310026735546,65.48794314617871],[21.952691281651926,65.48774525833012]],[[21.960265780425324,65.51931249732601],[21.9602180779414,65.5191343766132],[21.960647419774713,65.5191145858792],[21.960265780425324,65.51931249732601]],[[21.906351976803087,65.52250901847424],[21.905445745819254,65.52237015116812],[21.90535107594998,65.52201386840922],[21.906734078560273,65.52231123877326],[21.906446662495696,65.52286530045576],[21.906351976803087,65.52250901847424]],[[21.865433816332875,65.51734299104531],[21.864575017158252,65.51738203192532],[21.864527971533107,65.51720387509155],[21.865433816332875,65.51734299104531]],[[21.865145566884685,65.51789698198081],[21.86471615828401,65.51791650229569],[21.8646691105337,65.5177383455274],[21.865145566884685,65.51789698198081]],[[21.86237485458453,65.51892438705148],[21.86103334326202,65.52042769561085],[21.858074159535885,65.52074239278251],[21.857456679216327,65.5200492559996],[21.858603995270133,65.51945627514633],[21.86237485458453,65.51892438705148]]],[[[22.06588739209073,65.5137848188054],[22.06609834741436,65.51367502134308],[22.065669192171285,65.5136951095449],[22.06588739209073,65.5137848188054]]],[[[22.012878916603995,65.51567064442065],[22.012733394306235,65.51562242179477],[22.0127466016507,65.5156713731767],[22.012878916603995,65.51567064442065]]],[[[22.06401091766464,65.50439473102784],[22.063581912873342,65.50441481186857],[22.06363028728159,65.50459289340269],[22.06401091766464,65.50439473102784]]],[[[22.013114575222783,65.51542438238832],[22.01316263019017,65.51560248303349],[22.01359186535082,65.51558254306097],[22.013114575222783,65.51542438238832]]],[[[21.958930048132682,65.51919374154508],[21.95807135800332,65.51923331210783],[21.958166734844678,65.51958955513604],[21.959025436512015,65.51954998392338],[21.958930048132682,65.51919374154508]]]]}},{"type":"Feature","properties":{"ice_type":9,"ice_type_name":"new_ice","iceact":"70","mean_thickness_cm":2.0,"max_thickness_cm":5.0,"min_thickness_cm":1.0,"source_date":"2023-11-06"},"geometry":{"type":"MultiPolygon","coordinates":[[[[22.651969974821707,65.77147884696906],[22.641493443746775,65.7761879220281],[22.642651606165646,65.77653289152296],[22.64291652593064,65.77742210617208],[22.64215653955028,65.77782131786856],[22.638692667718605,65.77799537307074],[22.637932598145746,65.7783945645378],[22.637817324064162,65.7794833839639],[22.635695708753623,65.78121447377237],[22.636234651190886,65.78154842024493],[22.63357381303815,65.78294553686939],[22.63464220358173,65.78505795336041],[22.633121508426086,65.78585629769601],[22.633766408037438,65.78654594557514],[22.629382095043812,65.7865854311967],[22.628660192451527,65.78526745840591],[22.628347860000076,65.78923957800004],[22.630056976622555,65.79212543360504],[22.6312975495707,65.7903427182051],[22.639986277471895,65.78703463672049],[22.64538691747289,65.78236438831038],[22.6575697113765,65.7756053006684],[22.651969974821707,65.77147884696906]],[[22.634632677852665,65.78650246412623],[22.634685629534893,65.78668031021405],[22.633819353854356,65.78672379202243],[22.634632677852665,65.78650246412623]]],[[[22.629013045786902,65.78434491172223],[22.629127366536064,65.78425167593048],[22.62910131075598,65.78416408960288],[22.629013045786902,65.78434491172223]]]]}},{"type":"Feature","properties":{"ice_type":9,"ice_type_name":"new_ice","iceact":"70","mean_thickness_cm":3.0,"max_thickness_cm":5.0,"min_thickness_cm":1.0,"source_date":"2023-11-06"},"geometry":{"type":"Polygon","coordinates":[[[22.134469986000056,65.59163475000008],[22.135797501000063,65.588346481],[22.13481892550012,65.5858558772696],[22.1346924360499,65.58620140631106],[22.13359443005997,65.58625318936079],[22.129774834242784,65.58747631072363],[22.129588756821267,65.58824567093411],[22.128297780451557,65.58830650600082],[22.12715378916223,65.58890149510071],[22.1253257459765,65.5889474590298],[22.117445740000054,65.59163951700003],[22.112008856000045,65.59265737300005],[22.10641433800003,65.59269474200003],[22.091515856000058,65.59176536800004],[22.080049701345235,65.59199297123526],[22.078625915273328,65.59316357979343],[22.07934845518395,65.59421188294773],[22.080785941464857,65.59468567911816],[22.080168438407572,65.59561632810815],[22.081459912612466,65.59555589821377],[22.08241830647845,65.59587174982927],[22.088875643173495,65.59556939486863],[22.089639095557793,65.59517292156684],[22.090743864590042,65.59602292750469],[22.092084103810528,65.59614047601593],[22.093140210902025,65.59681239502483],[22.091466976691272,65.59707116741592],[22.091320661819527,65.59653696152515],[22.090459665717002,65.59657730546157],[22.090792630369364,65.59620099639316],[22.089021901296462,65.59610360366392],[22.0862521139536,65.59713509349433],[22.085780963241326,65.59859997572563],[22.077845488478985,65.59897130427201],[22.072534561000055,65.60636711100004],[22.07219505300003,65.60804176300009],[22.072923660000072,65.60933876000006],[22.07457923900006,65.61028480500005],[22.077749252000043,65.61073875400007],[22.08187675500005,65.61051368700002],[22.08669471700005,65.60976982100003],[22.094210989968374,65.60807890959524],[22.094297033774893,65.60739910716767],[22.095158380891913,65.60735873810873],[22.09501192042569,65.60682453722887],[22.09663691113875,65.60638765380918],[22.09649042690275,65.605853454577],[22.099074293549435,65.60573229701936],[22.100219660960896,65.60513750687625],[22.10108092210573,65.60509710500138],[22.101267262870692,65.60418657935207],[22.10222621544579,65.60450230040567],[22.103606579816464,65.60317502376978],[22.106043482709026,65.60251955952471],[22.10790300349454,65.60135009299228],[22.114400385079804,65.59960192698333],[22.114302515784882,65.5992458076307],[22.116406161549047,65.59896654029802],[22.116259321863357,65.59843236352415],[22.117599789002917,65.5985496843159],[22.119174910931243,65.5979345096811],[22.119076983861472,65.5975783939557],[22.12041741802708,65.597695690155],[22.1207009848091,65.59714126214047],[22.121610921988648,65.59727880377213],[22.12275540115722,65.59668385189389],[22.12361634026218,65.59664332512094],[22.123518358276886,65.59628721278415],[22.124379282827327,65.596246681818],[22.12466275046961,65.59569224733377],[22.12595410343898,65.59563143962787],[22.126618962731904,65.59487867518781],[22.128722115123306,65.59459924170109],[22.129866313597987,65.59400423881854],[22.129768258083708,65.59364813121508],[22.132454558971805,65.59352152553976],[22.134469986000056,65.59163475000008]],[[22.114674195368913,65.59742473307169],[22.114194775814813,65.59726691210555],[22.114625263416116,65.59724667346191],[22.114674195368913,65.59742473307169]],[[22.11495788278988,65.59687031464702],[22.115818842701263,65.5968298319503],[22.11548623640291,65.59720619252921],[22.114625263416116,65.59724667346191],[22.11495788278988,65.59687031464702]],[[22.090451285371312,65.5949545136897],[22.09088175695595,65.5949343426077],[22.090930521218674,65.59511241146852],[22.090451285371312,65.5949545136897]],[[22.090069571514057,65.59515275274924],[22.090500046734366,65.59513258271646],[22.090548808833432,65.59531065172023],[22.090069571514057,65.59515275274924]]]}}]}