{"type":"FeatureCollection","properties":{"source":"SMHI SE.SR Ytansamling av alger","date":"2018-07-19","note":"Test: SMHI WFS clipped to Lulea municipal sea area and simplified 20 m."},"features":[{"type":"Feature","properties":{"cyano_daymap_file_id":4142,"date":"2018-07-19Z","cloud":null,"sub_surfac":null,"surface":null,"no_data":null,"class":1,"color_hex":null,"algae_class":"class_1","source_date":"2018-07-19"},"geometry":{"type":"MultiPolygon","coordinates":[[[[22.773351109999993,65.55179809999998],[22.787899568275883,65.55104792492439],[22.787796924789763,65.55070631463315],[22.794457375787843,65.5495352438187],[22.79283596193477,65.54413560957532],[22.792042198837635,65.54452928130674],[22.792202499982327,65.54506263800008],[22.787266593168248,65.54603955741814],[22.78742680786866,65.54657292008748],[22.786568503903055,65.54661720051025],[22.785118840781188,65.54759468954306],[22.783886808035703,65.5463944347749],[22.7812051553388,65.5461716210567],[22.780560286128757,65.54692702807799],[22.783617795377214,65.54694993304841],[22.78275947120361,65.54699419207489],[22.782543804189096,65.54772747823296],[22.78125627504467,65.54779385625747],[22.781416379846778,65.548327226453],[22.778625460692517,65.54919323497437],[22.777927096614626,65.5497708410926],[22.776639452420227,65.54983718103682],[22.776746135299497,65.55019276501268],[22.773794886415338,65.55052531165431],[22.773083102426657,65.55090381072333],[22.773351109999993,65.55179809999998]]],[[[22.784127439999992,65.51513447999999],[22.826971259999997,65.51291660999999],[22.83501914,65.53958202],[22.85645951,65.5384672],[22.8537677,65.52957925],[22.91805515,65.52621804],[22.92076843,65.53510461],[22.942200659999997,65.53397770999999],[22.94492314,65.54286375],[22.948168852343883,65.54269236994294],[22.962558911962564,65.5238746314452],[22.96090326999999,65.52396215999998],[22.958177729999996,65.51507643999999],[22.93676184,65.51620543],[22.93133118,65.49843286],[22.888521849999993,65.50067994999999],[22.883127859999995,65.48290527999998],[22.861734419999998,65.48402339],[22.85904757999999,65.47513549],[22.816268909999998,65.47736176999999],[22.81359834,65.46847289],[22.760324903119056,65.47122574318101],[22.76100313820573,65.47138713792333],[22.76110561757178,65.47318719644484],[22.75987472903665,65.47343115511126],[22.75939001857104,65.47471986288875],[22.757890122249236,65.47551925950695],[22.756231071881842,65.4757852351111],[22.755003948026665,65.47458469485449],[22.756022879849475,65.47362956488222],[22.755157629469817,65.47149275703511],[22.74943671,65.47178838],[22.75007657247822,65.47393565991243],[22.751742971808344,65.47384990571169],[22.75200790416267,65.47473892709519],[22.75355692277448,65.47556185280729],[22.751946715164287,65.47745004817638],[22.752961825218158,65.47793939857162],[22.75601125186062,65.4779629460582],[22.756117300548954,65.47831855088923],[22.755314191946766,65.47854043358254],[22.75637859367403,65.48065202262265],[22.75573450346559,65.48140731498458],[22.755620692656237,65.48394063097795],[22.75427925088453,65.48527340600073],[22.75304773152444,65.48551731568062],[22.751657149834635,65.48522780335304],[22.75182026738628,65.48431675298832],[22.751180076340905,65.48362756527918],[22.749039289836062,65.48373769098079],[22.748077002066502,65.48342612154445],[22.74390132105334,65.48400186969519],[22.74401175047809,65.48291301754652],[22.742299140491745,65.48300103903635],[22.742087376072323,65.48228980636478],[22.744369082936178,65.48107460043605],[22.73663218971723,65.48148688368296],[22.736362750697477,65.48204230181824],[22.73518409830161,65.48246387678832],[22.735342780946688,65.4829973100552],[22.7370025125232,65.48273155682176],[22.737050517853696,65.48435383792024],[22.738387978250188,65.48446567713208],[22.740798249215324,65.4838002763663],[22.740904119698424,65.48415589377176],[22.740047769297593,65.48419988979998],[22.740528878472368,65.48435570123175],[22.74057711225303,65.48597797883808],[22.741486464166755,65.48611178760463],[22.741698249631412,65.48682302092952],[22.74073124489255,65.48795587370398],[22.743353612985903,65.48800166324966],[22.744311536702128,65.48975772823304],[22.74318564172991,65.49035717505461],[22.74398472141772,65.49157981877636],[22.741732712404538,65.49277870148245],[22.741944569799927,65.49348993376205],[22.74114087646681,65.49371174724507],[22.740871423491182,65.49426717364882],[22.738782660176263,65.49455497224982],[22.738248426157885,65.49422134759895],[22.73696339682442,65.49428732252221],[22.73680459834619,65.49375389210498],[22.73589499978182,65.49362005772298],[22.73431731830049,65.49398082724734],[22.73597761,65.49955937999998],[22.757390220000005,65.49845889],[22.760045379999998,65.50734891999998],[22.73862562,65.50844987],[22.746581579999994,65.53512092999999],[22.768022819999995,65.53401863],[22.770850884698802,65.54345533323318],[22.772520839353685,65.54336936699715],[22.77316315701198,65.54405844235603],[22.77192907463502,65.54430253311376],[22.772088962869525,65.54483591541658],[22.771277155020062,65.54487771459547],[22.771854833246465,65.54680531476288],[22.774338637368768,65.54652544664489],[22.77423200541055,65.54616986045569],[22.776001958268832,65.54625922690533],[22.77541282999016,65.54574795761093],[22.777236092128312,65.54601510237971],[22.77712942319206,65.54565951862236],[22.778363517788048,65.54541538531335],[22.777827700367055,65.54508191712631],[22.783084024773693,65.54517204047066],[22.783353032817608,65.54461654320751],[22.782494784876118,65.544660799932],[22.782388050946363,65.5443052205705],[22.78319291590789,65.54408317521404],[22.783032806223044,65.5435498069791],[22.782121230168876,65.54341627169724],[22.781907787994008,65.54270511211581],[22.784215462038695,65.5416833947823],[22.784484414259015,65.54112789611811],[22.7857182237284,65.54088370582188],[22.78561146452082,65.54052812901747],[22.784753355686153,65.540572397093],[22.784968913198163,65.53983910900244],[22.784433131754174,65.53950566385724],[22.78362841704311,65.53972771422333],[22.783521692022735,65.53937213559105],[22.78379063824925,65.53881663824],[22.785131087821753,65.53892803206912],[22.784544049031187,65.53697235506908],[22.78534867183201,65.53675030080463],[22.785564187419666,65.53601701234253],[22.78669099807659,65.53541723975266],[22.787548933439425,65.5353729625097],[22.786799722183513,65.53432837379306],[22.78797981122442,65.53390638065342],[22.787177258124515,65.53268400585463],[22.78631941038498,65.53272828006791],[22.78578376391529,65.53239483832087],[22.78610798561419,65.53057268406153],[22.788304277161053,65.5290441878276],[22.784127439999992,65.51513447999999]],[[22.813993640177465,65.50313168118892],[22.81351175283059,65.50297611209542],[22.813940160945588,65.5029539039303],[22.813993640177465,65.50313168118892]],[[22.814154647924592,65.50222058598246],[22.815011437265266,65.50217616507676],[22.814796974764494,65.50290948398141],[22.813940160945588,65.5029539039303],[22.814154647924592,65.50222058598246]],[[22.788918144895295,65.4746399998396],[22.78806220369119,65.47468426380134],[22.788008970834444,65.4745064748457],[22.78881166856915,65.4742844226261],[22.788918144895295,65.4746399998396]],[[22.78482868531738,65.49001687307414],[22.783972232532452,65.49006111926109],[22.78391898966309,65.48988332893278],[22.784722188951363,65.48966129311543],[22.78482868531738,65.49001687307414]],[[22.78367965065653,65.54134994727434],[22.783626283390902,65.5411721580316],[22.784055349226588,65.54115002767912],[22.78367965065653,65.54134994727434]],[[22.782287931674787,65.5396163074521],[22.781429846021943,65.53966055643077],[22.78132315129323,65.53930497593022],[22.782287931674787,65.5396163074521]],[[22.78212565445623,65.54052738242054],[22.781696596884103,65.5405495072129],[22.781643245106988,65.54037171711012],[22.78212565445623,65.54052738242054]],[[22.781320888219497,65.54074942105416],[22.781374238732347,65.54092721128477],[22.78094517381626,65.54094933402297],[22.781320888219497,65.54074942105416]],[[22.78110749419144,65.54003825986358],[22.78067844362018,65.54006038169456],[22.780625099987752,65.53988259114844],[22.78110749419144,65.54003825986358]],[[22.776009593080737,65.54192588269919],[22.77584964622256,65.54139250517429],[22.778104123334458,65.54019308730156],[22.779767002174484,65.53992683082198],[22.77987367876603,65.54028241261311],[22.78073178805484,65.54023817221386],[22.780356076179828,65.54043808369168],[22.78089182617245,65.54077154361087],[22.779764654730307,65.54137127681838],[22.7789065061957,65.54141551214326],[22.779066515716334,65.54194888577908],[22.77692108729206,65.54205945566143],[22.77681444216989,65.54170387145061],[22.776009593080737,65.54192588269919]],[[22.773747724768842,65.49076949196585],[22.77358820185532,65.49023610794596],[22.77439150315924,65.49001412599326],[22.774660199919694,65.4894586478594],[22.776266722652124,65.48901466912626],[22.776801324122026,65.48934815537966],[22.777657768209924,65.48930394994787],[22.778405211463355,65.49034860191985],[22.777280091380717,65.49094829465058],[22.774388693424793,65.49145857582725],[22.774495058126014,65.49181416446449],[22.77363852537282,65.4918583528976],[22.773316608548004,65.49223603492132],[22.770693793404504,65.49219077033537],[22.773747724768842,65.49076949196585]],[[22.77739856348725,65.54510403056022],[22.77734522975902,65.54492623874233],[22.777774363768675,65.54490412548981],[22.77739856348725,65.54510403056022]],[[22.77621780067258,65.54552594825272],[22.77664694570136,65.54550383808252],[22.776700276095767,65.54568163018278],[22.77621780067258,65.54552594825272]],[[22.773592281024595,65.54403634107071],[22.773645586979814,65.54421413450008],[22.773216460097125,65.54423623596671],[22.773592281024595,65.54403634107071]],[[22.742082751714868,65.48373427436252],[22.741654585010163,65.48375627623606],[22.74154870627973,65.483400659445],[22.742082751714868,65.48373427436252]],[[22.7407453151655,65.48362246762373],[22.741173480604132,65.48360046834158],[22.7412264175103,65.48377827690399],[22.7407453151655,65.48362246762373]]],[[[22.70928726,65.48287479],[22.711924149999998,65.49176585999999],[22.7333316,65.49066883],[22.73410959305958,65.49328287386071],[22.736756555427203,65.49213161114777],[22.735688255291105,65.49146434388622],[22.73585195766641,65.4905533045899],[22.735317845636818,65.49021966831127],[22.736501753245935,65.48835361771387],[22.734630045254928,65.48790812451197],[22.733398209457377,65.48815187727519],[22.733075747050865,65.48852947917914],[22.73221923755516,65.48857343248604],[22.73163233037451,65.4880619699687],[22.729543950290605,65.48834963678291],[22.727942034292155,65.48734865099594],[22.724997172154705,65.48768017884464],[22.724727428059666,65.48823557944826],[22.72387091124916,65.48827948548912],[22.72451609025102,65.48752431764393],[22.72151834754579,65.48767796264863],[22.72071465003097,65.48789966747613],[22.72082026749351,65.48825530161386],[22.71910721356456,65.48834306473633],[22.718790439279402,65.48727615769369],[22.717933941851044,65.48732002986286],[22.718309400879217,65.48712027626871],[22.717670013651396,65.48643093813793],[22.719547200002783,65.4854321652678],[22.719336030404225,65.48472089447726],[22.71789306706052,65.48425324924335],[22.715376619845507,65.4845626523918],[22.714309179476572,65.48389522501637],[22.71259638468239,65.48398291157572],[22.711886294775496,65.48274142306272],[22.70928726,65.48287479]],[[22.72242766840274,65.4878118864953],[22.72248048816922,65.48798970285843],[22.721623974854403,65.48803359612032],[22.72242766840274,65.4878118864953]]],[[[22.740148907293047,65.485999976845],[22.740201843101687,65.48617778578303],[22.740630050918597,65.48615578759598],[22.740148907293047,65.485999976845]]],[[[22.736323333843348,65.49359807042102],[22.736270406260324,65.49342026002226],[22.735842075057644,65.49344224714415],[22.736323333843348,65.49359807042102]]]]}}]}