{"type":"FeatureCollection","properties":{"source":"SMHI SE.SR Ytansamling av alger","date":"2026-07-01","note":"Test: SMHI WFS clipped to Lulea municipal sea area and simplified 20 m."},"features":[{"type":"Feature","properties":{"cyano_daymap_file_id":723730,"date":"2026-07-01Z","cloud":null,"sub_surfac":null,"surface":null,"no_data":null,"class":1,"color_hex":null,"algae_class":"class_1","source_date":"2026-07-01"},"geometry":{"type":"Polygon","coordinates":[[[21.968586339999998,65.39269026999999],[21.96384176,65.37487811],[21.989487555629545,65.37368461397745],[21.99060350644846,65.37346954755552],[21.990508330916178,65.37311332228033],[21.99264296678924,65.37301404181513],[21.992927082602673,65.3724598469533],[21.994587128402426,65.37220228694112],[22.000371244767145,65.36958876968997],[22.002837083256182,65.36911324954946],[22.004544488535906,65.36903369073207],[22.006442626359114,65.36966653948528],[22.008102355902572,65.36940883354751],[22.009003764064566,65.36954713239112],[22.00909917449412,65.36990334371416],[22.009857470920576,65.36950732040194],[22.01199172556143,65.36940776937577],[22.01208717584942,65.36976397842061],[22.015928840436366,65.36958470785268],[22.016639267508957,65.36901054848741],[22.021525598127756,65.36950369035233],[22.023898825096133,65.37029447459267],[22.02551410614297,65.37148132397627],[22.024660363924585,65.37152122506595],[22.024965027475897,65.37203357447956],[22.027881039999997,65.37189786999998],[22.032668369999996,65.38970759],[22.054025469999996,65.38870735],[22.05162378,65.37980292],[22.072971959999993,65.37880007999999],[22.06815973999999,65.36099186999999],[22.0468258,65.36199389999999],[22.042034989999994,65.34418464999997],[22.02071346,65.34518285],[22.018327840000005,65.33627774000001],[21.997011629999996,65.33727253],[21.99939015,65.34617805],[21.97806506,65.34717025],[21.976274211050928,65.34044466980711],[21.95750082725487,65.35102780803027],[21.95910428,65.35706572],[21.94568985526181,65.35768601895857],[21.93871473998488,65.36161810759535],[21.9472221,65.39367848],[21.968586339999998,65.39269026999999]],[[22.016873163155733,65.34086783089761],[22.0164467807809,65.34088775282585],[22.01639908915397,65.34070964929654],[22.016873163155733,65.34086783089761]],[[22.01356546148157,65.34625194577208],[22.01531904072845,65.34635038387259],[22.015557531332025,65.34724090269042],[22.014799946897092,65.34763694793195],[22.014659622669885,65.34872548956346],[22.01375890757148,65.34858721782429],[22.01342777443863,65.34896334117265],[22.01139053560213,65.34941910702018],[22.007978308422064,65.34957833560817],[22.009729634864993,65.34805398013819],[22.01356546148157,65.34625194577208]],[[22.011944001489056,65.36922966481966],[22.01237084742727,65.3692097511681],[22.012418574346565,65.36938785556146],[22.011944001489056,65.36922966481966]],[[22.007599428082695,65.34977634047439],[22.00717289292191,65.34979623759972],[22.007125244497963,65.34961813073572],[22.007599428082695,65.34977634047439]],[[21.996432506435646,65.3677885599883],[21.986662614907296,65.3684233428736],[21.984291604383337,65.3692548307873],[21.982915930696336,65.36895809885782],[21.98229897284545,65.36826546580346],[21.983105160758562,65.36804768954873],[21.982962586484625,65.3675133426447],[21.983768745925094,65.36729556310908],[21.984005465854043,65.36656326838089],[21.987845730577753,65.36476184741807],[21.989219990824694,65.3634356676513],[21.99087950924189,65.36317815355578],[21.991163567490627,65.36262396249597],[21.993392516153744,65.3628809046245],[21.99533592062236,65.36206914726492],[21.998227890846362,65.36157384286163],[21.99851177764927,65.3610196395843],[22.001451203587507,65.36070238468116],[22.001546472934237,65.3610586021952],[22.002826639458565,65.36099894961062],[22.002921928728046,65.36135516606001],[22.001689382300857,65.3615929282981],[22.001832298083674,65.36212725419921],[22.003682209989005,65.3625820348638],[22.004299585459652,65.36327457629982],[22.00439490465272,65.36363079151594],[22.00306696294481,65.36351235054524],[22.00325757288772,65.36422478274848],[22.004585551598606,65.36434322167894],[22.004540082863443,65.36578797311935],[22.00292819895679,65.36622374606965],[22.00302351251496,65.36657996219337],[22.002169888158022,65.36661973464471],[22.000796131249746,65.36794602766433],[21.999231688120467,65.36855987185537],[21.997951143717057,65.36861949751275],[21.996432506435646,65.3677885599883]]]}},{"type":"Feature","properties":{"cyano_daymap_file_id":723730,"date":"2026-07-01Z","cloud":null,"sub_surfac":null,"surface":null,"no_data":null,"class":1,"color_hex":null,"algae_class":"class_1","source_date":"2026-07-01"},"geometry":{"type":"MultiPolygon","coordinates":[[[[22.051373549999997,65.29866137],[22.0537662,65.3075659],[22.075055789999997,65.30656332],[22.077457319999997,65.31546737999999],[22.14133654,65.31244043999999],[22.138913790000004,65.30353761],[22.16019618,65.30252305],[22.162626010000004,65.31142547],[22.18391365,65.31040749],[22.186352369999998,65.31930943],[22.207645269999997,65.31828804999999],[22.205199479999997,65.30938651999999],[22.226483479999995,65.30836256],[22.224032459999997,65.29946139000002],[22.245307569999994,65.29843484999998],[22.240396889999996,65.28063316999999],[22.261656050000003,65.27960447],[22.26411753,65.28850492],[22.28538191,65.28747281],[22.287852279999996,65.29637278],[22.33038962,65.29429873],[22.33287594,65.30319779],[22.396689189999993,65.30006300999999],[22.394181709999998,65.29116523],[22.415442009999996,65.29011473999999],[22.40540261,65.25452471],[22.4266329,65.25347295],[22.4241207,65.24457571],[22.40289743,65.24562704999998],[22.400394109999997,65.23672932],[22.379176000000005,65.23777724],[22.37668156,65.22887903],[22.355468599999995,65.22992355],[22.352983019999993,65.22102485],[22.331775219999997,65.22206596],[22.324350579999997,65.19536823999998],[22.303161950000003,65.1964051],[22.30069774,65.18750532],[22.242555930494266,65.19033341262617],[22.23780475626308,65.1930117967767],[22.23958508,65.1994978],[22.225052710533678,65.20020052013356],[22.219203955998484,65.2034976443149],[22.220827180000004,65.20942413000002],[22.242030119999995,65.20839878],[22.251828469999996,65.24400209999999],[22.273057659999996,65.24297209],[22.275518839999997,65.25187235],[22.23304458,65.25393022999998],[22.22815216,65.23612796],[22.20692636,65.23715159],[22.204489909999996,65.22824995],[22.22570869,65.22722675],[22.223267030000002,65.21832547000001],[22.202055259999998,65.21934826],[22.200591435281357,65.21399009903539],[22.050304396119884,65.29871156032718],[22.051373549999997,65.29866137]],[[22.29181864,65.23303919],[22.313037129999998,65.23200361999999],[22.315510519999997,65.24090309999998],[22.29428501,65.24193909],[22.29181864,65.23303919]],[[22.192997900000005,65.26487802],[22.21424662,65.26385614],[22.21669034,65.27275753999999],[22.19543457,65.27377983999999],[22.192997900000005,65.26487802]]],[[[22.295774799999997,65.16970558],[22.293536425433366,65.16159412777024],[22.27757510601027,65.17059201816193],[22.295774799999997,65.16970558]]],[[[22.386660889999998,65.11110986],[22.389145259999992,65.12000800999999],[22.41026893,65.11895967],[22.412762089999994,65.12785732999998],[22.433890849999997,65.1268056],[22.436392809999997,65.13570277999999],[22.415257089999997,65.13675493999999],[22.41775395,65.14565248],[22.39660943,65.14670209],[22.401594769999996,65.16449784999999],[22.422753229999998,65.16344738],[22.425255649999993,65.17234473999997],[22.446419229999997,65.17129087],[22.44893049,65.18018774],[22.51243093,65.177007],[22.509898750000005,65.16811142000002],[22.531054839999996,65.16704566],[22.528517579999992,65.15815044999998],[22.549664829999998,65.15708215999999],[22.542043479999997,65.13039744999999],[22.563167989999997,65.12932748999998],[22.560624359999995,65.12043289],[22.602853849999995,65.11828493],[22.597744529999996,65.1004973],[22.68212536,65.09616932],[22.67954587,65.08727716],[22.716589852132966,65.08536117723807],[22.687722653553607,65.08294181426642],[22.6549815048834,65.0812580646165],[22.622043315924994,65.0805348656589],[22.5890680589074,65.08077551930198],[22.5562078378235,65.0819784364121],[22.5236222511317,65.0841381956597],[22.4989570328592,65.0864342959367],[22.4512775467598,65.06965380799399],[22.380065184476692,65.11143573858386],[22.386660889999998,65.11110986]],[[22.471116699999996,65.1069004],[22.513333469999996,65.10477789],[22.51585947,65.11367346999998],[22.473628829999996,65.11579684999998],[22.471116699999996,65.1069004]]]]}}]}