{"type":"FeatureCollection","properties":{"source":"SMHI SE.SR Ytansamling av alger","date":"2026-08-01","note":"Test: SMHI WFS clipped to Lulea municipal sea area and simplified 20 m."},"features":[{"type":"Feature","properties":{"cyano_daymap_file_id":723760,"date":"2026-08-01Z","cloud":null,"sub_surfac":null,"surface":null,"no_data":null,"class":1,"color_hex":null,"algae_class":"class_1","source_date":"2026-08-01"},"geometry":{"type":"Polygon","coordinates":[[[23.00499959,65.31393401],[23.00228545,65.305049],[23.04476524,65.30277335],[23.039315,65.28500499],[22.9544034,65.28954067],[22.95709948,65.29842673],[22.935859540000003,65.29955366],[22.94124369,65.31732648999999],[23.00499959,65.31393401]]]}},{"type":"Feature","properties":{"cyano_daymap_file_id":723760,"date":"2026-08-01Z","cloud":null,"sub_surfac":null,"surface":null,"no_data":null,"class":1,"color_hex":null,"algae_class":"class_1","source_date":"2026-08-01"},"geometry":{"type":"Polygon","coordinates":[[[22.86945969,65.29402864],[22.86679366,65.28514068],[22.930483399999996,65.28178054],[22.92511526,65.26400716000002],[22.946327189999998,65.26288206],[22.94095305,65.24510931],[22.91975511,65.24623349],[22.917078019999998,65.23734656],[22.895885059999994,65.23846730999999],[22.898555169999998,65.24735469999999],[22.877353239999998,65.24847293],[22.882685429999995,65.26624841],[22.861467539999996,65.26736457],[22.858807450000004,65.2584764],[22.77394412,65.26290943],[22.7765762,65.27179939],[22.81902581,65.26958794],[22.82167386,65.27847694],[22.84290272,65.27736629],[22.845559760000004,65.28625477],[22.824323889999995,65.28736586999999],[22.826975900000004,65.29625472999999],[22.86945969,65.29402864]]]}},{"type":"Feature","properties":{"cyano_daymap_file_id":723760,"date":"2026-08-01Z","cloud":null,"sub_surfac":null,"surface":null,"no_data":null,"class":1,"color_hex":null,"algae_class":"class_1","source_date":"2026-08-01"},"geometry":{"type":"Polygon","coordinates":[[[22.61185742,65.29831272],[22.606699749999997,65.28052587999998],[22.62794108,65.27944551],[22.622777049999993,65.26165929999999],[22.601549759999997,65.26273878999999],[22.598977640000005,65.25384515],[22.53530535,65.25706439],[22.54040939,65.27485423],[22.582887569999993,65.27270930999998],[22.5854565,65.28160326000001],[22.564211340000004,65.28267765],[22.56934087,65.30046624],[22.61185742,65.29831272]]]}},{"type":"Feature","properties":{"cyano_daymap_file_id":723760,"date":"2026-08-01Z","cloud":null,"sub_surfac":null,"surface":null,"no_data":null,"class":1,"color_hex":null,"algae_class":"class_1","source_date":"2026-08-01"},"geometry":{"type":"Polygon","coordinates":[[[23.044193799999995,65.23055962],[23.036049059999993,65.20390666999998],[22.99372693,65.20617811],[22.991029949999998,65.19729273],[22.969872830000003,65.19842354],[22.98064493,65.23396646999998],[23.044193799999995,65.23055962]]]}},{"type":"Feature","properties":{"cyano_daymap_file_id":723760,"date":"2026-08-01Z","cloud":null,"sub_surfac":null,"surface":null,"no_data":null,"class":1,"color_hex":null,"algae_class":"class_1","source_date":"2026-08-01"},"geometry":{"type":"Polygon","coordinates":[[[22.452905389999998,65.27021162999999],[22.45038241,65.26131493999999],[22.471615979999996,65.26025678],[22.469087859999995,65.25136047],[22.490312519999996,65.25029976],[22.48777927,65.24140381000001],[22.4453421,65.2435214],[22.442824749999996,65.23462453],[22.379176000000005,65.23777724],[22.374188970000002,65.21998076],[22.352983019999993,65.22102485],[22.35049929,65.21212609],[22.329298500000004,65.21316678],[22.326823619999995,65.20426754],[22.30562799,65.20530482],[22.308095869999992,65.21420447999999],[22.286891399999995,65.2152392],[22.289354099999994,65.22413922],[22.26814079,65.22517138],[22.2656851,65.21627094],[22.190067937101823,65.21992252107687],[22.181965743923975,65.22448997845393],[22.18326931,65.22927017],[22.172577051495534,65.2297826753265],[22.16332827425018,65.23499649767446],[22.16446931,65.23918987],[22.185698739999992,65.23817221999998],[22.188129979999996,65.24707421],[22.209364629999996,65.24605316],[22.211804719999996,65.25495468],[22.275518839999997,65.25187235],[22.273057659999996,65.24297209],[22.29428501,65.24193909],[22.29181864,65.23303919],[22.313037129999998,65.23200361999999],[22.31798576,65.24980253],[22.33921645,65.24876313],[22.341700559999996,65.25766206999998],[22.38417045,65.25557347999998],[22.386670469999995,65.26447150999999],[22.42914697,65.26237012],[22.43166291,65.27126723],[22.452905389999998,65.27021162999999]]]}},{"type":"Feature","properties":{"cyano_daymap_file_id":723760,"date":"2026-08-01Z","cloud":null,"sub_surfac":null,"surface":null,"no_data":null,"class":1,"color_hex":null,"algae_class":"class_1","source_date":"2026-08-01"},"geometry":{"type":"Polygon","coordinates":[[[22.81644072,65.18847781000001],[22.808540369999996,65.16180996],[22.82967658,65.16070219],[22.82704009,65.15181321999998],[22.80591082,65.15292054],[22.80328322,65.14403106000002],[22.782158939999995,65.14513496],[22.7847796,65.15402489],[22.742511339999993,65.1562247],[22.745120059999994,65.16511545999998],[22.766262099999995,65.16401658999999],[22.7688797,65.17290684],[22.747730709999995,65.17400615],[22.752957829999996,65.19178732999998],[22.81644072,65.18847781000001]]]}},{"type":"Feature","properties":{"cyano_daymap_file_id":723760,"date":"2026-08-01Z","cloud":null,"sub_surfac":null,"surface":null,"no_data":null,"class":1,"color_hex":null,"algae_class":"class_1","source_date":"2026-08-01"},"geometry":{"type":"MultiPolygon","coordinates":[[[[22.242030119999995,65.20839878],[22.23958508,65.1994978],[22.22505475057322,65.20019937010005],[22.207571556409487,65.21005518844518],[22.242030119999995,65.20839878]]],[[[22.295774799999997,65.16970558],[22.31694247,65.16866998],[22.319410000000005,65.17756946],[22.34058282,65.17653047],[22.345537370000002,65.1943284],[22.36672232,65.19328559],[22.36920936,65.20218404],[22.390399449999997,65.20113782],[22.387905429999996,65.19223979],[22.409086680000005,65.19119102],[22.406587519999995,65.18229335999999],[22.42775993,65.18124203],[22.430266080000003,65.19013927],[22.45144361,65.18908455],[22.443909829999996,65.16239393999999],[22.422753229999998,65.16344738],[22.42025267,65.15454996],[22.39910117,65.1556],[22.39411952,65.13780412999999],[22.372980109999997,65.13885034999998],[22.370499009999996,65.12995189],[22.34936471,65.13099472],[22.348995562583024,65.12966500024288],[22.3200684113133,65.1466372251174],[22.29353425299684,65.16159535244003],[22.295774799999997,65.16970558]]],[[[22.386660889999998,65.11110986],[22.389145259999992,65.12000800999999],[22.41026893,65.11895967],[22.415257089999997,65.13675493999999],[22.45752668,65.13464765],[22.46003745,65.14354433000001],[22.4811764,65.14248580999998],[22.47865868,65.13358955],[22.499788819999996,65.13252848],[22.49474508,65.11473664],[22.51585947,65.11367346999998],[22.513333469999996,65.10477789],[22.53443905,65.10371218],[22.53697198,65.11260733],[22.579191369999997,65.11046617],[22.581740049999997,65.11936039],[22.602853849999995,65.11828493],[22.60029824,65.10939115],[22.62140322,65.10831316],[22.61884258,65.09941974],[22.639938739999995,65.09833922999998],[22.63737308,65.08944619],[22.658460429999995,65.08836314999999],[22.65642801199782,65.08133245283885],[22.622043315924994,65.0805348656589],[22.5890680589074,65.08077551930198],[22.5562078378235,65.0819784364121],[22.5236222511317,65.0841381956597],[22.4989570328592,65.0864342959367],[22.4512775467598,65.06965380799399],[22.380064294913943,65.11143626051079],[22.386660889999998,65.11110986]]],[[[22.745390959999998,65.09289225999999],[22.769847142562632,65.09161660474969],[22.744036581763158,65.08826126994171],[22.745390959999998,65.09289225999999]]],[[[22.790174369999995,65.09958265],[22.769084699999997,65.10068432],[22.77430859,65.11846478],[22.795412090000003,65.11736221],[22.800657559999998,65.13514150999998],[22.90621504,65.12957978],[22.90401417395347,65.12221076610194],[22.885184620758892,65.11631308182429],[22.8574198396373,65.1087830198622],[22.8430911307973,65.1053259673164],[22.813630577896,65.099051531591],[22.78871659793573,65.094628668013],[22.790174369999995,65.09958265]]]]}}]}