{"type":"FeatureCollection","properties":{"source":"SMHI SE.SR Ytansamling av alger","date":"2026-07-11","note":"Test: SMHI WFS clipped to Lulea municipal sea area and simplified 20 m."},"features":[{"type":"Feature","properties":{"cyano_daymap_file_id":723739,"date":"2026-07-11Z","cloud":null,"sub_surfac":null,"surface":null,"no_data":null,"class":1,"color_hex":null,"algae_class":"class_1","source_date":"2026-07-11"},"geometry":{"type":"Polygon","coordinates":[[[22.848568079999996,65.65624285999999],[22.85127396,65.66513077],[22.817287727812207,65.6668874272807],[22.817786122349457,65.66741825126365],[22.816007838824675,65.66877388473726],[22.813582636096182,65.66944064342105],[22.812181401867544,65.66915179951486],[22.812073643221897,65.66879625124106],[22.80991789770742,65.66890739703398],[22.80910945241831,65.66912962227377],[22.809809927480618,65.66999627363087],[22.80657592429238,65.67088514878347],[22.80549819323463,65.67021847286956],[22.80673787677026,65.66997404946846],[22.807007508831852,65.66941850275568],[22.80641482212247,65.66890739053649],[22.805552510984445,65.66895182052946],[22.805283350147583,65.66806293551242],[22.806684875430392,65.66690741579812],[22.80798221885964,65.6667003447034],[22.805489979999997,65.65846928],[22.794855323816307,65.65901659051868],[22.792787162009883,65.66003997760691],[22.79143907969779,65.66137315490333],[22.78831288062844,65.66261720343762],[22.7884202827191,65.66297277220458],[22.79186885409114,65.66279541893866],[22.793485648627286,65.66235114875089],[22.79370059518684,65.66306227741572],[22.791867588664076,65.66423985611904],[22.791005402689237,65.66428420221752],[22.79051925266689,65.66557302794575],[22.789764455085688,65.66597293436074],[22.790410470119593,65.6666618990541],[22.786691891652783,65.66865852086285],[22.792006429999997,65.68624557999999],[22.813570270000003,65.68513556],[22.810874809999994,65.67624685999999],[22.847490212351563,65.67434883071411],[22.861865223132945,65.65555077143192],[22.848568079999996,65.65624285999999]],[[22.819511181685826,65.67021809147666],[22.819834474033037,65.66984029577824],[22.82199024585568,65.66972900894913],[22.821398075595983,65.67210679846947],[22.81897270970265,65.67277364494852],[22.816762748334174,65.67270711967096],[22.816493156310298,65.67181825895595],[22.81546904116039,65.67132942910771],[22.819511181685826,65.67021809147666]]]}},{"type":"Feature","properties":{"cyano_daymap_file_id":723739,"date":"2026-07-11Z","cloud":null,"sub_surfac":null,"surface":null,"no_data":null,"class":1,"color_hex":null,"algae_class":"class_1","source_date":"2026-07-11"},"geometry":{"type":"MultiPolygon","coordinates":[[[[22.68681071,65.70064148],[22.708391939999995,65.6995462],[22.70573076,65.6906553],[22.641002860000004,65.69393065],[22.63836549,65.68503834],[22.627973833682574,65.68575583520267],[22.62606947379135,65.68819812811375],[22.62455403443325,65.68899633369077],[22.62239645543891,65.68910480370639],[22.622406952712925,65.68766028496051],[22.62138611171286,65.6871701023275],[22.616103054446867,65.68707455581479],[22.614166821147787,65.68644980974396],[22.613525097595506,65.68576004764051],[22.615040700283835,65.68496195040862],[22.616419873979257,65.68486122538019],[22.61524357615853,65.6808794255897],[22.61215883929882,65.6811357507712],[22.609791764420784,65.6805326034501],[22.608835241517315,65.67877566456458],[22.61056067319987,65.67868905138167],[22.61008801522152,65.67708832265869],[22.61117191773931,65.67631192129384],[22.61241333483196,65.67606908673413],[22.61230828153368,65.6757133708362],[22.613687217792737,65.6756111106225],[22.61153857,65.66833788],[22.589978419999998,65.66941918999999],[22.58736154,65.66052578999998],[22.565806680000005,65.66160363],[22.578874529999993,65.70607220999999],[22.600465749999998,65.70499214999998],[22.605721329999998,65.72277824],[22.627325140000004,65.72169424],[22.62996321,65.73058675],[22.586739009999995,65.73275258],[22.58504270386097,65.72700223616137],[22.58453771247614,65.72710072776253],[22.584747561007354,65.7278122006417],[22.583018749208588,65.72789855457722],[22.58193191151867,65.72867478467762],[22.579823240840106,65.72896055511566],[22.57891917944602,65.72738129744774],[22.580215775910155,65.72731656888993],[22.58118504554753,65.72762914976202],[22.58005848543461,65.72678295861526],[22.58173479431971,65.72651876950457],[22.581472605006454,65.7256294219626],[22.580018819108634,65.72516054990807],[22.581262867856896,65.72491794346388],[22.579913971224215,65.7248048094869],[22.57883999481028,65.72413647795494],[22.57752813928706,65.72418780058209],[22.56250774,65.72493709],[22.563663304010955,65.72886398100974],[22.56519303246576,65.72842680494614],[22.56529769554792,65.72878255735091],[22.568375688920984,65.72880965010393],[22.57178116266393,65.72845937952873],[22.571885916519758,65.72881512649575],[22.573614834288662,65.72872889797299],[22.574151847976605,65.72906308287779],[22.5750163121895,65.72901995814742],[22.574741274540553,65.72957513802197],[22.577059713954664,65.73000092227784],[22.57726938508686,65.73071240724607],[22.57510808847503,65.7308202432176],[22.575645166355542,65.73115442221611],[22.5735886155964,65.73161798100229],[22.574178092495753,65.73213003783208],[22.571531989749065,65.73208151274919],[22.56963240308354,65.73307864043444],[22.568715426017423,65.73294386138724],[22.56844021514441,65.73349903160954],[22.567575588006257,65.73354212061055],[22.56724798818215,65.73391941383625],[22.56546635165913,65.73382769776545],[22.566108073676464,65.73451766283485],[22.565338294734893,65.7345560118734],[22.567742090000003,65.7427247],[22.546117709999997,65.74380044],[22.543506849999996,65.73490622],[22.521887800000002,65.73597847],[22.52709687,65.75376771999998],[22.54873054,65.75269459],[22.553962170000002,65.77048271],[22.575608499999998,65.76940563999999],[22.57823462,65.77829914999998],[22.59988628,65.77721858],[22.59725284,65.76832551],[22.61889518,65.76724233],[22.620482634541393,65.77258592753584],[22.623366971442085,65.77226647489996],[22.622828394817002,65.77193247930869],[22.623641356857224,65.77171121368451],[22.62629158158069,65.77175879150909],[22.62688306103125,65.77227062412608],[22.62823463875212,65.77238331486781],[22.628499010608692,65.77327256000505],[22.627791787587515,65.77384955013574],[22.629735040907256,65.77447405241317],[22.63060091368873,65.77443059783995],[22.630706702723852,65.77478629390929],[22.63222684035654,65.77398797929378],[22.63401145594782,65.77407888403562],[22.633251424458113,65.77447805176581],[22.633083046225874,65.7753890225305],[22.633674746924974,65.77590082658485],[22.634540659595174,65.77585734922839],[22.635830036690635,65.77723663437803],[22.63669598981507,65.77719314437097],[22.637350152595445,65.77643826886415],[22.639461995279834,65.77615166951772],[22.64211269070334,65.77619896748217],[22.642651606165646,65.77653289152296],[22.64291652593064,65.77742210617208],[22.64215653955028,65.77782131786856],[22.638692667718605,65.77799537307074],[22.637932598145746,65.7783945645378],[22.637817324064162,65.7794833839639],[22.635695708753623,65.78121447377237],[22.636234651190886,65.78154842024493],[22.63357381303815,65.78294553686939],[22.63436699174468,65.78451380587931],[22.643429767453483,65.78405685008617],[22.64538691747289,65.78236438831038],[22.6575697113765,65.7756053006684],[22.65594006463786,65.77440419299944],[22.643183609999994,65.77504827],[22.642809317204197,65.77379092838014],[22.64062040802032,65.77266385486645],[22.642318858004092,65.77214335521806],[22.64133650143154,65.77064230074231],[22.641831853371794,65.77050738679948],[22.640158486072345,65.76488613420128],[22.629626611492498,65.76057883753],[22.604195119519396,65.74896748549598],[22.636865963714,65.73790735481191],[22.6519919525198,65.7256029751429],[22.692209173667,65.73394201467839],[22.696549960567992,65.73320838794575],[22.68681071,65.70064148]],[[22.634588508634472,65.76863479390252],[22.63377573976825,65.76885611598948],[22.633669937675148,65.768500422196],[22.634588508634472,65.76863479390252]],[[22.631274701525776,65.77078672194695],[22.63138048188493,65.77114241762641],[22.630947601833856,65.77116414717901],[22.631274701525776,65.77078672194695]],[[22.622521657466176,65.76942085365417],[22.622954516811053,65.76939914824474],[22.623007345850063,65.76957699958912],[22.622521657466176,65.76942085365417]],[[22.624738786926727,65.76949016501761],[22.62571019828146,65.76980244085985],[22.626523068443145,65.76958116078322],[22.627220219453385,65.77044869214659],[22.629110322533084,65.77089535569795],[22.627431668313168,65.77116009017703],[22.627325942278787,65.7708043912141],[22.626460184503777,65.7708478260304],[22.625435875631737,65.77035770516618],[22.624137254501157,65.77042283928307],[22.625330181049613,65.77000200450635],[22.624464446146415,65.77004542775502],[22.623007345850063,65.76957699958912],[22.624738786926727,65.76949016501761]],[[22.62539312102235,65.76873533917298],[22.625445965227325,65.76891318951945],[22.625013116550356,65.7689349018998],[22.62539312102235,65.76873533917298]],[[22.579928107752686,65.72931629541688],[22.579980542400843,65.72949416552875],[22.579548307749135,65.72951574263202],[22.579928107752686,65.72931629541688]],[[22.579586656905295,65.7251821263962],[22.57953423548474,65.72500425602045],[22.579966394769272,65.72498267971041],[22.579586656905295,65.7251821263962]],[[22.579102075405963,65.72502583111115],[22.579049657698466,65.72484796053156],[22.579481814858465,65.72482638561891],[22.579102075405963,65.72502583111115]],[[22.57889354756074,65.73027037550565],[22.57743954049597,65.72980148100791],[22.578304022789762,65.72975833742221],[22.57889354756074,65.73027037550565]],[[22.57848697903588,65.72740287119461],[22.57843455976039,65.72722500041664],[22.578866757251134,65.72720342684781],[22.57848697903588,65.72740287119461]],[[22.578513725786088,65.73046982035721],[22.578081473355933,65.7304913934721],[22.578029049335303,65.73031352259903],[22.578513725786088,65.73046982035721]],[[22.576417821159144,65.72931100510611],[22.576850055531875,65.72928943689648],[22.576902468946127,65.72946730828056],[22.576417821159144,65.72931100510611]],[[22.576902468946127,65.72946730828056],[22.577387122573082,65.72962360985349],[22.576954883154652,65.7296451796388],[22.576902468946127,65.72946730828056]],[[22.57551395355981,65.72773172527377],[22.575946162448787,65.72771015988573],[22.575998565795643,65.72788803168014],[22.57551395355981,65.72773172527377]],[[22.575998565795643,65.72788803168014],[22.576483183870725,65.72804433648515],[22.576050969936592,65.72806590344874],[22.575998565795643,65.72788803168014]],[[22.575199567670293,65.72666449289746],[22.575631759042533,65.72664292857728],[22.57568415762523,65.72682080052655],[22.575199567670293,65.72666449289746]],[[22.57568415762523,65.72682080052655],[22.576168753418884,65.72697710655434],[22.5757365570019,65.72699867245001],[22.57568415762523,65.72682080052655]],[[22.57593317921207,65.72915470033016],[22.575985585992175,65.72933257209607],[22.575553350031022,65.72935413786634],[22.57593317921207,65.72915470033016]],[[22.573850602678775,65.72655130585406],[22.573902988790163,65.72672917854091],[22.57347079424247,65.72675073798302],[22.573850602678775,65.72655130585406]],[[22.571244192235756,65.72812518582852],[22.57129656425962,65.7283030595544],[22.57086434079906,65.72832461188266],[22.571244192235756,65.72812518582852]],[[22.570064707238533,65.73305709079997],[22.570117083170384,65.73323496489694],[22.569684776094288,65.73325651470931],[22.570064707238533,65.73305709079997]]],[[[22.58216017342714,65.72395673254599],[22.581969867244045,65.72434117179252],[22.5837508937496,65.7244327007808],[22.583855439370804,65.72387216456563],[22.58216017342714,65.72395673254599]]],[[[22.579700196024447,65.72407944799455],[22.579756705354665,65.72427119866141],[22.58109728075323,65.72400975472056],[22.579700196024447,65.72407944799455]]],[[[22.62417873,65.78502751000002],[22.628439481693146,65.78481267789645],[22.629127366536064,65.78425167593048],[22.628704130067188,65.78282888754295],[22.623342215146945,65.7822116821505],[22.62417873,65.78502751000002]]],[[[22.625868747737947,65.77033599135052],[22.625815897117086,65.77015814121314],[22.625435875631737,65.77035770516618],[22.625868747737947,65.77033599135052]]],[[[22.575435535593332,65.73044293460622],[22.575487942092536,65.73062080654739],[22.575920199288902,65.73059924075083],[22.575435535593332,65.73044293460622]]]]}},{"type":"Feature","properties":{"cyano_daymap_file_id":723739,"date":"2026-07-11Z","cloud":null,"sub_surfac":null,"surface":null,"no_data":null,"class":1,"color_hex":null,"algae_class":"class_1","source_date":"2026-07-11"},"geometry":{"type":"MultiPolygon","coordinates":[[[[22.65987883118219,65.68395137254471],[22.661466356374063,65.68352554041068],[22.660611961583587,65.68212463943779],[22.658833642391897,65.6820339827907],[22.657698107935047,65.68263287271593],[22.657539548995338,65.68209935583107],[22.65840227872579,65.6820557750206],[22.6582965651389,65.68170009768438],[22.655277037778543,65.68185260672001],[22.654687178886856,65.68134086834996],[22.65485437812878,65.680429886273],[22.660205826601658,65.67781293707402],[22.661499697940982,65.67774754358386],[22.662248228167783,65.67879276646974],[22.661438485365228,65.67901420539233],[22.6617028501159,65.67990339229205],[22.66272414421042,65.6803932994196],[22.662935683244346,65.6811046467145],[22.664282606060247,65.68121706460951],[22.664115736352834,65.68212805371311],[22.665788259685485,65.68186297725633],[22.666545139229104,65.68146367940643],[22.66633349761871,65.68075233817702],[22.66719616470126,65.68070870807564],[22.667188150829002,65.68215320433472],[22.66648417615224,65.68273034074922],[22.665621440343585,65.68277396750675],[22.666305604217815,65.6836266580769],[22.68150489,65.68285871],[22.67356119,65.65618407000001],[22.69510612,65.65509105],[22.695317145351382,65.65579823209043],[22.697769723673268,65.65551109073238],[22.69993135883214,65.65395705464759],[22.70424147329925,65.65373786920578],[22.707848886800008,65.65409588923359],[22.708167667919316,65.65516280030229],[22.70395736838894,65.65718222528555],[22.704222922053866,65.65807132571935],[22.700874081203175,65.66004681936775],[22.70001184828893,65.6600906492755],[22.699361950818343,65.66084576251573],[22.696976071397398,65.66135757736049],[22.697759269999995,65.66398221],[22.740857609999996,65.66178614999998],[22.73818997,65.65289589],[22.716649049999997,65.65399499],[22.70867991,65.62732245],[22.66563548,65.62950884],[22.67091729,65.64729239],[22.627835939999997,65.64946843],[22.62999607665067,65.65677397041873],[22.63162621447873,65.65669185596035],[22.632162414669427,65.65702584412445],[22.634695613835845,65.65671769404992],[22.635662824966843,65.65702994849808],[22.635873392748547,65.65774134312174],[22.637807943759476,65.65836582955016],[22.63866992423589,65.65832236836991],[22.639258917932136,65.65883417758026],[22.64012091103766,65.65879070803489],[22.641078727334676,65.66054743645022],[22.642046159028705,65.66085964800583],[22.641394858114744,65.66161451420291],[22.637137066764012,65.66200970209643],[22.63459349470223,65.66376241097443],[22.63475144673151,65.66429595784196],[22.635666288481485,65.66443036049544],[22.636308033887477,65.66512002875375],[22.63717024181216,65.66507657377859],[22.638295837336372,65.66592235128292],[22.637423882491454,65.66741032458529],[22.636614269906794,65.66763162985805],[22.637256124883212,65.66832129301595],[22.63817112240024,65.66845567900653],[22.641893383738594,65.66772650336326],[22.641998803788905,65.668082195036],[22.643450407120337,65.66855049666628],[22.642305644101338,65.67059377858443],[22.63998200985022,65.67161345481105],[22.64014013034894,65.67214699439545],[22.63846794997952,65.67241178504106],[22.63814211599104,65.67278921270737],[22.63904766748197,65.67436810243028],[22.638764904431152,65.67636788932572],[22.639838346755607,65.6770358028669],[22.63913388647698,65.67761281742315],[22.63960834936088,65.67921343738159],[22.63869296073973,65.6790790639986],[22.637557076425722,65.67967780691801],[22.63710170585548,65.68077239959116],[22.63836549,65.68503834],[22.65987883118219,65.68395137254471]],[[22.654202995513604,65.68118480833277],[22.65463434893703,65.68116302812771],[22.654687178886856,65.68134086834996],[22.654202995513604,65.68118480833277]],[[22.708315166131246,65.65858522209648],[22.709177332116138,65.6585413457255],[22.708905687984416,65.65909673872649],[22.708043502992833,65.65914061374981],[22.708315166131246,65.65858522209648]],[[22.663586806660287,65.68034968985721],[22.66294393797592,65.67966014825004],[22.66553184120087,65.67952930198192],[22.665690545690506,65.68006280903445],[22.664827897050262,65.68010643040037],[22.665365022952937,65.68044029192194],[22.663586806660287,65.68034968985721]],[[22.66622768161444,65.68039666740464],[22.6659021628772,65.68077415140327],[22.665365022952937,65.68044029192194],[22.66622768161444,65.68039666740464]],[[22.657750962513706,65.68281071162507],[22.65731958482505,65.68283250092381],[22.657266733152554,65.68265466183513],[22.657750962513706,65.68281071162507]],[[22.657372437296907,65.68301033998628],[22.65694105590266,65.68303212824807],[22.65688820633703,65.68285428900609],[22.657372437296907,65.68301033998628]],[[22.656993906267633,65.68320996746382],[22.65656252116777,65.68323175468868],[22.656509673709074,65.68305391529337],[22.656993906267633,65.68320996746382]],[[22.63762078453925,65.66216582118199],[22.637673451268054,65.66234366894135],[22.637242393622355,65.66236539799911],[22.63762078453925,65.66216582118199]]],[[[22.61153857,65.66833788],[22.61356744942984,65.66823582886587],[22.612637470576786,65.66793551701565],[22.61143762141445,65.66799577487858],[22.61153857,65.66833788]]]]}},{"type":"Feature","properties":{"cyano_daymap_file_id":723739,"date":"2026-07-11Z","cloud":null,"sub_surfac":null,"surface":null,"no_data":null,"class":1,"color_hex":null,"algae_class":"class_1","source_date":"2026-07-11"},"geometry":{"type":"MultiPolygon","coordinates":[[[[22.88330187,65.55512412],[22.872501939999996,65.5195743],[22.807082600217075,65.5229706128018],[22.807126106668637,65.52370890032712],[22.8061072234207,65.52466437506547],[22.8063211466441,65.52537549522715],[22.803425488975375,65.52733079874261],[22.801603298137255,65.52706395840514],[22.800960681812345,65.52637500714502],[22.798816645276826,65.52648587287528],[22.79736994092843,65.52601902661004],[22.796512333056306,65.52606335611272],[22.79581496037081,65.52664103417717],[22.79677942972312,65.52695227648181],[22.795062606157376,65.52848536210666],[22.79785078095588,65.5276190795195],[22.799137264096554,65.52755257130151],[22.79897562729872,65.52846365743925],[22.80020870037226,65.52821935674287],[22.8030490391946,65.52897519564827],[22.803209449915393,65.5295085394077],[22.801654409202712,65.53013060768934],[22.802136740737904,65.53028620997398],[22.80111742948184,65.53124165567846],[22.8001527478164,65.53093044326023],[22.79907988994078,65.53170809372146],[22.797417741869193,65.53197455478843],[22.797686323105538,65.53141903663285],[22.798866101328308,65.53099696183922],[22.79790283092561,65.52924129887636],[22.7958653855541,65.52970769260465],[22.794900822641885,65.52939644544195],[22.7946871707218,65.52868530623812],[22.793829469763292,65.5287296215047],[22.792863309021246,65.52986279944012],[22.793398990569095,65.53019621573071],[22.792165757638976,65.53044046258216],[22.79232595686471,65.53097382011435],[22.79318373464238,65.53092951256669],[22.792915061205395,65.5314850236899],[22.793826266929752,65.53161849780123],[22.793986508813934,65.53215185313414],[22.793075283481574,65.53201838019345],[22.793086997257692,65.53272589427306],[22.81089928,65.53180497],[22.81130537211224,65.5331531391489],[22.81344665632438,65.53313130168134],[22.813767971616713,65.53419796181917],[22.812246710286114,65.53627825053732],[22.813576759999997,65.54069383],[22.83501914,65.53958202],[22.840394489999998,65.55735862999998],[22.88330187,65.55512412]],[[22.810018924669293,65.52608681981688],[22.809161340520134,65.52613122081365],[22.808625547333367,65.5257978615627],[22.80921560729706,65.52486457021178],[22.811627674438586,65.52419801998457],[22.812324629575777,65.52362027342694],[22.812485190031378,65.52415360572344],[22.811681190470836,65.52437579772685],[22.810018924669293,65.52608681981688]],[[22.811735336149123,65.52310914752972],[22.812485778579827,65.52270917824117],[22.81307507702651,65.52322030115742],[22.812324629575777,65.52362027342694],[22.811735336149123,65.52310914752972]],[[22.793774457186263,65.52999627446562],[22.794203328932017,65.52997411737243],[22.794256740596232,65.53015190238888],[22.793774457186263,65.52999627446562]],[[22.794256740596232,65.53015190238888],[22.794739029737777,65.53030752871403],[22.794310153063392,65.53032968737845],[22.794256740596232,65.53015190238888]],[[22.7944169804066,65.53068525727693],[22.7939880971963,65.53070741509678],[22.793934685989406,65.53052962997933],[22.7944169804066,65.53068525727693]],[[22.793130328365095,65.53075172711279],[22.792701442744267,65.53077388130895],[22.792648040136093,65.53059609564652],[22.793130328365095,65.53075172711279]]],[[[22.78679374,65.52402393],[22.788301286881477,65.52904626889514],[22.791096185875322,65.52832917927316],[22.790989415399682,65.5279736064427],[22.79184709734058,65.52792930748566],[22.79372427569868,65.5269296127675],[22.793617476342142,65.52657404210342],[22.792331024447645,65.52664050302951],[22.792010697213243,65.52557378712334],[22.792921689827324,65.52570726891452],[22.79479867106204,65.52470756296066],[22.7960850201388,65.52464108212385],[22.79930152013526,65.52375261493567],[22.799548769026885,65.52336173945336],[22.78679374,65.52402393]]]]}},{"type":"Feature","properties":{"cyano_daymap_file_id":723739,"date":"2026-07-11Z","cloud":null,"sub_surfac":null,"surface":null,"no_data":null,"class":1,"color_hex":null,"algae_class":"class_1","source_date":"2026-07-11"},"geometry":{"type":"Polygon","coordinates":[[[22.68788497,65.48396837],[22.68263139,65.46618514],[22.72540545,65.46399678],[22.717497119999994,65.43732413],[22.696132439999992,65.43841846999999],[22.690884300000004,65.42063548],[22.62682115,65.42389779],[22.62942290999999,65.43279065999998],[22.60805751,65.43387253],[22.610654099999998,65.44276577],[22.632026619999998,65.44168345],[22.634632280000005,65.45057619000002],[22.656009970000003,65.44949042],[22.666480709999995,65.48505892],[22.68788497,65.48396837]],[[22.688459763664195,65.46409638434221],[22.687063290640985,65.46525075631112],[22.685832044015044,65.46549411485923],[22.684721508826,65.46320413065075],[22.686057683419097,65.46331644667835],[22.685524775841543,65.4629826219334],[22.68638054264323,65.46293894120049],[22.688459763664195,65.46409638434221]]]}},{"type":"Feature","properties":{"cyano_daymap_file_id":723739,"date":"2026-07-11Z","cloud":null,"sub_surfac":null,"surface":null,"no_data":null,"class":1,"color_hex":null,"algae_class":"class_1","source_date":"2026-07-11"},"geometry":{"type":"MultiPolygon","coordinates":[[[[22.46839490932424,65.85377705282707],[22.466941326566022,65.85365471120134],[22.46673350309489,65.8529430567863],[22.468131352930733,65.85287457962114],[22.46741326370141,65.85074425964365],[22.46675229175793,65.85149847010759],[22.46358866650639,65.85273613890314],[22.46351776770236,65.85400281196313],[22.46469830896259,65.85502775958199],[22.459484745239486,65.85528293525984],[22.459348220689826,65.85330459574386],[22.45842745115171,65.85316918940094],[22.455366971198128,65.8547625282694],[22.453142778023683,65.85469082140091],[22.4529871881142,65.85415706386564],[22.453804230530356,65.85393666517628],[22.454361906849368,65.85282666912715],[22.4556133223395,65.85258501836006],[22.45545769645583,65.85205126368903],[22.456222771993787,65.85165293469494],[22.45552899375741,65.85078459052366],[22.45281889558265,65.85055620172297],[22.4522611958591,65.85166619236571],[22.44981019849113,65.85232734932079],[22.449913871480213,65.85268319036949],[22.447948988166278,65.85350100898543],[22.44633905666726,65.85369335480263],[22.448327739425505,65.86052016389884],[22.44953622432217,65.86046115019931],[22.450249779593165,65.85988492741488],[22.449990504207502,65.85899532612738],[22.44809681540053,65.85854647702654],[22.448965883507316,65.85850402349517],[22.448427667698116,65.85816940897622],[22.44929672240206,65.85812695369292],[22.4491930315871,65.85777111239729],[22.45001022117492,65.85755073257279],[22.45266917151784,65.85760124496609],[22.459082973973757,65.85692669844047],[22.463149227414174,65.85726908622769],[22.464141039946195,65.85613778940163],[22.46587894644969,65.85605269714866],[22.466034817769764,65.85658643882343],[22.467824717578758,65.85667923794763],[22.468980185481872,65.85578116300366],[22.46839490932424,65.85377705282707]],[[22.448602989108956,65.85725857764062],[22.448830138610607,65.8565256670686],[22.449802828536143,65.85683905098594],[22.449472012676686,65.85721612166118],[22.448602989108956,65.85725857764062]]],[[[22.44469572,65.84805206],[22.446035901700434,65.8526526754502],[22.448163982651696,65.84970098926426],[22.449311658159452,65.84910354852049],[22.450180404767952,65.8490610911891],[22.450459280504248,65.84850609967015],[22.452961747741387,65.84802285533404],[22.453531131106924,65.8476198962037],[22.44469572,65.84805206]]],[[[22.4226095366013,65.84783987261156],[22.421656048158084,65.847926244133],[22.421118413081494,65.84759152787001],[22.419432515308884,65.84785404024409],[22.41966043299667,65.84712116569638],[22.421780644016366,65.84683750284742],[22.422395113438398,65.84710136948661],[22.420395559999996,65.84021462999999],[22.4421072,65.83915589],[22.439520659999996,65.83025966],[22.41781639,65.83131796],[22.416212316935823,65.82577631355181],[22.416488751618424,65.82706576194533],[22.414370098307923,65.82734933634929],[22.413700269888725,65.82503617283255],[22.415966150618253,65.82492587429822],[22.414183504057867,65.81876730384383],[22.413787655142794,65.81925773599977],[22.412537432731995,65.8194990326792],[22.412691932724304,65.82003284181785],[22.410956246814933,65.82011730778625],[22.41041935207263,65.81978254673105],[22.411919503263377,65.81736379387704],[22.413221126862915,65.8173004393973],[22.413627441980797,65.81684625703916],[22.41009065,65.80462758],[22.366720439999998,65.80673236],[22.369278999999995,65.81563008999998],[22.35546796027198,65.81629738135425],[22.35328749721711,65.81695813991308],[22.353057898417333,65.81769093123248],[22.352241096938677,65.8179107887227],[22.352164700514756,65.81917746109951],[22.351296769151446,65.81921935327337],[22.350250206911777,65.8201719899803],[22.350275858539646,65.82179458518276],[22.352369516149977,65.82295653030896],[22.353722698408784,65.82307163929919],[22.354565583330604,65.82447436421113],[22.35331452603972,65.82471518374994],[22.35351894056762,65.82542702408281],[22.352318924568593,65.82584579610017],[22.352472221743746,65.8263796775048],[22.350649566876896,65.82736161478675],[22.351191843966213,65.82924936512504],[22.35231944494453,65.8289130222257],[22.351356378420807,65.82982213498464],[22.351742923413546,65.83116775783166],[22.35196221765095,65.83073452498793],[22.353647732634112,65.83047276090367],[22.352983878421657,65.83122650577486],[22.351776534499454,65.83128476321514],[22.351981017334555,65.83199659955994],[22.353188345942158,65.83193834602875],[22.352422212940922,65.83233616879404],[22.355410364965415,65.83201152846043],[22.35691747328598,65.83266048139973],[22.357070914616187,65.83319435679445],[22.356253662978762,65.83341424005918],[22.355666044560817,65.83290132375969],[22.355385259560194,65.83345616000021],[22.35732666573803,65.8340841486254],[22.361234534837624,65.8338954198123],[22.36200057389461,65.83349755374222],[22.363737354503456,65.83341363394074],[22.36524475300969,65.83406250191284],[22.366088659179606,65.83546515335418],[22.364785977968122,65.83552811602874],[22.362819603005736,65.83634485366507],[22.359447971915504,65.83686857143896],[22.35921840382102,65.83760137168342],[22.360086939616977,65.83755942867906],[22.36067475739019,65.83807232605098],[22.359474281826945,65.83849115869145],[22.35381470913785,65.8383799640615],[22.353962275528247,65.83889366546781],[22.355565699290494,65.83867984927798],[22.35566800278594,65.8390357670352],[22.35658775277216,65.83917180218464],[22.359678998256502,65.83920298785338],[22.361569753992903,65.83965296020621],[22.363792459220154,65.83972601410663],[22.363614205577434,65.84063677552301],[22.358887865993253,65.84104547423539],[22.357482541181675,65.84075246227157],[22.35830001204927,65.84053257033716],[22.35776335146568,65.84019762194552],[22.354251108374648,65.83989913723535],[22.354774284446506,65.84052231705718],[22.355642927541894,65.84048039829797],[22.357636052219185,65.84128633641862],[22.362030538922326,65.84125456745183],[22.362184147931146,65.84178843608892],[22.36131547348296,65.84183039234496],[22.361852215092856,65.84216532747953],[22.36049798866241,65.84205030054927],[22.359680489686795,65.84227020451402],[22.360217219808007,65.84260514550276],[22.358914159823392,65.84266806171844],[22.36070276744128,65.84276212773516],[22.36129072251794,65.84327502141534],[22.363896882985845,65.84314913693738],[22.36461192486718,65.84257330018853],[22.3659149633047,65.84251033557757],[22.366144375497687,65.84177752677452],[22.36777921362867,65.84133764681926],[22.367625491760343,65.84080378489018],[22.368774690291698,65.84020693493105],[22.370077596647796,65.84014393607748],[22.370180107874123,65.84049984211555],[22.371636824201644,65.84097068847677],[22.372505449388765,65.84092867399977],[22.372607997955523,65.84128457804972],[22.371663923829537,65.84259326601867],[22.36959472573426,65.8430541888155],[22.36606866192815,65.84304419944795],[22.364868048826676,65.84346307579106],[22.365277887725327,65.84488671546916],[22.364025951552627,65.84512763118501],[22.362978864906776,65.84608036009219],[22.363720624027323,65.84712711022492],[22.365995225951824,65.84737808109686],[22.366021998641592,65.84900066273632],[22.365204330586586,65.84922059787522],[22.362060655782837,65.84901157953283],[22.36241921905087,65.85025727131921],[22.3616014795558,65.85047718785961],[22.36137187352195,65.8512099916745],[22.35861127481126,65.85080196893266],[22.35779348440355,65.8510218655796],[22.3568221111131,65.85070788374134],[22.35669474510689,65.85179659803363],[22.3558257218503,65.85183852640425],[22.35679712691575,65.85215251427192],[22.356618563148025,65.85306327045151],[22.357538825171464,65.85319929497648],[22.35666975616428,65.85324122858398],[22.35649118248432,65.85415198470633],[22.35534108636519,65.85474875079258],[22.3531170936752,65.85467558620488],[22.35240146862002,65.85525137468856],[22.351481157826438,65.85511531969225],[22.350816642678684,65.85586906139817],[22.35132827344358,65.85764866421835],[22.350024424916672,65.85771151213086],[22.34935980363219,65.85846524850785],[22.350791884100644,65.86038091955272],[22.346752083103826,65.86165813062313],[22.347007817233813,65.86254793980771],[22.34667540795831,65.86292480273197],[22.345805988852785,65.86296667789154],[22.345396818002474,65.86461021048471],[22.348414542589467,65.86590826548523],[22.353299228088115,65.8660337231249],[22.355216925097864,65.86503912551427],[22.35496087699204,65.86414933307026],[22.356213821440523,65.86390848202714],[22.356111391463184,65.86355256587034],[22.353989030744692,65.86383533774836],[22.353017208175956,65.86352133602206],[22.35347706785792,65.86205574703877],[22.354244046081043,65.86165791094332],[22.35598275959635,65.8615740608845],[22.356519860670083,65.86190901130283],[22.35738922302201,65.8618670757487],[22.35802879719548,65.86255793575532],[22.359332868039186,65.86249501743632],[22.359460149168463,65.86140630179123],[22.360329488755593,65.86136434973152],[22.360942614517928,65.86043261187731],[22.362578716413694,65.8599927755315],[22.36247621705252,65.85963686429918],[22.359995628208274,65.85867402475571],[22.361094549303438,65.8578992668466],[22.360940847289307,65.85736539802727],[22.362857613187007,65.8563707134304],[22.363113841545715,65.85726049094184],[22.364034287712965,65.85739647458918],[22.364546869963025,65.85917602403002],[22.363728869250362,65.85939595444667],[22.36388264374755,65.85992981976632],[22.365289102040222,65.86022276198979],[22.36603139696278,65.86126949574175],[22.36690071903609,65.86122750647597],[22.36661990304796,65.86178236361567],[22.367489241311716,65.8617403708482],[22.36733537890061,65.86120651000023],[22.367872618060545,65.86154141920443],[22.369176608373134,65.8614784176754],[22.369330510980397,65.86201227628536],[22.366160801117605,65.8632479848781],[22.367364874071992,65.86589629593438],[22.36828565408756,65.8660322507862],[22.368569210948024,65.86854459496668],[22.369490092899174,65.86868054159017],[22.369157942640093,65.86905745090446],[22.370999759052506,65.8693293310105],[22.371102422910738,65.86968523494326],[22.371920681502594,65.8694652626069],[22.37430006196765,65.87007199293085],[22.376501606489207,65.8715894585933],[22.37941891787559,65.87253097961651],[22.380162171405207,65.87357763552617],[22.381953006875737,65.87367143140983],[22.381976524384218,65.87222681098089],[22.38100404492253,65.87191299349537],[22.380055219769574,65.870154548378],[22.37859666385554,65.86968379993914],[22.375066943760952,65.869674053301],[22.37307102532503,65.86886836941892],[22.37281431318158,65.86797861326161],[22.37424528169275,65.86682684455394],[22.3739885533847,65.86593709051836],[22.375676123773644,65.86567506365789],[22.3762135672513,65.86600994158636],[22.37708302968057,65.86596789306931],[22.379078840158954,65.86677352561267],[22.380410836432116,65.86833299568345],[22.382252711966025,65.86860473965966],[22.38271096933278,65.86713907820503],[22.38409002931289,65.86580927481224],[22.383884382206553,65.86509748737991],[22.385034252013636,65.86450050871514],[22.385875543080502,65.86283584540412],[22.38745992440449,65.86221779947681],[22.389581756181435,65.8619345679876],[22.389913517259004,65.86155761803883],[22.392521362505747,65.86143122909485],[22.39367086786764,65.86083418895568],[22.39351646824871,65.86030035964805],[22.394282762534516,65.85990232926797],[22.396021200012687,65.85981802642708],[22.39668447049406,65.85906410026999],[22.39885743269808,65.85895868529497],[22.398628832698172,65.8596915353168],[22.399881130681653,65.85945033259911],[22.400492768037203,65.85851845052014],[22.4022310874637,65.85843407817926],[22.40325482732723,65.85892570248438],[22.40412399693412,65.85888350298265],[22.40468392977639,65.85777366685228],[22.405884531025684,65.85735447777965],[22.407880538852247,65.85815973235852],[22.408749673439885,65.858117506887],[22.409876672025067,65.85896495966243],[22.412690515037042,65.85954997565858],[22.412793709166266,65.85990584644627],[22.4154012515101,65.85977907004832],[22.41637367058983,65.86009266930836],[22.416580169205762,65.86080440477762],[22.417449376037204,65.86076212913744],[22.418908106965812,65.86123250517576],[22.420087233571913,65.86225781084235],[22.423792113286872,65.86135571684568],[22.426495617878953,65.86122407573863],[22.4226095366013,65.84783987261156]],[[22.356712895744792,65.8319486471947],[22.35535923138135,65.8318335693266],[22.354771668622323,65.83132064905054],[22.353903332934756,65.83136255991684],[22.353801090480278,65.83100664038554],[22.354950190725983,65.83040989536771],[22.35479681332033,65.82987601722618],[22.3562015063805,65.83016905995486],[22.355613966968605,65.82965614269351],[22.359087047413617,65.82948843320901],[22.35972581046891,65.83017929393358],[22.358423378062064,65.83024219995606],[22.358959831594436,65.83057714802084],[22.35814267875686,65.83079704044971],[22.358781451191753,65.83148790503213],[22.359700943882054,65.83162392390078],[22.35952258466693,65.83253468157206],[22.357632394826535,65.83208467845701],[22.357785846860804,65.83261855303178],[22.35691747328598,65.83266048139973],[22.356712895744792,65.8319486471947]],[[22.353989030744692,65.86383533774836],[22.35365670936061,65.86421221501269],[22.353119595155725,65.86387725466163],[22.353989030744692,65.86383533774836]],[[22.423606610742,65.85919938876766],[22.421919983495822,65.85946193561792],[22.420947522963043,65.85914837204535],[22.420792569120593,65.85861457566386],[22.422965374390678,65.85850881944529],[22.423606610742,65.85919938876766]],[[22.41931650711623,65.85200992612126],[22.41936813146325,65.85218785902491],[22.41849921824542,65.85223014275272],[22.41931650711623,65.85200992612126]],[[22.408918930530547,65.82220128744363],[22.409352890305072,65.82218017822345],[22.409404373958726,65.8223581158519],[22.408918930530547,65.82220128744363]],[[22.409404373958726,65.8223581158519],[22.409889823282576,65.82251494265955],[22.40945585839563,65.8225360534554],[22.409404373958726,65.8223581158519]],[[22.408764493112177,65.82166747388415],[22.408867450607918,65.82202334961543],[22.40843349299799,65.82204445743476],[22.408764493112177,65.82166747388415]],[[22.40858792627197,65.82257827136887],[22.40863940559632,65.82275620929697],[22.408205435411734,65.82277731658937],[22.40858792627197,65.82257827136887]],[[22.40735969894236,65.82137491573572],[22.40779364632762,65.82135381106752],[22.40784511722236,65.82153174934507],[22.40735969894236,65.82137491573572]],[[22.40784511722236,65.82153174934507],[22.408330541397717,65.82168858135394],[22.40789658890016,65.82170968759769],[22.40784511722236,65.82153174934507]],[[22.40534431224621,65.82201423858928],[22.4057782723893,65.82199313952711],[22.40582973089411,65.82217107860352],[22.40534431224621,65.82201423858928]],[[22.40582973089411,65.82217107860352],[22.40761704650797,65.8222646077478],[22.408153959035346,65.82259937848647],[22.407337492693134,65.82281952749584],[22.40582973089411,65.82217107860352]],[[22.407109398119527,65.82355238536923],[22.407160869567317,65.8237303238717],[22.406726881509627,65.82375142713342],[22.407109398119527,65.82355238536923]],[[22.406189962349252,65.8234166514401],[22.406241427117557,65.82359459031701],[22.40580744044202,65.82361569095166],[22.406189962349252,65.8234166514401]],[[22.404426256680782,65.85688397306932],[22.404477789729754,65.8570619118758],[22.404043236458833,65.85708301294787],[22.404426256680782,65.85688397306932]],[[22.399291449461174,65.820864881755],[22.399342860436665,65.82104282347571],[22.39890890997369,65.82106390415055],[22.399291449461174,65.820864881755]],[[22.383696616048315,65.82324557634549],[22.383594000546196,65.82288968037244],[22.38446199232941,65.82284760398738],[22.383696616048315,65.82324557634549]],[[22.382418213251313,65.82186406124741],[22.381167556048517,65.82210510515402],[22.38101369458484,65.82157125802358],[22.381932939267667,65.82170714540774],[22.381779064795438,65.8211732991734],[22.38330973445866,65.82037737064128],[22.383538487168984,65.81964454203462],[22.385656874458874,65.81936139804255],[22.385554250467795,65.81900550346616],[22.389025659860014,65.81883712910808],[22.39004752998591,65.81932885985742],[22.39188595627323,65.8196005209011],[22.396173862752665,65.81921191731841],[22.397578415662355,65.8195045807269],[22.397681208197692,65.81986046558896],[22.399034406315153,65.819975172778],[22.39837214935081,65.82072909943484],[22.393318853287678,65.82151578548927],[22.389795769656097,65.82150631509619],[22.388596541231696,65.82192536460819],[22.38686063295112,65.82200955873412],[22.386095318764387,65.82240754252075],[22.3866832861254,65.82292033834456],[22.38446199232941,65.82284760398738],[22.382418213251313,65.82186406124741]],[[22.39880609470034,65.82070802033515],[22.398857501945976,65.82088596225529],[22.3984235536487,65.82090704152952],[22.39880609470034,65.82070802033515]],[[22.39434580504925,65.83878798673132],[22.395802852541365,65.83925859942391],[22.395882907231233,65.84105910062509],[22.394351437788746,65.84185516287641],[22.392179898052817,65.84196050014786],[22.390774160000806,65.84166779847186],[22.390311577062707,65.84006629534004],[22.39092314237387,65.83913445222858],[22.39434580504925,65.83878798673132]],[[22.392799891616026,65.81666916338834],[22.393233774046852,65.81664810073518],[22.39328513306019,65.81682604499717],[22.392799891616026,65.81666916338834]],[[22.39328513306019,65.81682604499717],[22.39377038039812,65.81698292500653],[22.393336492854765,65.81700398923431],[22.39328513306019,65.81682604499717]],[[22.392287032911128,65.85909689444928],[22.390114026683097,65.85920221643045],[22.39164663549547,65.85840618575025],[22.392515810407403,65.85836405221353],[22.392287032911128,65.85909689444928]],[[22.384852402168907,65.84556355151577],[22.3825264404818,65.84513491354663],[22.38237238531344,65.84460106967232],[22.383138400648225,65.84420309783148],[22.386127502879408,65.84387784737591],[22.386230254023864,65.84423374032728],[22.38952770872428,65.84497610083073],[22.390144576427947,65.84711144030454],[22.387052375844025,65.84708088035987],[22.384852402168907,65.84556355151577]],[[22.377513971119356,65.86287967277444],[22.379355422750216,65.86315145570904],[22.379177607684714,65.86406223100809],[22.377209564814812,65.86487916982247],[22.375368009289765,65.86460736203104],[22.375111268739857,65.86371760999319],[22.375826603092662,65.86314171799138],[22.377513971119356,65.86287967277444]],[[22.376589603886128,65.85967657734223],[22.37664095097051,65.85985452729938],[22.376206323100263,65.8598755499312],[22.376589603886128,65.85967657734223]],[[22.37012612503744,65.83725468440433],[22.371863127352274,65.83717067006974],[22.37255370082326,65.83803942421729],[22.370101859888166,65.83869931025464],[22.3682622695755,65.83842739803592],[22.37012612503744,65.83725468440433]],[[22.36093069138219,65.83896211008195],[22.360981880518555,65.83914006681407],[22.360547587210508,65.83916104172118],[22.36093069138219,65.83896211008195]],[[22.360211115820672,65.830336280053],[22.360262279372748,65.8305142372756],[22.359828130891966,65.83053520875085],[22.360211115820672,65.830336280053]],[[22.35975067889147,65.82873466393876],[22.359801835435864,65.82891262138355],[22.35893359081452,65.8289545599806],[22.35975067889147,65.82873466393876]],[[22.359576638483333,65.8388470733218],[22.35962781798031,65.83902503059994],[22.359193525287864,65.83904600165124],[22.359576638483333,65.8388470733218]],[[22.357783470479585,65.82648411367128],[22.357834608053388,65.82666207195797],[22.357400522154524,65.82668303593209],[22.357783470479585,65.82648411367128]],[[22.357354018046014,65.8387739572646],[22.357405181996928,65.83895191543611],[22.35697088836254,65.83897288017693],[22.357354018046014,65.8387739572646]],[[22.356997051397826,65.84059546925006],[22.356945886343144,65.84041751095326],[22.35738020438556,65.84039654605013],[22.356997051397826,65.84059546925006]],[[22.355591772127703,65.84030243945539],[22.356026089553232,65.84028147840827],[22.356077247921267,65.84045943707719],[22.355591772127703,65.84030243945539]],[[22.353034994134727,65.83140446587532],[22.35308611062582,65.83158242595111],[22.352651937107062,65.8316033772635],[22.353034994134727,65.83140446587532]],[[22.347647132091723,65.86323884571263],[22.348516556800433,65.86319696002806],[22.348567717962336,65.86337492117148],[22.347647132091723,65.86323884571263]],[[22.347314723912188,65.86361571001586],[22.347698287333927,65.8634168072034],[22.347800600157125,65.86377273011092],[22.347314723912188,65.86361571001586]]],[[[22.366504260313363,65.80597999106993],[22.36522662410805,65.80645759605936],[22.365185957718285,65.80680649450075],[22.366720439999998,65.80673236],[22.366504260313363,65.80597999106993]]],[[[22.38736046936983,65.79670890745254],[22.38837694179234,65.79523147632722],[22.3909499892843,65.79348261348325],[22.390260081873148,65.79261393604008],[22.389393119231915,65.79265603547077],[22.39053971502154,65.79205904679287],[22.390437154249238,65.79170315487197],[22.38990113702736,65.79136831318478],[22.388218554704068,65.79163044916571],[22.387682567491723,65.79129559939135],[22.388498222638454,65.7910755633247],[22.387631308255443,65.79111765227445],[22.387044085681786,65.79060485289097],[22.387962243819654,65.7907407144518],[22.389388424906258,65.78958884985288],[22.391937709631048,65.78928459451349],[22.393745741530704,65.78793369088179],[22.394612536897185,65.78789156832735],[22.395022956248386,65.78931512266601],[22.398005554372283,65.78898970241919],[22.39910045655249,65.78821470993947],[22.398410427505464,65.78734607053919],[22.39922586427693,65.78712597921347],[22.399071879899896,65.78659215145379],[22.40065134380085,65.78597401608454],[22.402766777149502,65.78569066316987],[22.40286947928306,65.78604654542839],[22.40378755142487,65.78618231254531],[22.403383036764293,65.78782595522742],[22.40468319480664,65.78776268771918],[22.404837303721255,65.7882965086034],[22.405340733788023,65.78818399064147],[22.40238251,65.77793663999998],[22.38072043,65.77898925],[22.378162290000002,65.77009171],[22.35650562,65.77114083],[22.361609149999996,65.78893671999998],[22.354163197295286,65.78929639700665],[22.353818767801773,65.78968807370225],[22.350988491900633,65.79054652201255],[22.349637040287103,65.79043137217805],[22.349535051749836,65.79007544731107],[22.351246386548915,65.7894372936521],[22.3409420441203,65.78993504527467],[22.34017231968969,65.79080971916018],[22.342483159999997,65.79888193],[22.3279212879029,65.79958327407455],[22.326449622149426,65.8000291213965],[22.326551339281387,65.80038506426921],[22.324203502419152,65.80140013442154],[22.32440689075116,65.80211202352893],[22.323539479931565,65.80215375290688],[22.32173577522653,65.80319897391638],[22.32297457342955,65.80753409290027],[22.323611155094966,65.8070216023308],[22.32447872962015,65.80697987098003],[22.32437700982396,65.80662392676057],[22.326010385751612,65.80618450779693],[22.327006441827816,65.80505406265887],[22.328358575972032,65.80516940647419],[22.32825681118176,65.80481346526946],[22.329124302330055,65.80477170830393],[22.329456267374834,65.804394887717],[22.33157404512812,65.80411250015113],[22.331038515131894,65.80377744705146],[22.33277341375542,65.80369389736019],[22.332671595000853,65.80333795961529],[22.33583572892334,65.80210299865423],[22.33649938665095,65.80134933016076],[22.337800423247586,65.80128662448887],[22.33851494549663,65.80071091482708],[22.339815943976436,65.80064819233279],[22.340096748617473,65.80009338448565],[22.341780400433258,65.79983176919235],[22.342443827575487,65.79907807704917],[22.34369375776191,65.79883735737187],[22.34354083922579,65.7983034634835],[22.344408081523152,65.79826162201145],[22.348285214865445,65.79645067685564],[22.35203438261658,65.79572834950653],[22.35318199455391,65.79513163199817],[22.353079934731184,65.79477571019291],[22.355247691469096,65.79467096505343],[22.356012690820986,65.7942731389469],[22.355859549771047,65.79373925954677],[22.35716014571588,65.79367639301707],[22.35907245286088,65.79268179841567],[22.362438349316502,65.7921581439776],[22.36483492181146,65.79132046464008],[22.367818166523136,65.79099562859686],[22.36761368536889,65.7902838079933],[22.369449795976116,65.79055576151436],[22.37067471168559,65.79175945390942],[22.369374252062862,65.79182243436306],[22.370012295566344,65.79251325903866],[22.369196431728955,65.79273319824291],[22.369349841711376,65.79326706165308],[22.368100431558908,65.79350798652118],[22.367259996248702,65.79517254399794],[22.36611271531918,65.79576936422396],[22.366470584517373,65.79701505334177],[22.371343255195093,65.79748617393719],[22.38736046936983,65.79670890745254]],[[22.40442636222498,65.78687298574738],[22.404477727180456,65.78705092619154],[22.40404435370351,65.78707201588728],[22.40442636222498,65.78687298574738]],[[22.399573451933076,65.78223722857511],[22.398655542548095,65.78210143451014],[22.399522132325615,65.78205928603914],[22.399573451933076,65.78223722857511]],[[22.399852783292967,65.78168232516998],[22.400719356641346,65.78164017005332],[22.40038871898485,65.78201713267285],[22.399522132325615,65.78205928603914],[22.399852783292967,65.78168232516998]],[[22.397207311960273,65.78469799459032],[22.39628932570019,65.78456218702502],[22.394863723107274,65.78571411056788],[22.392212270836932,65.78566252028956],[22.39195589350807,65.78477279292207],[22.392948251361414,65.78364195347945],[22.394527688973955,65.78302388179304],[22.39442511637797,65.78266799266352],[22.395343025279523,65.7828038122015],[22.39870685627953,65.78227937739467],[22.399345428969525,65.78297007418917],[22.398427494340492,65.78283427899599],[22.398404695361883,65.78427889524197],[22.397207311960273,65.78469799459032]],[[22.388889956171226,65.78023039058627],[22.389425720086688,65.78056523828363],[22.38769259813928,65.780649414971],[22.387538898853247,65.78011557281013],[22.39003602667087,65.77963341075962],[22.389756502280097,65.78018829804358],[22.388889956171226,65.78023039058627]],[[22.369910015919274,65.7921573506203],[22.370343508342714,65.79213635678836],[22.37039465071897,65.7923143108362],[22.369910015919274,65.7921573506203]],[[22.368969750100987,65.79653321674856],[22.36940331701567,65.79651222487153],[22.369454463338503,65.79669017919466],[22.368969750100987,65.79653321674856]],[[22.369454463338503,65.79669017919466],[22.36993918246095,65.79684714004385],[22.369505610438786,65.79686813349313],[22.369454463338503,65.79669017919466]],[[22.35264638105656,65.79479665554628],[22.352595355251044,65.79461869443338],[22.35302890598325,65.79459774925331],[22.35264638105656,65.79479665554628]]],[[[22.40751932,65.79573066],[22.407387007093735,65.79527232525524],[22.40534231570889,65.79583630336931],[22.40751932,65.79573066]]],[[[21.894657299999995,65.52230831999998],[21.878512526068604,65.52304417873061],[21.877147949928634,65.52384161546593],[21.877430837584136,65.52491052682274],[21.87876653093043,65.52503000242712],[21.878525649251507,65.52576216813726],[21.876472304198767,65.52621625726678],[21.874231221634158,65.52724477419434],[21.8753180206388,65.53135088494837],[21.87936960814508,65.53059181157097],[21.880899275966616,65.52980094795294],[21.880804908573356,65.52944464708875],[21.884147147285873,65.52893177390821],[21.884482305790765,65.52855589877713],[21.886965243924074,65.52808211702376],[21.888017764138937,65.52713262016553],[21.89212410467339,65.52622410401858],[21.895724430611057,65.52632916583428],[21.894657299999995,65.52230831999998]]],[[[22.359092590616605,65.84175730409956],[22.357687224123318,65.84146429441824],[22.35789191953173,65.84217612616993],[22.358862976556033,65.84249010423915],[22.359680489686795,65.84227020451402],[22.359092590616605,65.84175730409956]]],[[[22.356252641814418,65.83034701878987],[22.35663565223552,65.83014809881546],[22.3562015063805,65.83016905995486],[22.356252641814418,65.83034701878987]]],[[[22.45978265539261,65.8532833385663],[22.459730748768667,65.85310542207927],[22.459296317020144,65.85312667908067],[22.45978265539261,65.8532833385663]]],[[[22.457792831525467,65.86005755989513],[22.457046854271827,65.85901130827837],[22.455256822911622,65.85891838418745],[22.45449152176347,65.85931671052697],[22.453375884769894,65.86153670428945],[22.451254842421672,65.86182081362068],[22.451358581401394,65.86217665305222],[22.449827643307366,65.86297326609848],[22.44975606490145,65.86423993932017],[22.45062532223067,65.86419747452547],[22.45116369740956,65.86453207976565],[22.452694683526634,65.86373545287313],[22.45259091849286,65.86337961459995],[22.457792831525467,65.86005755989513]]],[[[22.44963993292086,65.86081699109046],[22.449743644679508,65.86117283188076],[22.450178221891342,65.8611516006335],[22.44963993292086,65.86081699109046]]],[[[22.40065134380085,65.78597401608454],[22.401136041867257,65.78613087799236],[22.401084702165978,65.78595293617802],[22.40065134380085,65.78597401608454]]],[[[22.412103521271025,65.81952015048562],[22.411669609026706,65.81954126706614],[22.411721102346583,65.81971920382036],[22.412103521271025,65.81952015048562]]],[[[22.372023358768995,65.86982116579314],[22.372074698575997,65.86999911734904],[22.372509501740826,65.86997810479154],[22.372023358768995,65.86982116579314]]],[[[22.36031803383443,65.83989384347262],[22.36042040886607,65.84024975736024],[22.36128903170391,65.8402078066878],[22.361186644857785,65.83985189349536],[22.36031803383443,65.83989384347262]]],[[[22.36162094920035,65.83983091666569],[22.361135452603882,65.83967393686211],[22.361186644857785,65.83985189349536],[22.36162094920035,65.83983091666569]]],[[[22.361264275608423,65.84165243580965],[22.360829940168998,65.84167341192261],[22.360881135089492,65.84185136863177],[22.361264275608423,65.84165243580965]]],[[[22.35801541951818,65.83188575488631],[22.359317936284388,65.83182285153545],[22.359266776135556,65.83164489396455],[22.35801541951818,65.83188575488631]]],[[[22.358091529182545,65.83061908238334],[22.357657376808827,65.83064004772429],[22.357708523431807,65.83081800596432],[22.358091529182545,65.83061908238334]]],[[[22.35753009736312,65.83172876195042],[22.357964268224116,65.83170779679435],[22.357913117708602,65.83152983867768],[22.35753009736312,65.83172876195042]]],[[[22.357606230964308,65.83046208945954],[22.35717208076346,65.83048305339994],[22.357223223656664,65.83066101183836],[22.357606230964308,65.83046208945954]]],[[[22.355256966548065,65.83147765098484],[22.35747894979919,65.8315508036601],[22.356406052785978,65.83088089514685],[22.35510357513508,65.83094377328729],[22.355256966548065,65.83147765098484]]],[[[22.357120938648656,65.8303050949369],[22.356686790620703,65.8303260574768],[22.356737929784217,65.83050401611351],[22.357120938648656,65.8303050949369]]],[[[22.348465709527314,65.86608622660614],[22.348030948640282,65.8661071703839],[22.348082113397393,65.86628513165384],[22.348465709527314,65.86608622660614]]],[[[22.343171678151528,65.86760414281227],[22.34306941112117,65.86724821637631],[22.342634625295677,65.86726914504487],[22.343171678151528,65.86760414281227]]],[[[22.34422034257285,65.86665153471985],[22.345908282462926,65.86638983297605],[22.34593387195876,65.86801242925152],[22.34746838923861,65.86721682358649],[22.347263742978402,65.8665049774624],[22.3463430502092,65.86636889516963],[22.344629614195856,65.86500800432817],[22.342327860673958,65.86620136410454],[22.342430112430815,65.86655729118314],[22.343350792584193,65.86669339716077],[22.342532367304674,65.86691321816323],[22.34306941112117,65.86724821637631],[22.34422034257285,65.86665153471985]]],[[[22.34506427927175,65.86805430184461],[22.345166577786074,65.86841022664542],[22.345601380441757,65.86838929061615],[22.34593387195876,65.86801242925152],[22.34506427927175,65.86805430184461]]],[[[22.344731774350727,65.86843116144556],[22.3447829218161,65.86860912398262],[22.345217728212706,65.86858818900885],[22.344731774350727,65.86843116144556]]],[[[22.344459059480776,65.79843958631919],[22.3448926824106,65.79841866357235],[22.344841701509434,65.79824069943776],[22.344459059480776,65.79843958631919]]],[[[22.34292843249346,65.79923512481064],[22.343362070297797,65.79921420627183],[22.343311098071442,65.79903624154298],[22.34292843249346,65.79923512481064]]],[[[22.342302093877038,65.86764599961455],[22.342353222639076,65.86782396314275],[22.342788018127123,65.86780303518259],[22.342302093877038,65.86764599961455]]]]}}]}