{"type":"FeatureCollection","properties":{"source":"SMHI SE.SR Ytansamling av alger","date":"2026-07-10","note":"Test: SMHI WFS clipped to Lulea municipal sea area and simplified 20 m."},"features":[{"type":"Feature","properties":{"cyano_daymap_file_id":723738,"date":"2026-07-10Z","cloud":null,"sub_surfac":null,"surface":null,"no_data":null,"class":1,"color_hex":null,"algae_class":"class_1","source_date":"2026-07-10"},"geometry":{"type":"MultiPolygon","coordinates":[[[[23.0474934,65.31165743],[23.04476524,65.30277335],[23.023526359999998,65.30391267],[23.020807229999996,65.29502805999999],[22.99957333,65.29616392999999],[23.007715749999996,65.32281893999999],[22.986458779999996,65.32395322],[22.997315560000004,65.35949411],[23.018600669999998,65.35835797999998],[23.021326979999998,65.36724256999999],[23.0426171,65.36610299],[23.03988375,65.35721887],[23.08985861412028,65.3545295556715],[23.12416608883948,65.30751626807668],[23.0474934,65.31165743]]],[[[23.06664763,65.373844],[23.069359921026898,65.382619963421],[23.076136783779226,65.37333328172339],[23.06664763,65.373844]]]]}},{"type":"Feature","properties":{"cyano_daymap_file_id":723738,"date":"2026-07-10Z","cloud":null,"sub_surfac":null,"surface":null,"no_data":null,"class":1,"color_hex":null,"algae_class":"class_1","source_date":"2026-07-10"},"geometry":{"type":"MultiPolygon","coordinates":[[[[22.700629409999998,65.08618821],[22.716592355287453,65.08536141911198],[22.699948511048326,65.08384473772891],[22.700629409999998,65.08618821]]],[[[22.72430435,65.09398757],[22.745390959999998,65.09289225999999],[22.75059716,65.11067374],[22.77169568,65.10957458],[22.77954022,65.13624497],[22.82177297,65.13403509],[22.82440555,65.14292418999999],[22.84552594,65.14181435],[22.848167400000005,65.15070294],[22.86929276,65.14958969],[22.87724974,65.17625369],[22.85610356,65.17736829],[22.86140416,65.19514485],[22.903722350000002,65.19291087],[22.901057169999998,65.18402353],[22.92220635,65.18290254],[22.92487849,65.19178943],[22.988334969999997,65.18840727999998],[22.98026201,65.16175053],[22.9947620661768,65.16097260831013],[22.982021613701992,65.1539487475862],[22.960190125166896,65.1434996447016],[22.936695353363596,65.13371361195249],[22.924360538612298,65.1290836625267],[22.8985886497093,65.1203780521599],[22.885184620758892,65.11631308182429],[22.8574198396373,65.1087830198622],[22.8430911307973,65.1053259673164],[22.813630577896,65.099051531591],[22.783216068086205,65.09365218440139],[22.767695334584204,65.0912889661128],[22.736125520193397,65.0872488627787],[22.721939054787512,65.08587805807744],[22.72430435,65.09398757]]]]}}]}