{"type":"FeatureCollection","properties":{"source":"SMHI SE.SR Ytansamling av alger","date":"2024-07-17","note":"Test: SMHI WFS clipped to Lulea municipal sea area and simplified 20 m."},"features":[{"type":"Feature","properties":{"cyano_daymap_file_id":723552,"date":"2024-07-17Z","cloud":null,"sub_surfac":null,"surface":null,"no_data":null,"class":1,"color_hex":null,"algae_class":"class_1","source_date":"2024-07-17"},"geometry":{"type":"Polygon","coordinates":[[[22.55142089,65.23820507],[22.54886851,65.22931037],[22.57007158,65.22823859000002],[22.567514099999997,65.21934426],[22.546318019999994,65.2204156],[22.543769430000005,65.21152077],[22.564958519999998,65.21044986],[22.56240484,65.2015554],[22.520038739999997,65.20369336],[22.51496497999999,65.18590251999998],[22.47261927,65.18802685],[22.475141249999997,65.19692316],[22.453958599999996,65.19798129],[22.45647546,65.20687798000002],[22.477665099999996,65.20581942],[22.48524791,65.23250781],[22.50645666,65.23144497],[22.508995039999995,65.24034054999998],[22.55142089,65.23820507]]]}}]}