{"type":"FeatureCollection","properties":{"source":"SMHI SE.SR Ytansamling av alger","date":"2024-08-05","note":"Test: SMHI WFS clipped to Lulea municipal sea area and simplified 20 m."},"features":[{"type":"Feature","properties":{"cyano_daymap_file_id":723571,"date":"2024-08-05Z","cloud":null,"sub_surfac":null,"surface":null,"no_data":null,"class":1,"color_hex":null,"algae_class":"class_1","source_date":"2024-08-05"},"geometry":{"type":"MultiPolygon","coordinates":[[[[22.4829233,65.82813387000002],[22.483897741123183,65.83146478197406],[22.487623521852942,65.83098461240988],[22.48871739837411,65.83020898715282],[22.490019443113255,65.83014497367512],[22.490557583798815,65.83047944238108],[22.493595696184208,65.83033002363408],[22.493873448482212,65.82977496392337],[22.49696356129301,65.82980338211371],[22.497293343437594,65.82942621879273],[22.49897719467621,65.82916286733196],[22.498768723198804,65.8284512628991],[22.49963667451608,65.82840853210487],[22.499532431747372,65.8280527304433],[22.5030041581451,65.82788176106517],[22.50298808931726,65.82714381971653],[22.4829233,65.82813387000002]],[[22.48948131659441,65.8298105029347],[22.489533372397318,65.82998840784357],[22.48909936043185,65.83000974549279],[22.48948131659441,65.8298105029347]]],[[[22.46813200106144,65.85287454787087],[22.46934001877161,65.85281537010647],[22.472588894791517,65.85337799170779],[22.47279688453867,65.85408963654451],[22.4720320007728,65.85448804666021],[22.47272644101526,65.85535630945405],[22.47441224751556,65.85509320994107],[22.474430598094013,65.85364862657215],[22.477315473895295,65.8529657730917],[22.480408383691262,65.85299449918786],[22.48117309167168,65.85259604885253],[22.48101693521011,65.85206232540058],[22.478532759551047,65.8511014459605],[22.475005696311662,65.85109398086544],[22.480010062070797,65.8501266526568],[22.48077469341888,65.84972820506057],[22.48251210061085,65.84964292848848],[22.48148725360576,65.8491518461483],[22.47936756177606,65.84943633247649],[22.478220585151444,65.8500339921592],[22.475180038114516,65.85018312860777],[22.47311217913399,65.8506454400973],[22.467509152385432,65.85074259692793],[22.46813200106144,65.85287454787087]],[[22.475109711946313,65.8514498014718],[22.474675323451322,65.85147110177812],[22.474623318191373,65.85129319131109],[22.475109711946313,65.8514498014718]],[[22.470227444291982,65.8513282128501],[22.471913015608745,65.85106514318876],[22.471148205352307,65.85146354816642],[22.470227444291982,65.8513282128501]]],[[[22.46898106685827,65.85578081819924],[22.46968522634347,65.85550534302865],[22.469651865072507,65.85388284522783],[22.468395686663087,65.85377711825224],[22.46898106685827,65.85578081819924]]]]}}]}