{"type":"FeatureCollection","properties":{"source":"SMHI SE.SR Ytansamling av alger","date":"2024-09-03","note":"Test: SMHI WFS clipped to Lulea municipal sea area and simplified 20 m."},"features":[{"type":"Feature","properties":{"cyano_daymap_file_id":723599,"date":"2024-09-03Z","cloud":null,"sub_surfac":null,"surface":null,"no_data":null,"class":1,"color_hex":null,"algae_class":"class_1","source_date":"2024-09-03"},"geometry":{"type":"MultiPolygon","coordinates":[[[[22.266341680000004,65.68527383],[22.265322056757192,65.68165523193345],[22.264254061189888,65.68286201692817],[22.262727565318006,65.68365671109446],[22.26095030151035,65.68356138992682],[22.25726467308392,65.68445935186325],[22.255463736680152,65.68579407359259],[22.266341680000004,65.68527383]]],[[[22.263833919999996,65.67637389999999],[22.258293726929608,65.6766384402067],[22.260841969595848,65.67851538114968],[22.26208692908472,65.67827537763974],[22.262187187627617,65.6786313774201],[22.263432139529073,65.67839136296497],[22.2643958126548,65.67870601184723],[22.263833919999996,65.67637389999999]]],[[[22.257150515790443,65.64963098909985],[22.258288219342113,65.64923259616181],[22.258900449119242,65.64830127639117],[22.25976284092915,65.64825996255645],[22.260425041481163,65.64750663886238],[22.261618477057496,65.64708865210402],[22.261699279487182,65.64582198306896],[22.262511527777413,65.64560265368479],[22.263504598249824,65.64447265129164],[22.26358530746948,65.64320598213573],[22.265009332199245,65.6420553026146],[22.26442806393496,65.64154197454884],[22.265290220679862,65.64150063159582],[22.26519009230778,65.64114463252697],[22.267195211382823,65.64050725932647],[22.268187893041592,65.63937723003578],[22.267436780154245,65.6367072511482],[22.268579536476988,65.63611121678655],[22.274206400788778,65.63559004883335],[22.272869189999998,65.63084023],[22.258124667162594,65.63154722133018],[22.258178583001918,65.63173919216412],[22.25504116159653,65.63169507363614],[22.255262055160042,65.63223972680802],[22.25622388336699,65.63255444539182],[22.2574667031751,65.63231450031097],[22.257316736552287,65.63178049173072],[22.257897635490927,65.63229385062562],[22.26038319435594,65.631813923658],[22.260352343944344,65.63325859434623],[22.25949045125681,65.63329990670394],[22.259640473132475,65.633833912596],[22.258066637650046,65.63445053247436],[22.25618063575577,65.6370664647321],[22.257292659351332,65.63791518400446],[22.259016756414603,65.63783257633838],[22.258454768709395,65.63894189669891],[22.260367394585398,65.64263862377656],[22.25950519061763,65.64267993922986],[22.25889310415472,65.6436112600847],[22.25764976203978,65.6438512218819],[22.25774979961295,65.64420722679431],[22.256937552648978,65.6444265306945],[22.25483187253106,65.64470776668527],[22.25295733912918,65.64425631851071],[22.253057314248622,65.64461232711673],[22.251432699079555,65.64505088153413],[22.251582637066086,65.64558489615982],[22.2502891579784,65.64564679434174],[22.250439076592656,65.64618081028168],[22.24762069184323,65.64703722602181],[22.24632712902263,65.64709909126032],[22.24432097948449,65.64773619873147],[22.24335871730764,65.64742140894163],[22.240340320284684,65.64756566011282],[22.23919641138941,65.64816149290888],[22.23752144278583,65.64842189314018],[22.23792059198803,65.64984597499134],[22.236768109136328,65.65060549925028],[22.257150515790443,65.64963098909985]],[[22.246045778406618,65.64765373161694],[22.246095726083936,65.64783173858403],[22.245664524577357,65.64785235735829],[22.246045778406618,65.64765373161694]]],[[[22.294412919999992,65.62980408999998],[22.293674419084073,65.62718662230839],[22.29174601743548,65.6268794162593],[22.288278635087494,65.62542268699201],[22.288107222676736,65.62326606231974],[22.286915301293202,65.62368424258365],[22.28174611063768,65.62393292733788],[22.28012327484726,65.62437177146866],[22.279842870172118,65.62492646527348],[22.277638805830897,65.62485201113584],[22.276596953805733,65.62580409783784],[22.273300729992243,65.62650366644169],[22.272439086169584,65.62654504991387],[22.271522529623663,65.62605319730244],[22.272869189999998,65.63084023],[22.294412919999992,65.62980408999998]]],[[[22.226180944563488,65.62004111839335],[22.226814791827184,65.61952927655723],[22.23064173549615,65.61916617103383],[22.23140365292733,65.61876899965905],[22.234749888144062,65.61824835134584],[22.23503119810674,65.61769373221108],[22.236273519248137,65.61745396547505],[22.236124091255757,65.61691993072293],[22.24656038189649,65.61678152663505],[22.24805199367371,65.61743170178158],[22.247440037817878,65.61836297533152],[22.246297545695235,65.61895884802861],[22.24543610022038,65.61900007625226],[22.244873891085668,65.62010934858576],[22.243300510452254,65.62072581099278],[22.243699463651026,65.62214987980657],[22.245041673539145,65.62226605686065],[22.246252458462376,65.62347088267329],[22.248969649999424,65.62348101681225],[22.24882717,65.62297303999999],[22.26267020733896,65.62230932058036],[22.26551807051749,65.6205632663714],[22.26377582447287,65.61902326604084],[22.261372353414075,65.61823656708097],[22.259942184087713,65.61469718395388],[22.26070351691298,65.61429987113048],[22.26073438519903,65.61285520003496],[22.265501623322415,65.61118324980605],[22.264390530427207,65.61033458151192],[22.260946011588263,65.61049986374476],[22.260615365588034,65.61087652276979],[22.25650932120782,65.61179502239784],[22.256228529667748,65.61234967632404],[22.254125426307056,65.61263087759762],[22.253413955981483,65.61320616283193],[22.251741377142814,65.6134666968217],[22.250218456054697,65.61426123115834],[22.250318254657902,65.61461724334247],[22.24902631260276,65.6146791158991],[22.250368155089717,65.61479524939867],[22.25094851835271,65.61530864012856],[22.248745332494796,65.61523375778783],[22.247784246796744,65.61491898459278],[22.243096863047796,65.61532372773421],[22.24491924554432,65.61559731166643],[22.25013710325139,65.61552789963385],[22.25033671296797,65.61623992391578],[22.248813589979395,65.61703444609228],[22.248913382180145,65.61739045925646],[22.24800210299873,65.61725369487196],[22.247371866954374,65.61656228558529],[22.23860861555035,65.6164403703185],[22.237366365115808,65.6166801554938],[22.234583006003454,65.61609162295078],[22.225289594969944,65.61685381693228],[22.226180944563488,65.62004111839335]]],[[[22.2491305608734,65.62405470429924],[22.24784426749375,65.62447707074634],[22.246982642082273,65.6245183094928],[22.246882843334042,65.62416229513823],[22.245590416980875,65.62422414312068],[22.245690198311934,65.62458015849363],[22.243304792456623,65.62541585819868],[22.24383538527726,65.62575126648066],[22.243123340202338,65.6263265089595],[22.24380360028103,65.62719594285569],[22.243789924524993,65.63026330380681],[22.244751542780264,65.63057809712096],[22.244901242788206,65.63111212068995],[22.244039391723913,65.63115334490526],[22.24466991658065,65.63184476517539],[22.243808040771132,65.63188598831607],[22.24390783314962,65.63224200473644],[22.24476972057835,65.63220078091682],[22.244438578445024,65.63257740942007],[22.245300475985243,65.63253618248888],[22.24520066316171,65.63218016718257],[22.248267166497076,65.63221384346333],[22.249460113186732,65.63179595695358],[22.25127746143239,65.63170894143119],[22.2491305608734,65.62405470429924]],[[22.24629383493236,65.63140628981982],[22.24634374666483,65.63158429707126],[22.245912815057938,65.63160491394503],[22.24629383493236,65.63140628981982]],[[22.245962724639885,65.63178292134234],[22.246012634975965,65.63196092871571],[22.245581696805555,65.63198154471277],[22.245962724639885,65.63178292134234]]],[[[22.23874035428903,65.6153517132286],[22.238409325148833,65.61572832752506],[22.243096863047796,65.61532372773421],[22.23874035428903,65.6153517132286]]],[[[22.28967138724346,65.62571645650216],[22.28962119234787,65.62553846628263],[22.28919040249631,65.62555920465334],[22.28967138724346,65.62571645650216]]]]}},{"type":"Feature","properties":{"cyano_daymap_file_id":723599,"date":"2024-09-03Z","cloud":null,"sub_surfac":null,"surface":null,"no_data":null,"class":1,"color_hex":null,"algae_class":"class_1","source_date":"2024-09-03"},"geometry":{"type":"Polygon","coordinates":[[[22.88330187,65.55512412],[22.867114139999998,65.50179898],[22.8457044,65.502915],[22.843020669999998,65.49402677999997],[22.80020945,65.49624886],[22.80555035,65.51402705],[22.826971259999997,65.51291660999999],[22.840394489999998,65.55735862999998],[22.88330187,65.55512412]],[[22.813993640177465,65.50313168118892],[22.81351175283059,65.50297611209542],[22.813940160945588,65.5029539039303],[22.813993640177465,65.50313168118892]],[[22.814154647924592,65.50222058598246],[22.815011437265266,65.50217616507676],[22.814796974764494,65.50290948398141],[22.813940160945588,65.5029539039303],[22.814154647924592,65.50222058598246]]]}},{"type":"Feature","properties":{"cyano_daymap_file_id":723599,"date":"2024-09-03Z","cloud":null,"sub_surfac":null,"surface":null,"no_data":null,"class":1,"color_hex":null,"algae_class":"class_1","source_date":"2024-09-03"},"geometry":{"type":"MultiPolygon","coordinates":[[[[21.93294343,65.42138392],[21.93530943,65.43029056],[21.957309816775805,65.42927421888037],[21.95804126003761,65.42817387839571],[21.959610179551568,65.42756041994332],[21.959848029710177,65.4268281530967],[21.96075119324169,65.42696672383265],[21.961892155415285,65.42637301957798],[21.962367697470956,65.42490847978841],[21.96517214915262,65.42405749477713],[21.96536229024531,65.42314709983381],[21.967501111343484,65.4230481357489],[21.96906950295484,65.42243458391556],[21.970209818419487,65.42021794394546],[21.972654598344757,65.41954976290823],[21.96792489351828,65.419768585351],[21.967120740407477,65.42000029489662],[21.96731087081371,65.42071277651524],[21.966788085013274,65.42037632975529],[21.965504923221744,65.42043570453295],[21.964934583930244,65.42154400954729],[21.964079101994948,65.421583583821],[21.96422164718674,65.42211794842235],[21.963033409718523,65.42253354617229],[21.962130389150758,65.42239498772653],[21.96056183320336,65.42300846897263],[21.95908859272985,65.42235529857138],[21.958946150527034,65.42182092814028],[21.96008693647206,65.42122723917043],[21.959991965673773,65.420870992943],[21.96084743182857,65.42083144200046],[21.96113268723752,65.42027729666906],[21.96236462002363,65.42002583451836],[21.954330879999993,65.42039751999998],[21.95195950999999,65.41149122999998],[21.973338029999997,65.41050221],[21.975434771218662,65.41835303599763],[21.97724216416467,65.41736766255599],[21.978905197039175,65.41711024693198],[21.98028251585404,65.41578412043242],[21.981137779145794,65.41574445634805],[21.981042546597052,65.41538822586605],[21.98189779559745,65.41534855760798],[21.984177707738127,65.41416083970708],[21.984414767436707,65.41342854158597],[21.987501884632483,65.41202297616816],[21.98740658204534,65.41166675035794],[21.9893060515399,65.41067692276575],[21.9914437471347,65.4105776299544],[21.993058518153994,65.41014195243434],[21.994152039651276,65.41099277001742],[21.99329695499224,65.41103250619902],[21.992348104237045,65.41233887917409],[21.989308884493212,65.4139226537612],[21.989831821943046,65.41425902102378],[21.9877891374323,65.41471451938382],[21.98788445859921,65.41507074475795],[21.98560464077301,65.41625851777961],[21.985367593208537,65.4169908176238],[21.98289696008868,65.41746609737581],[21.980284265329008,65.41902986169654],[21.98312489053592,65.41906427764597],[21.985225831784817,65.41807934446116],[21.985462891504316,65.41734704473535],[21.987173498156537,65.41726765219133],[21.988265771856533,65.41649564535888],[21.989168716825198,65.41663404806646],[21.989073371357268,65.4162778237454],[21.99068852961968,65.4158421679325],[21.99325425947377,65.4157229846571],[21.994773895024874,65.41493106504083],[21.996188207695255,65.41501039326631],[21.994714769999998,65.40951018999999],[22.033961567237228,65.4076803458079],[22.034421131417883,65.40460740693635],[22.035227971984476,65.40438934548575],[22.03617440270333,65.40308272614783],[22.038830144954012,65.40169613487167],[22.038734191478287,65.40133994783477],[22.039920251079874,65.40092377488047],[22.03982428623324,65.40056758864391],[22.041768948846318,65.39975522033717],[22.041672964093227,65.3993990354649],[22.04252758111669,65.39935902946294],[22.042858889553212,65.39898284067415],[22.04542268480503,65.39886278849757],[22.048173576174886,65.39783222311358],[22.055389113451636,65.39731362318861],[22.057194342660072,65.39758962574149],[22.058241272351935,65.39826187722369],[22.057013101583617,65.40012292793446],[22.057536609793573,65.40045905478358],[22.064987350539887,65.39920760013895],[22.067599211946686,65.39926525502757],[22.068694650110853,65.40011551303782],[22.06788822791533,65.40033374954209],[22.06784629953909,65.40177848436103],[22.066329656403934,65.40257111106199],[22.066715006617876,65.40399577351953],[22.065246367443386,65.4049664736335],[22.065059803050058,65.40587695915748],[22.06420501547206,65.40591709457115],[22.06434949543302,65.40645134538153],[22.062688027374325,65.40670968793653],[22.062405064001133,65.40726400267336],[22.063404368188607,65.4077581288187],[22.065541485277148,65.40765779111092],[22.067389480676468,65.40648892931087],[22.06867168005035,65.4064286971131],[22.071325998792418,65.40504154731575],[22.074648510309554,65.40452465761196],[22.075551465944248,65.40466254291239],[22.07579264035748,65.40555293909054],[22.074937883189968,65.40559313506729],[22.07465519115822,65.40614747016139],[22.073800412528858,65.40618765989664],[22.074420717756535,65.40687988451965],[22.073614139833506,65.40709815315452],[22.07342785594152,65.408008646281],[22.07176638509915,65.4082670889111],[22.068780718201985,65.41003049321151],[22.068208675184184,65.40951632676585],[22.06574032103132,65.40999294133033],[22.063127390457858,65.40993526459714],[22.061989463509374,65.4105297046914],[22.061134518746243,65.41056982421595],[22.061230816988395,65.41092599359031],[22.06004466129161,65.4113423350923],[22.05828657781766,65.41124446206737],[22.058425276585698,65.41015589668305],[22.05709474656618,65.4100379574988],[22.056907871833772,65.41094843587675],[22.054439168101776,65.41142486879035],[22.05458348596132,65.41195913048813],[22.053728480954415,65.4119992085989],[22.05225892079082,65.41296979098627],[22.049838017810234,65.4136242394433],[22.048368223414492,65.41459478615478],[22.04627851892554,65.41487297696268],[22.04637463464685,65.41522915756265],[22.041243831261326,65.41546928165074],[22.03971809612017,65.41588154898676],[22.04226459,65.42532637],[22.02087714,65.42632524],[22.02327354,65.4352302],[22.04466814,65.43423092],[22.047073500000003,65.44313542],[22.050745393590294,65.44296337079324],[22.052024034145635,65.44255686519288],[22.05330804030557,65.44249674625071],[22.05307160153997,65.44285437465199],[22.06847345,65.44213271],[22.073303919999997,65.45994071],[22.09471638,65.45893417000002],[22.092293079999997,65.45003061],[22.13509822,65.44800929],[22.132662429999996,65.4391065],[22.14596445605511,65.43847551298529],[22.146595001417534,65.4380990380673],[22.146107137886965,65.43631852740019],[22.144298335857847,65.43604362519808],[22.14405449604578,65.43515336543715],[22.143150141149167,65.43501590429074],[22.14305262324598,65.43465979951279],[22.144763775703147,65.43457861426783],[22.146561230068727,65.43323074859629],[22.148223486231853,65.43297147417098],[22.14973931112881,65.43217803227009],[22.151022536328135,65.43211708963617],[22.151303851465435,65.43156262530911],[22.15222534883259,65.4314188509879],[22.151613990000005,65.4291893],[22.19437955,65.42715155],[22.191925980000004,65.41824989],[22.213298869999996,65.41722691999999],[22.210840009999995,65.40832562],[22.189474259999997,65.40934817999998],[22.184576300000003,65.39154457000001],[22.16322296,65.39256329],[22.16078386,65.38366098],[22.20347447,65.38162138],[22.20102296,65.37271984999998],[22.22235841,65.37169596000001],[22.21990164,65.36279479],[22.19857328999999,65.36381825999999],[22.191235259999996,65.33711314],[22.169926369999995,65.33813235999999],[22.167491099999996,65.32923012],[22.146187470000005,65.33024593000002],[22.148615659999994,65.33914858],[22.1059888,65.34117201],[22.10840461,65.35007543999998],[22.06575633,65.35208768],[22.0609549,65.33427914],[22.103574799999997,65.33226853],[22.09875219,65.3144614],[22.05616065,65.31647037],[22.0537662,65.3075659],[22.032856362353044,65.30854755766694],[21.9374845157948,65.3623116230953],[21.916983064499096,65.39507152230682],[21.925856079999996,65.39466366999999],[21.92821676,65.40357047],[21.92166958824246,65.40387143580598],[21.91962490653506,65.404159921229],[21.921096135068712,65.40481349627143],[21.920571395713328,65.4060997868878],[21.921426452183322,65.40606046341271],[21.921520834869195,65.40641673954045],[21.920665766967115,65.40645606365919],[21.919144327939865,65.40724725328165],[21.919663325781695,65.40920678005902],[21.923414422078523,65.41029643510255],[21.926313102450884,65.40980244877713],[21.927595851385163,65.40974341134243],[21.92902034439045,65.41021876851227],[21.930255846868082,65.40998157327687],[21.930350366443594,65.41033784254809],[21.93206071717197,65.41025907757084],[21.93224981056835,65.41097161326941],[21.930681207281612,65.41158478430167],[21.931203354089828,65.41192136228914],[21.929967770047117,65.412158566056],[21.93048991966645,65.41249514648385],[21.928873928356882,65.41293016534418],[21.929443340807055,65.41344488442915],[21.928160415997546,65.41350393924874],[21.928349431783264,65.4142164805364],[21.927494122156176,65.41425584567514],[21.92763587427767,65.41479025237584],[21.928585717461104,65.41510715664919],[21.928299820034216,65.41566124651332],[21.926636350679644,65.41591810819392],[21.92606444556848,65.41702628101562],[21.924495338810708,65.41763939242055],[21.92458981354009,65.41799566568152],[21.921973529494746,65.41955845341727],[21.921354132985922,65.42048847328367],[21.919737498209628,65.4209234002841],[21.918932199927777,65.42202708405101],[21.93294343,65.42138392]],[[22.103992920000003,65.4134083],[22.12536599,65.41239779],[22.126649356206148,65.41709912891778],[22.127541245654978,65.4175390570242],[22.127832945769153,65.4186074097281],[22.12724420303833,65.41927822366786],[22.12779631,65.42130075000001],[22.123000345107272,65.42152751750272],[22.118406646470856,65.42374286785369],[22.115510280934515,65.42424052265271],[22.115228273468745,65.42479492694343],[22.113945306159813,65.4248555625929],[22.11404238483726,65.42521169046563],[22.11242878743225,65.4256486515486],[22.112622913619475,65.42636090947975],[22.113147669069022,65.42669683079731],[22.11400304286234,65.42665641216101],[22.115061886778363,65.42895102756198],[22.11639361559664,65.42906844341641],[22.116490746376993,65.42942456918954],[22.119008524298735,65.42912517764101],[22.120865190717925,65.4295784513338],[22.120962384501542,65.429934573611],[22.122245580635578,65.42987387604487],[22.122148369699964,65.42951775476143],[22.124043900712746,65.42852627022255],[22.12489931384639,65.42848578941268],[22.125560222622926,65.42773306643862],[22.126843298180006,65.42767233093683],[22.127552766945392,65.42709765881148],[22.129166190601676,65.42666053764462],[22.131353202569944,65.42673731284118],[22.130546514151067,65.42695588705003],[22.132928243729527,65.42774486821497],[22.133745367422076,65.42914905349441],[22.13294901617089,65.43099041369862],[22.131714468542555,65.43122925946976],[22.131909168487773,65.43194148691026],[22.130674566479502,65.4321803246997],[22.130771905139163,65.43253643923],[22.12915815232569,65.43297358075637],[22.126932007208083,65.4343414966246],[22.126076406840813,65.43438199078435],[22.1204856065691,65.43771258553863],[22.11801562133037,65.43819007160353],[22.11493266381673,65.43959826571528],[22.111937370911555,65.43973974258519],[22.110838812614016,65.43888982982018],[22.110498987936854,65.43764337543296],[22.11162784588727,65.43542578270268],[22.11128803798546,65.43417932988294],[22.110335343752055,65.43386360531014],[22.10905191906754,65.43392420378258],[22.108615217422255,65.43232161206956],[22.110793638813877,65.43077589360676],[22.112932411409325,65.43067486800477],[22.112116346452027,65.42927055976025],[22.111163824627518,65.4289548387241],[22.111203319771597,65.42751011631464],[22.107869859392267,65.42640504261222],[22.1057314113882,65.42650599328856],[22.10549766016591,65.42723844870389],[22.103932268782707,65.42785338877873],[22.102124472349455,65.42757797122323],[22.102737553640743,65.42664727359907],[22.1070057189097,65.42482263623135],[22.1086105048389,65.42276294341823],[22.108486077180043,65.42221379531443],[22.1064161,65.42231167],[22.103992920000003,65.4134083]],[[21.961472139999998,65.36597194],[21.98281322,65.36498194],[21.98345363440512,65.3673806887518],[21.984005465854043,65.36656326838089],[21.987845730577753,65.36476184741807],[21.989219990824694,65.3634356676513],[21.99087950924189,65.36317815355578],[21.991163567490627,65.36262396249597],[21.993392516153744,65.3628809046245],[21.99533592062236,65.36206914726492],[21.998227890846362,65.36157384286163],[21.99851177764927,65.3610196395843],[22.001451203587507,65.36070238468116],[22.001546472934237,65.3610586021952],[22.002826639458565,65.36099894961062],[22.002921928728046,65.36135516606001],[22.001689382300857,65.3615929282981],[22.001832298083674,65.36212725419921],[22.003682209989005,65.3625820348638],[22.004299585459652,65.36327457629982],[22.00439490465272,65.36363079151594],[22.00306696294481,65.36351235054524],[22.00325757288772,65.36422478274848],[22.004585551598606,65.36434322167894],[22.004540082863443,65.36578797311935],[22.00292819895679,65.36622374606965],[22.00302351251496,65.36657996219337],[22.002169888158022,65.36661973464471],[22.000796131249746,65.36794602766433],[21.999231688120467,65.36855987185537],[21.997951143717057,65.36861949751275],[21.996432506435646,65.3677885599883],[21.98874932307546,65.36814600697333],[21.983933359818344,65.36917755766504],[21.985566230174665,65.37529366888575],[21.99060350644846,65.37346954755552],[21.990508330916178,65.37311332228033],[21.99264296678924,65.37301404181513],[21.992927082602673,65.3724598469533],[21.994587128402426,65.37220228694112],[22.000371244767145,65.36958876968997],[22.002837083256182,65.36911324954946],[22.004544488535906,65.36903369073207],[22.006442626359114,65.36966653948528],[22.008102355902572,65.36940883354751],[22.009003764064566,65.36954713239112],[22.00909917449412,65.36990334371416],[22.009857470920576,65.36950732040194],[22.01199172556143,65.36940776937577],[22.01208717584942,65.36976397842061],[22.015928840436366,65.36958470785268],[22.016639267508957,65.36901054848741],[22.021525598127756,65.36950369035233],[22.023898825096133,65.37029447459267],[22.02551410614297,65.37148132397627],[22.024660363924585,65.37152122506595],[22.02518287226351,65.37185747404283],[22.024472560817948,65.37243167256813],[22.024759467332032,65.37350027033844],[22.023294288487545,65.37609340801603],[22.02438729753027,65.37694401160093],[22.023588038314436,65.38040770079314],[22.024349882766824,65.38163444970998],[22.02326008218483,65.38240669432294],[22.022405980967616,65.38244658610122],[22.022928686370225,65.38278284094247],[22.02164751422232,65.3828426741718],[22.02050977135538,65.38343679952658],[22.020273948101988,65.38416914268878],[22.01904050586757,65.38440705556658],[22.018995860646584,65.38585180296589],[22.01634060870057,65.38723804030572],[22.015820867043853,65.38852461342606],[22.01435115065945,65.38949482801763],[22.011027430942057,65.38964979074525],[22.01369871,65.39961001999998],[21.9709613,65.40159627000001],[21.961472139999998,65.36597194]],[[22.146289010223143,65.40059741163333],[22.147997930858654,65.40051621152953],[22.14796042295234,65.40196092430197],[22.145824152637022,65.40206242204322],[22.14506703707116,65.402459117539],[22.14444499264328,65.40176720098759],[22.14600788398699,65.40115186491853],[22.146289010223143,65.40059741163333]],[[22.132684883121286,65.42685458534116],[22.132733553782998,65.42703264196221],[22.132305878590937,65.42705290488082],[22.132684883121286,65.42685458534116]],[[22.132208543712846,65.42669679128385],[22.132257210786943,65.42687484809389],[22.13140186392862,65.42691536998294],[22.132208543712846,65.42669679128385]],[[22.08058934321055,65.39450634427851],[22.089916396841762,65.38901712670229],[22.092430646218578,65.3887182129522],[22.093566950242135,65.38812355882085],[22.094896508007736,65.38824118562982],[22.095089824619603,65.38895347427652],[22.093623064011915,65.3899244326321],[22.08940025138695,65.39030391782828],[22.08778834554401,65.39074059898344],[22.085136320980705,65.39212801652933],[22.08357968134586,65.39436553775704],[22.08035512219761,65.3952387655108],[22.08058934321055,65.39450634427851]],[[22.033789526044227,65.39904649087626],[22.03293490309801,65.39908644738897],[22.03288697174376,65.39890835155792],[22.033693652640093,65.39869029984524],[22.033789526044227,65.39904649087626]],[[22.020880843720853,65.4025348254845],[22.020453463972288,65.40255476840629],[22.020357755966213,65.40219856732016],[22.020880843720853,65.4025348254845]],[[22.016873163155733,65.34086783089761],[22.0164467807809,65.34088775282585],[22.01639908915397,65.34070964929654],[22.016873163155733,65.34086783089761]],[[22.01356546148157,65.34625194577208],[22.01531904072845,65.34635038387259],[22.015557531332025,65.34724090269042],[22.014799946897092,65.34763694793195],[22.014659622669885,65.34872548956346],[22.01375890757148,65.34858721782429],[22.01342777443863,65.34896334117265],[22.01139053560213,65.34941910702018],[22.007978308422064,65.34957833560817],[22.009729634864993,65.34805398013819],[22.01356546148157,65.34625194577208]],[[22.011944001489056,65.36922966481966],[22.01237084742727,65.3692097511681],[22.012418574346565,65.36938785556146],[22.011944001489056,65.36922966481966]],[[22.007599428082695,65.34977634047439],[22.00717289292191,65.34979623759972],[22.007125244497963,65.34961813073572],[22.007599428082695,65.34977634047439]],[[21.994579580908184,65.41097290011842],[21.994627278992958,65.41115101031629],[21.99419973487869,65.41117088037791],[21.994579580908184,65.41097290011842]],[[21.97310417628309,65.40187142839747],[21.972676763585373,65.40189123617407],[21.972629234728906,65.40171311739624],[21.97310417628309,65.40187142839747]],[[21.961702374587134,65.42403764901408],[21.962415417226666,65.42346372105374],[21.9626529602212,65.42435433154758],[21.961702374587134,65.42403764901408]],[[21.960894303304798,65.42425532851017],[21.961322091096758,65.42423555056554],[21.961369592537,65.42441367310568],[21.960894303304798,65.42425532851017]],[[21.961369592537,65.42441367310568],[21.962272679581478,65.42455223546727],[21.96141709468986,65.42459179562353],[21.961369592537,65.42441367310568]],[[21.96075181184347,65.42372096027047],[21.960324031922916,65.42374073652296],[21.9602765390554,65.42356261356994],[21.96075181184347,65.42372096027047]],[[21.960704000512997,65.4251657193459],[21.960276196988488,65.42518549568742],[21.96018120628887,65.42482924979134],[21.960704000512997,65.4251657193459]],[[21.96065682109847,65.42336471466605],[21.960229046900338,65.42338449059469],[21.96018155545771,65.42320636759719],[21.96065682109847,65.42336471466605]],[[21.960561506947737,65.42463135095419],[21.96013371200785,65.42465112680992],[21.960086218439322,65.42447300380627],[21.960561506947737,65.42463135095419]],[[21.95965842564841,65.42449277829367],[21.959230632145054,65.42451255157467],[21.9591356585911,65.42415630485291],[21.95965842564841,65.42449277829367]],[[21.931725514461107,65.41225793833763],[21.931297894975824,65.41227763075204],[21.931250624178396,65.41209949653165],[21.931725514461107,65.41225793833763]],[[21.93015682317871,65.41287110473914],[21.930251353997214,65.41322737394819],[21.929823717379797,65.4132470623448],[21.93015682317871,65.41287110473914]],[[21.92930617338041,65.40966467788203],[21.928878593944276,65.4096843630558],[21.928831345212526,65.40950622785948],[21.92930617338041,65.40966467788203]],[[21.928403767926554,65.40952591166636],[21.92797618993216,65.40954559426748],[21.927928947626075,65.40936745872688],[21.928403767926554,65.40952591166636]],[[21.923472361815808,65.40398295439691],[21.922617376705528,65.40402228879803],[21.922570182775722,65.40384415110236],[21.923472361815808,65.40398295439691]],[[21.921901173204212,65.40621893778074],[21.922328702528365,65.40619927286828],[21.922375899941088,65.40637741059922],[21.921901173204212,65.40621893778074]],[[21.922375899941088,65.40637741059922],[21.922850632394006,65.40653588186815],[21.92242309806145,65.40655554830815],[21.922375899941088,65.40637741059922]],[[21.922115203824394,65.42009286599583],[21.92216243001775,65.4202710034779],[21.92173467126654,65.42029067009295],[21.922115203824394,65.42009286599583]],[[21.92140135487325,65.42066661104366],[21.92144857746897,65.42084474878163],[21.921020808716612,65.42086441346689],[21.92140135487325,65.42066661104366]]],[[[21.997100440000004,65.41841567],[21.99694020608344,65.41781753197618],[21.99638244797428,65.41844899213298],[21.997100440000004,65.41841567]]],[[[21.996533497940185,65.41629932902458],[21.995821798203206,65.41722661929424],[21.99591723944987,65.41758283842321],[21.99686552692286,65.41753876174772],[21.996533497940185,65.41629932902458]]],[[[22.15232299270791,65.43177494627443],[22.151401467487766,65.43191872380196],[22.151596708318003,65.43263092050866],[22.15251828074566,65.4324871378946],[22.15232299270791,65.43177494627443]]],[[[22.204489909999996,65.22824995],[22.18326931,65.22927017],[22.192997900000005,65.26487802],[22.235493519999995,65.26283127],[22.23304458,65.25393022999998],[22.275518839999997,65.25187235],[22.273057659999996,65.24297209],[22.315510519999997,65.24090309999998],[22.313037129999998,65.23200361999999],[22.37668156,65.22887903],[22.379176000000005,65.23777724],[22.400394109999997,65.23672932],[22.40289743,65.24562704999998],[22.381672289999997,65.24667538999998],[22.38417045,65.25557347999998],[22.4266329,65.25347295],[22.43166291,65.27126723],[22.452905389999998,65.27021162999999],[22.45543024,65.27910825],[22.4979236,65.27698721],[22.500464409999996,65.28588290999998],[22.54296426,65.28374906],[22.548079720000004,65.30153852],[22.505551709999995,65.30367411],[22.508098209999996,65.31256961],[22.4868243,65.31363336],[22.489365639999995,65.32252923],[22.404222869999998,65.32675598999998],[22.40170977,65.31785839],[22.380426439999997,65.31890717],[22.38293247,65.3278052],[22.3616402,65.3288514],[22.359314153883293,65.32056870550299],[22.357499530251275,65.32058856402978],[22.356096238008085,65.32173990457885],[22.35607003841126,65.32318454889926],[22.355018720094936,65.3225144165586],[22.353215788353822,65.32224196070091],[22.354393213860725,65.32182340436246],[22.352640256513034,65.32172891272586],[22.35206474759707,65.3212158623132],[22.35291624600209,65.32117412816217],[22.353614157244277,65.32022370219504],[22.337854159999996,65.32099572999999],[22.33536413,65.31209679],[22.314082259999996,65.31313615999998],[22.316565240000003,65.32203552],[22.295274449999997,65.32307231],[22.297752210000002,65.33197204],[22.2764525,65.33300626000002],[22.273981819999996,65.32410611],[22.25268734,65.32513691],[22.25022558,65.31623628],[22.207645269999997,65.31828804999999],[22.214993589999995,65.34499227],[22.23630590999999,65.34396662999998],[22.23876611,65.3528675],[22.2813994,65.35080638000001],[22.28387562,65.35970635],[22.305196589999998,65.35867086],[22.307681760000005,65.36757035],[22.329007960000002,65.36653144],[22.331502090000004,65.37543044000002],[22.352833519999994,65.37438809999999],[22.3503323,65.36548953],[22.371654760000002,65.36444461000002],[22.37416309,65.37334276],[22.395490769999995,65.37229442],[22.390461819999995,65.35449891],[22.436941359043093,65.35220111473254],[22.434742799147866,65.34943952545223],[22.43331282623815,65.34896901460608],[22.433962933525223,65.34821505741637],[22.43604291632454,65.34793159690477],[22.437472879030793,65.34840208190414],[22.438700633243712,65.34816080526295],[22.439278436831387,65.34867349995912],[22.442362364638544,65.34888152539843],[22.44316398831399,65.34866133725876],[22.443265179195958,65.34901720742512],[22.448935439706577,65.35072084773614],[22.449787705213016,65.35067855697396],[22.452433687870155,65.35143522504012],[22.45439104,65.35133846],[22.45540805382211,65.35220401341721],[22.4571633500659,65.35229728237806],[22.461404489013436,65.3535301462407],[22.465493743582293,65.35422910888393],[22.472171357822656,65.35642323656558],[22.473754881984544,65.35742713423052],[22.4837230711574,65.36053971876365],[22.486039049766745,65.36258974287412],[22.48629364472657,65.36347932920626],[22.485046640616165,65.36516558670527],[22.482743139837645,65.36618264947998],[22.480611375277018,65.36628884541854],[22.480509598711187,65.36593300645745],[22.47631641011461,65.36487863236191],[22.475209490672537,65.36403146937495],[22.474650217217803,65.36207432904092],[22.469026643856367,65.36054962466822],[22.464337593603094,65.36078277991295],[22.46353578995639,65.36100308272886],[22.46363731385797,65.36135893575306],[22.459800659729733,65.3615495742339],[22.45819691365721,65.36199012867333],[22.457576748645458,65.36251530992162],[22.45946251,65.36913138],[22.43890076318698,65.37015102837256],[22.43941084549346,65.37194407370146],[22.43871082632631,65.37219314962161],[22.44067198,65.37908553],[22.41934096999999,65.38014030999999],[22.421867250000002,65.38903748],[22.40052725,65.39008968],[22.403048319999996,65.39898722],[22.381699319999996,65.40003685],[22.386732890000005,65.41783260000001],[22.36536778,65.41888008],[22.36788027,65.42777829000002],[22.389252510000002,65.42673038],[22.391774009999995,65.43562809999999],[22.47727253,65.43140465],[22.47472253,65.42250866],[22.43199132,65.42462554],[22.42945746,65.41572861],[22.472174429999995,65.4136126],[22.469628239999995,65.40471648],[22.490976759999995,65.40365439999998],[22.48842537,65.39475865],[22.573771869999998,65.39048202999999],[22.57119401,65.38158795999999],[22.59251874,65.38051174],[22.589935720000003,65.37161805000001],[22.632565200000002,65.36945749],[22.627376649999995,65.35167167999998],[22.606077029999998,65.35275258],[22.600910349999996,65.33496563],[22.62219585,65.33388562],[22.624785289999995,65.34277867999998],[22.667364609999996,65.34060878999999],[22.672577540000002,65.35839295],[22.693878409999993,65.35730261999998],[22.69649487,65.36619417],[22.65387704,65.36837271],[22.6564813,65.37726508],[22.67779827,65.37617686],[22.683026809999998,65.39396049999999],[22.704355979999995,65.39286839],[22.70698028,65.40175967],[22.72831458,65.40066412],[22.730947929999992,65.40955487999999],[22.752287359999997,65.40845587999999],[22.754929769999993,65.41734612999998],[22.776274319999995,65.41624367],[22.778925810000004,65.4251334],[22.693507379999996,65.42952700999999],[22.698759459999994,65.44730986],[22.74150107,65.44511728],[22.744144299999995,65.45400770999998],[22.76551926,65.45290646],[22.776140529999996,65.48846573],[22.840338959999997,65.48513849],[22.837659249999998,65.47625012999998],[22.85904757999999,65.47513549],[22.861734419999998,65.48402339],[22.883127859999995,65.48290527999998],[22.88582384,65.49179265],[22.92861891,65.48954648000002],[22.93948023,65.5250916],[22.96090326999999,65.52396215999998],[22.96135833245107,65.52544461738631],[23.00789458222417,65.46458962427997],[23.003241999999997,65.44947919999998],[22.981882090000003,65.45061397000002],[22.97643727,65.43284321],[22.95508951,65.43397404999999],[22.94966701,65.41620207999999],[22.928331399999994,65.41732899999998],[22.92563027,65.40844246],[22.90429973,65.40956591],[22.901607699999996,65.40067884],[22.88028222,65.40179884],[22.8722394,65.37513584],[22.89354367,65.37401721],[22.89622967,65.38290449],[22.917539,65.38178241],[22.920234070000003,65.39066916],[23.005479450000003,65.38614904000002],[23.008204810000002,65.39503388],[23.06241909603709,65.39213133096007],[23.084563589396133,65.3617855989162],[23.082443769999998,65.35493167],[23.03988375,65.35721887],[23.034423150000002,65.33945042000002],[22.99188312,65.34172380000001],[22.98916994,65.33283854],[23.010433929999998,65.33170380999998],[23.007715749999996,65.32281893999999],[23.028970689999998,65.32168168],[23.026247510000005,65.31279721],[23.0474934,65.31165743],[23.050223599999995,65.32054144000001],[23.07147448,65.31939821],[23.07695504,65.33716507999999],[23.103579792234324,65.33572672339967],[23.11730228809248,65.31692208535567],[23.11397011,65.3171028],[23.10846968,65.29933752],[23.087236900000004,65.30048578],[23.084496759999997,65.29160255999999],[23.063268949999998,65.29274737],[23.06053783999999,65.28386361999999],[23.081758650000005,65.28271927],[23.070826579999995,65.24718541],[23.082823171082875,65.24653694041494],[23.08043185064679,65.2410880822697],[23.072734007836395,65.22755481896989],[23.062814772555992,65.214278717246],[23.05703780408209,65.2077578360096],[23.0438821336382,65.1949890305416],[23.0286527983404,65.1826346123978],[23.011423917751596,65.1707541953058],[23.002086021599,65.1650103332603],[22.982021613701992,65.1539487475862],[22.960190125166896,65.1434996447016],[22.936695353363596,65.13371361195249],[22.924360538612298,65.1290836625267],[22.8985886497093,65.1203780521599],[22.885184620758892,65.11631308182429],[22.8574198396373,65.1087830198622],[22.8430911307973,65.1053259673164],[22.813630577896,65.099051531591],[22.783216068086205,65.09365218440139],[22.767695334584204,65.0912889661128],[22.736125520193397,65.0872488627787],[22.703969492420804,65.0841417016372],[22.687722653553607,65.08294181426642],[22.6549815048834,65.0812580646165],[22.622043315924994,65.0805348656589],[22.5890680589074,65.08077551930198],[22.5562078378235,65.0819784364121],[22.5236222511317,65.0841381956597],[22.4989570328592,65.0864342959367],[22.4512775467598,65.06965380799399],[22.3200684113133,65.1466372251174],[22.200592545603026,65.21398947311266],[22.204489909999996,65.22824995]],[[22.54040939,65.27485423],[22.561649439999997,65.27378325999999],[22.55908944,65.26488881],[22.580320559999997,65.26381528999998],[22.582887569999993,65.27270930999998],[22.6041238,65.27163237],[22.606699749999997,65.28052587999998],[22.54296426,65.28374906],[22.54040939,65.27485423]],[[22.62794108,65.27944551],[22.63829225,65.31501717],[22.595751379999996,65.31717842999998],[22.59317478,65.30828473],[22.61443913,65.30720604],[22.606699749999997,65.28052587999998],[22.62794108,65.27944551]],[[22.451858149999993,65.34244189999998],[22.47315703,65.34138285],[22.475696999999993,65.35027896999999],[22.45439104,65.35133846],[22.451858149999993,65.34244189999998]],[[22.46708395,65.3958203],[22.46524112541854,65.38937192888531],[22.463731718596957,65.38896305325123],[22.46031778076959,65.38913255336983],[22.458813974937332,65.38992898588445],[22.459494742200388,65.39079744437088],[22.45869199264455,65.39101773110241],[22.458143207212718,65.39212765396938],[22.45626314325189,65.39312316827129],[22.453326193836634,65.39344927224703],[22.452117230846543,65.39224608475507],[22.450786067891148,65.39213162860118],[22.451009874954675,65.39139874826625],[22.44975038136783,65.39001760864501],[22.451579735966405,65.38884424454027],[22.45137676072725,65.38813252138952],[22.450371077301785,65.38764103992519],[22.448338855874596,65.3881026609945],[22.448237414091924,65.387746796801],[22.450269610154535,65.38728517736048],[22.449914499053296,65.38603965760214],[22.452170262936423,65.38484513593204],[22.452018046405325,65.38431134404163],[22.45058583361852,65.38384102039078],[22.45048438131659,65.38348515782046],[22.451815101659147,65.38359962117346],[22.452486225834914,65.38140097765354],[22.455168088863285,65.38018525658296],[22.45602129740762,65.38014292081903],[22.45629563024744,65.37958796412475],[22.457148817207454,65.3795456221933],[22.457697412936216,65.37843570491584],[22.458550559767236,65.37839335545348],[22.458723286868818,65.3774825387128],[22.460652946703714,65.37666493321038],[22.46125212000844,65.37573293237764],[22.463009013251224,65.37582611672377],[22.463811267481432,65.37560581207507],[22.463658879353087,65.37507203372718],[22.466492016402356,65.37438990078053],[22.467395833335477,65.37452542766981],[22.46729419703027,65.37416957832949],[22.468248834368534,65.37448302475333],[22.469528330216605,65.37441941137519],[22.47027964763245,65.37402114953817],[22.47374240587264,65.37402936669363],[22.47449364720141,65.37363108460987],[22.476352192478966,65.37407995756074],[22.478809301150946,65.37359674317008],[22.479063780514274,65.3744863429438],[22.480018565904977,65.37479971320612],[22.48082064091367,65.37457931977104],[22.481450786534534,65.37526975680798],[22.48170537487402,65.37615935099713],[22.48040660374229,65.37766766004886],[22.481412444708887,65.37815893928045],[22.481819847300695,65.37958228926034],[22.479890654468665,65.38040016121379],[22.479992490454517,65.38075599999374],[22.4783879404437,65.38119677788671],[22.478540670652542,65.38173053780073],[22.477362652251383,65.38215007202156],[22.477464462217352,65.38250591278002],[22.47521006889899,65.38370079916264],[22.47531185698992,65.38405664160236],[22.474560338827626,65.38445493062405],[22.47328036916806,65.38451859163949],[22.47338213496387,65.38487443561311],[22.472528806695703,65.38491687097849],[22.471401420404344,65.3855142833921],[22.471503165423872,65.38587012884946],[22.469359822849288,65.38668438849018],[22.48587588,65.38586284],[22.48842537,65.39475865],[22.46708395,65.3958203]],[[22.608663259999993,65.36164595999999],[22.587354629999997,65.36272429999998],[22.584775459999996,65.35383047999998],[22.606077029999998,65.35275258],[22.608663259999993,65.36164595999999]],[[22.816268909999998,65.47736176999999],[22.81359834,65.46847289],[22.834981550000002,65.46736171],[22.837659249999998,65.47625012999998],[22.816268909999998,65.47736176999999]],[[23.049633709999995,65.24832789999999],[23.04691275,65.23944379],[23.06809864,65.23830177],[23.070826579999995,65.24718541],[23.049633709999995,65.24832789999999]],[[23.020302890000004,65.2228135],[23.041476869999997,65.22167536999997],[23.044193799999995,65.23055962],[23.02301285,65.23169820999999],[23.020302890000004,65.2228135]],[[22.788918144895295,65.4746399998396],[22.78806220369119,65.47468426380134],[22.788008970834444,65.4745064748457],[22.78881166856915,65.4742844226261],[22.788918144895295,65.4746399998396]],[[22.514629610566544,65.37632062841669],[22.51638669554108,65.37641318785433],[22.516420610387026,65.37803566798422],[22.514594931849405,65.37920978115446],[22.51198459979437,65.37915985889735],[22.51307706548041,65.3769396722934],[22.514629610566544,65.37632062841669]],[[22.475738504820082,65.3840354168068],[22.475789402846342,65.38421333781584],[22.47536275217762,65.38423456278478],[22.475738504820082,65.3840354168068]],[[22.463559113807484,65.38987387449701],[22.46398586757478,65.38985268191193],[22.46408753249094,65.3902085332019],[22.463559113807484,65.38987387449701]],[[22.462807251865176,65.39027210839203],[22.463660773043067,65.39022972613331],[22.46371160380194,65.39040765191409],[22.462807251865176,65.39027210839203]],[[22.446865857868545,65.40874644541536],[22.446438780283927,65.40876759280289],[22.446388023585516,65.40858966043666],[22.446865857868545,65.40874644541536]],[[22.435566273413126,65.34777476543478],[22.435039098858542,65.34743999397655],[22.435465192385884,65.34741888896421],[22.435566273413126,65.34777476543478]],[[22.435790201489986,65.34704190652776],[22.436642373445178,65.34699969119623],[22.43631737717486,65.347376675342],[22.435465192385884,65.34741888896421],[22.435790201489986,65.34704190652776]],[[22.35920037041061,65.32357228586079],[22.359626151204555,65.32355139885604],[22.359776071324358,65.32408530699107],[22.35920037041061,65.32357228586079]],[[22.35892449202669,65.32412708082435],[22.359350282048634,65.32410619450691],[22.359450226871687,65.32446213348291],[22.35892449202669,65.32412708082435]]],[[[22.455772917333803,65.35618668602717],[22.45604640956497,65.35596170474302],[22.455660682494887,65.35579291745319],[22.455772917333803,65.35618668602717]]],[[[22.466593642881712,65.37474575076352],[22.467020148135013,65.37472455213334],[22.466969331678783,65.37454662732739],[22.466593642881712,65.37474575076352]]]]}}]}