{"type":"FeatureCollection","properties":{"source":"SMHI SE.SR Ytansamling av alger","date":"2024-08-14","note":"Test: SMHI WFS clipped to Lulea municipal sea area and simplified 20 m."},"features":[{"type":"Feature","properties":{"cyano_daymap_file_id":723580,"date":"2024-08-14Z","cloud":null,"sub_surfac":null,"surface":null,"no_data":null,"class":1,"color_hex":null,"algae_class":"class_1","source_date":"2024-08-14"},"geometry":{"type":"Polygon","coordinates":[[[22.412014289999995,65.50680766999999],[22.406942809999997,65.48901314999999],[22.42836318,65.48795921],[22.423284999999996,65.47016531],[22.359061159999996,65.47331547],[22.351522499999998,65.44662028],[22.330132219999996,65.44766302],[22.332636080000004,65.45656191],[22.31123677,65.45760206000001],[22.313735359999995,65.46650130999998],[22.30689043014463,65.46683305106076],[22.30737371123645,65.46736500117582],[22.306189086021313,65.46778326121338],[22.30638886034024,65.46849521046634],[22.304775972711667,65.46893422051903],[22.304547511063376,65.46966692847077],[22.3036910925129,65.46970843796255],[22.302984445758362,65.47028390847149],[22.301371389999723,65.47072288382813],[22.29875210491654,65.47066935475098],[22.298980736888005,65.46993665388042],[22.299837171928584,65.4698951709386],[22.300115671822557,65.46934045853654],[22.301728665385937,65.46890149720875],[22.301529014053266,65.46818954057072],[22.302435304494068,65.46832603264895],[22.302335470372306,65.46797005491358],[22.304256450948174,65.46696070745331],[22.29232701999999,65.46753887],[22.29482032,65.47643849],[22.31623582,65.4754005],[22.31873816,65.48429963],[22.382994830000005,65.48116628],[22.39057768,65.50785944],[22.412014289999995,65.50680766999999]]]}},{"type":"Feature","properties":{"cyano_daymap_file_id":723580,"date":"2024-08-14Z","cloud":null,"sub_surfac":null,"surface":null,"no_data":null,"class":1,"color_hex":null,"algae_class":"class_1","source_date":"2024-08-14"},"geometry":{"type":"Polygon","coordinates":[[[22.41315149,65.43457676],[22.41062286,65.42567946000001],[22.43199132,65.42462554],[22.42945746,65.41572861],[22.472174429999995,65.4136126],[22.46708395,65.3958203],[22.44574064,65.39687893999998],[22.44067198,65.37908553],[22.41934096999999,65.38014030999999],[22.421867250000002,65.38903748],[22.40052725,65.39008968],[22.403048319999996,65.39898722],[22.381699319999996,65.40003685],[22.38421517,65.40893475],[22.36285717,65.40998179999998],[22.36788027,65.42777829000002],[22.389252510000002,65.42673038],[22.391774009999995,65.43562809999999],[22.41315149,65.43457676]],[[22.446865857868545,65.40874644541536],[22.446438780283927,65.40876759280289],[22.446388023585516,65.40858966043666],[22.446865857868545,65.40874644541536]]]}},{"type":"Feature","properties":{"cyano_daymap_file_id":723580,"date":"2024-08-14Z","cloud":null,"sub_surfac":null,"surface":null,"no_data":null,"class":1,"color_hex":null,"algae_class":"class_1","source_date":"2024-08-14"},"geometry":{"type":"Polygon","coordinates":[[[22.39910117,65.1556],[22.39660943,65.14670209],[22.41775395,65.14565248],[22.415257089999997,65.13675493999999],[22.45752668,65.13464765],[22.45501777,65.1257509],[22.433890849999997,65.1268056],[22.43139075,65.11790836000002],[22.41026893,65.11895967],[22.407777609999997,65.11006193999998],[22.386660889999998,65.11110986],[22.389145259999992,65.12000800999999],[22.36801975,65.12105338],[22.370499009999996,65.12995189],[22.34936471,65.13099472],[22.354314829999996,65.14879240999998],[22.37546305,65.14774874],[22.37794783,65.15664707],[22.39910117,65.1556]]]}}]}