{"type":"FeatureCollection","properties":{"source":"SMHI SE.SR Ytansamling av alger","date":"2024-09-06","note":"Test: SMHI WFS clipped to Lulea municipal sea area and simplified 20 m."},"features":[{"type":"Feature","properties":{"cyano_daymap_file_id":723602,"date":"2024-09-06Z","cloud":null,"sub_surfac":null,"surface":null,"no_data":null,"class":1,"color_hex":null,"algae_class":"class_1","source_date":"2024-09-06"},"geometry":{"type":"MultiPolygon","coordinates":[[[[22.88245607,65.12181023],[22.900066635713625,65.12087730816435],[22.88043326331403,65.11502447033453],[22.88245607,65.12181023]]],[[[22.90621504,65.12957978],[22.923163746702905,65.12867939242867],[22.904010514795058,65.1222095300572],[22.90621504,65.12957978]]],[[[22.92998786,65.1373454],[22.943661109144045,65.13661498570323],[22.927907892070245,65.13041518370775],[22.92998786,65.1373454]]]]}}]}