{"type":"FeatureCollection","properties":{"source":"SMHI SE.SR Ytansamling av alger","date":"2024-07-22","note":"Test: SMHI WFS clipped to Lulea municipal sea area and simplified 20 m."},"features":[{"type":"Feature","properties":{"cyano_daymap_file_id":723557,"date":"2024-07-22Z","cloud":null,"sub_surfac":null,"surface":null,"no_data":null,"class":1,"color_hex":null,"algae_class":"class_1","source_date":"2024-07-22"},"geometry":{"type":"MultiPolygon","coordinates":[[[[22.1842008,65.62605282999999],[22.18187527324928,65.62616297753203],[22.179816044989668,65.62789797864849],[22.181638693141,65.62817232008364],[22.182733625885408,65.62739888392733],[22.183595469175433,65.62735800792527],[22.184441289882,65.6269179063002],[22.1842008,65.62605282999999]]],[[[22.16265494,65.62707333999998],[22.162942234599807,65.62810987343934],[22.163722979286888,65.62811888513667],[22.163624304623077,65.62776280552906],[22.165397433317988,65.62785930392064],[22.16572967715693,65.62748283754752],[22.167022493457676,65.62742166606365],[22.16773627592436,65.62684676437111],[22.168598129312286,65.62680597344098],[22.16265494,65.62707333999998]]]]}},{"type":"Feature","properties":{"cyano_daymap_file_id":723557,"date":"2024-07-22Z","cloud":null,"sub_surfac":null,"surface":null,"no_data":null,"class":1,"color_hex":null,"algae_class":"class_1","source_date":"2024-07-22"},"geometry":{"type":"Polygon","coordinates":[[[22.433083189999998,65.35239494],[22.42803344,65.33460091],[22.44932715,65.33354528],[22.444270809999992,65.31575185999999],[22.4655485,65.31469411000002],[22.463016099999997,65.30579772999998],[22.48428485,65.30473742],[22.4817473,65.29584142],[22.50300710999999,65.29477854],[22.500464409999996,65.28588290999998],[22.521715289999996,65.28481748],[22.516621499999996,65.26702689],[22.49538469,65.26809146],[22.49284766,65.25919564],[22.51407745,65.25813150999998],[22.508995039999995,65.24034054999998],[22.48777927,65.24140381000001],[22.48524791,65.23250781],[22.464037269999995,65.23356765999999],[22.46656163,65.2424641],[22.4453421,65.2435214],[22.44786132,65.25241819999998],[22.4266329,65.25347295],[22.43166291,65.27126723],[22.41041857,65.27231985],[22.415442009999996,65.29011473999999],[22.37291954,65.29221272],[22.37541997,65.30111093],[22.396689189999993,65.30006300999999],[22.40170977,65.31785839],[22.380426439999997,65.31890717],[22.38293247,65.3278052],[22.34034606,65.32989461],[22.34283981999999,65.33879342999997],[22.36414104,65.3377498],[22.36914832,65.3555464],[22.433083189999998,65.35239494]]]}}]}