{"type":"FeatureCollection","properties":{"source":"SMHI SE.SR Ytansamling av alger","date":"2024-09-12","note":"Test: SMHI WFS clipped to Lulea municipal sea area and simplified 20 m."},"features":[{"type":"Feature","properties":{"cyano_daymap_file_id":723608,"date":"2024-09-12Z","cloud":null,"sub_surfac":null,"surface":null,"no_data":null,"class":1,"color_hex":null,"algae_class":"class_1","source_date":"2024-09-12"},"geometry":{"type":"MultiPolygon","coordinates":[[[[22.60252173,65.78611158],[22.59725284,65.76832551],[22.61889518,65.76724233],[22.616256419999996,65.75834964],[22.623903515649662,65.75796582211487],[22.604195119519396,65.74896748549598],[22.63257035724482,65.73936155564718],[22.62996321,65.73058675],[22.6469139992011,65.72973368463747],[22.650721331139874,65.72663657420706],[22.64364223,65.7028229],[22.66522747,65.70173371],[22.66258083,65.69284191],[22.55467108,65.69825519000001],[22.56250774,65.72493709],[22.57752813928706,65.72418780058209],[22.576364872519758,65.72317710068758],[22.579389779456303,65.72302610583128],[22.57734685906549,65.72204516821684],[22.578643192842698,65.72198045568166],[22.578538379383513,65.72162471397469],[22.579677448011566,65.72102638038261],[22.580541632616548,65.72098322706148],[22.581196124484165,65.72022858981477],[22.58411577191255,65.71972176552],[22.58466524551037,65.71861137747361],[22.585529339447397,65.71856819673052],[22.58563423411261,65.71892393280201],[22.58644588297614,65.71870287880387],[22.589195569268625,65.71910689133672],[22.588319151084065,65.72059462772717],[22.58972033954566,65.72088555536914],[22.590414849344935,65.72175328107625],[22.588424093994202,65.72095036139598],[22.587559926318693,65.72099355931842],[22.587232769872724,65.7213708910856],[22.585884036571972,65.72125780839872],[22.585988949239287,65.72161354405068],[22.58458776080873,65.72132258204397],[22.583880899419803,65.72189936448983],[22.584850004669796,65.72221192365235],[22.5850598140616,65.72292339647367],[22.58447034480828,65.72241138174213],[22.582637020455508,65.7221419906372],[22.5821398275821,65.72343024227952],[22.57949461145645,65.72338184676904],[22.579700196024447,65.72407944799455],[22.583855439370804,65.72387216456563],[22.583920791486452,65.72352176990405],[22.58613389667332,65.72359168303791],[22.587325339644448,65.72317116075827],[22.586251244814964,65.72250288272807],[22.589171041954128,65.72199595992221],[22.590087726042412,65.72213061865173],[22.588948856241394,65.7227290281876],[22.589485935890096,65.72306315830656],[22.58850445056138,65.72419516409639],[22.587692649944074,65.72441623060092],[22.588387194154755,65.72528396523587],[22.587522881640165,65.72532716439795],[22.586868455913272,65.72608182821611],[22.585244694685343,65.72652394104136],[22.585781809044217,65.7268580838944],[22.585043039328244,65.72700217073309],[22.589364479999997,65.74164591],[22.567742090000003,65.7427247],[22.565337384740083,65.73455605720771],[22.563266948363392,65.73392316586363],[22.521887800000002,65.73597847],[22.533781994342426,65.77655113003745],[22.53498515691161,65.7764915228721],[22.533857862857662,65.77564499698003],[22.537045971560516,65.77602844344318],[22.537254989380823,65.77673999003338],[22.53557495463323,65.77700372605703],[22.53654560533828,65.77731657758198],[22.537429962009636,65.78032685996432],[22.538313047719395,65.78028304505818],[22.53928597617919,65.7791659930298],[22.541070685751805,65.7792579851081],[22.540861538187773,65.7785464450262],[22.54216081957023,65.7784820141077],[22.542384729984782,65.77774899703778],[22.543355489590315,65.77806180412084],[22.543683966642252,65.77768455357803],[22.54455012044339,65.77764158515838],[22.546544029725315,65.77844504765571],[22.54481167299432,65.77853100271912],[22.544368377079017,65.77998260571863],[22.55658096,65.77937667],[22.557875742055625,65.78377066952096],[22.560400013554496,65.78371276649949],[22.56050488037331,65.78406852026563],[22.559205372795763,65.78413310978182],[22.55936265258867,65.78466674183979],[22.55815743571772,65.78472663103658],[22.559201730000005,65.78827057],[22.60252173,65.78611158]],[[22.575880348319814,65.72302079457259],[22.576312478139332,65.72299922893399],[22.576364872519758,65.72317710068758],[22.575880348319814,65.72302079457259]],[[22.53730724581933,65.77691787661684],[22.53865872190893,65.77703136272453],[22.538554190641136,65.77667559064795],[22.539853384759763,65.77661118025908],[22.540077347942,65.77587816606304],[22.54061495278292,65.77621246348258],[22.541481063321516,65.77616951293007],[22.541585632473314,65.77652528262429],[22.540719510204006,65.77656823388686],[22.54087635228871,65.77710188930087],[22.54001020924755,65.77714483673817],[22.53968168429749,65.77752207983565],[22.53654560533828,65.77731657758198],[22.53730724581933,65.77691787661684]],[[22.578874529999993,65.70607220999999],[22.600465749999998,65.70499214999998],[22.60309255,65.71388523],[22.581494039999995,65.71496572999999],[22.578874529999993,65.70607220999999]],[[22.59993833233816,65.72578910433681],[22.598052065741342,65.72534204083037],[22.597409739990226,65.72465221657811],[22.59498641842692,65.72387101267616],[22.594881371023305,65.72351528457554],[22.593047866227977,65.72324602071961],[22.592942848533365,65.7228902909848],[22.597094495911303,65.72358503809558],[22.598116366939003,65.72407537363112],[22.601468207246022,65.7235465869304],[22.60211061124213,65.72423639326144],[22.604376401591136,65.72448390101218],[22.605071504524158,65.72535155387187],[22.60377508152409,65.72541649246274],[22.604627981778762,65.72681772800496],[22.603974025699575,65.72757246066466],[22.60288784080145,65.72834883384753],[22.599482845484815,65.72869979567515],[22.599272582975804,65.72798834727134],[22.600411433692738,65.72738986064347],[22.59993833233816,65.72578910433681]],[[22.6046621399362,65.722484147784],[22.604714727960165,65.72266200781957],[22.604282632321684,65.72268365377565],[22.6046621399362,65.722484147784]],[[22.600154249401367,65.71910004513761],[22.60046955390359,65.72016721664681],[22.596253985112668,65.72073922424573],[22.597392597116876,65.72014076262454],[22.599120832775945,65.72005425117781],[22.600154249401367,65.71910004513761]],[[22.59760273117569,65.72085221487923],[22.598034802952906,65.72083058813229],[22.598087341374406,65.7210084509527],[22.59760273117569,65.72085221487923]],[[22.5941866612426,65.72264758125131],[22.593164921519783,65.72215721801608],[22.592300723064536,65.72220044317338],[22.59295489673239,65.72144575853447],[22.593819068664875,65.72140252992742],[22.594957766596927,65.72080408566575],[22.595821913069713,65.72076084593813],[22.59641156536949,65.7212728148481],[22.597655266679908,65.72103007787807],[22.597760340075915,65.721385803798],[22.595862549972008,65.7223832407299],[22.5941866612426,65.72264758125131]],[[22.593907589548344,65.71724679832039],[22.5940125929372,65.71760252752127],[22.59358057101268,65.71762414234627],[22.59304355657027,65.71729002603821],[22.593907589548344,65.71724679832039]],[[22.59225622001843,65.71462204838019],[22.591929208120295,65.71499938878415],[22.59279316686654,65.7149561681396],[22.59381460644741,65.71544653685783],[22.593919599765684,65.71580226622014],[22.59262362148294,65.7158671053457],[22.592833582666188,65.71657856589914],[22.591969569839183,65.71662178731518],[22.59229660030115,65.71624444663507],[22.589220110192713,65.71621782265687],[22.58901025186769,65.71550635608885],[22.59225622001843,65.71462204838019]],[[22.591699011952805,65.72313299078978],[22.591751512443867,65.72331085617925],[22.591319392924987,65.72333246556067],[22.591699011952805,65.72313299078978]],[[22.59154151525181,65.72259939446604],[22.591594013356797,65.7227772599332],[22.590729791031674,65.72282047640705],[22.59154151525181,65.72259939446604]],[[22.590846943398255,65.72173167451862],[22.590899434609103,65.72190954029354],[22.590467337638074,65.72193114702945],[22.590846943398255,65.72173167451862]],[[22.589013605719437,65.72146236038066],[22.589066083669323,65.7216402269204],[22.588633989353383,65.7216618284232],[22.589013605719437,65.72146236038066]],[[22.588936587319857,65.72417356253656],[22.58904155619528,65.72452929552671],[22.588609413600015,65.72455089744307],[22.588936587319857,65.72417356253656]],[[22.58397101834399,65.71774362271358],[22.58386615230117,65.7173878852114],[22.585214674517736,65.71750098789545],[22.5853195596501,65.71785672427724],[22.58397101834399,65.71774362271358]],[[22.570506957013926,65.77923934259181],[22.57061194131412,65.779595088231],[22.569745774217566,65.7796382048763],[22.570506957013926,65.77923934259181]],[[22.56536773136676,65.7156037708573],[22.565420032502512,65.71578164730128],[22.564988012282715,65.71580318091155],[22.56536773136676,65.7156037708573]],[[22.562264747015867,65.78109329229088],[22.56470606395645,65.78043042779872],[22.56534900147609,65.78112038414756],[22.564849973828366,65.78240859786486],[22.56148973707222,65.78293666134026],[22.560951719668903,65.78260244163899],[22.561765564773037,65.78238149743994],[22.560794422141505,65.78206881140066],[22.562264747015867,65.78109329229088]],[[22.564019385488713,65.71549049049568],[22.56353508084234,65.71533414288784],[22.564883416637127,65.71544742764256],[22.564019385488713,65.71549049049568]],[[22.561072543412504,65.77555758640258],[22.562476467387892,65.77584873783037],[22.561610409692925,65.77589180716336],[22.561715254979333,65.77624756029792],[22.56019275979139,65.7770451945262],[22.55802749774765,65.77715282735579],[22.557370971192498,65.77790738530754],[22.555415160559733,65.77872649542994],[22.55449661231088,65.7785916462866],[22.554339477671647,65.77805800778856],[22.55260717816357,65.77814405088104],[22.551583948945872,65.77765342316162],[22.55132217368898,65.7767640194305],[22.55447234018928,65.77552466783318],[22.555338399884107,65.77548163904092],[22.55587619122728,65.7758158807777],[22.55798895548997,65.77553040143273],[22.55863158441463,65.77622038914852],[22.561072543412504,65.77555758640258]],[[22.560466145964508,65.78244609682385],[22.560571007504,65.78280185059475],[22.56013786044135,65.78282338163316],[22.559599862777947,65.78248915696584],[22.560466145964508,65.78244609682385]],[[22.55928803354774,65.77546582653903],[22.557451143325633,65.77519616735736],[22.55869780629849,65.77495371939582],[22.55928803354774,65.77546582653903]],[[22.550693994141938,65.77462944785294],[22.55074633806663,65.77480732895913],[22.55031331532817,65.77482883085332],[22.550693994141938,65.77462944785294]],[[22.546363760326116,65.77484441000858],[22.54679678728231,65.77482291929398],[22.546901423148586,65.77517868467905],[22.546363760326116,65.77484441000858]],[[22.546901423148586,65.77517868467905],[22.54738677723166,65.77533507486307],[22.546953742273143,65.77535656733306],[22.546901423148586,65.77517868467905]],[[22.545759255669996,65.77577680370493],[22.545811568380294,65.7759546868148],[22.545378521447695,65.77597617492772],[22.545759255669996,65.77577680370493]],[[22.545401713230017,65.7790431654827],[22.545454031439228,65.77922104866312],[22.545020929332164,65.7792425363055],[22.545401713230017,65.7790431654827]],[[22.543250888550485,65.77770603595391],[22.543198589221692,65.77752815183194],[22.543631664380534,65.77750666963364],[22.543250888550485,65.77770603595391]],[[22.54030129956792,65.77514515165399],[22.540353573119663,65.77532303702286],[22.53948748873188,65.77536598091017],[22.54030129956792,65.77514515165399]],[[22.537859824728287,65.77580762680493],[22.53727001085203,65.7752954326231],[22.539106710895577,65.77556533689575],[22.537859824728287,65.77580762680493]],[[22.53688921652523,65.77549478323138],[22.536993719088787,65.77585055673157],[22.53656066507907,65.77587201986103],[22.536023119443055,65.77553770755809],[22.53688921652523,65.77549478323138]]],[[[22.5896556245633,65.72215222312761],[22.589223522289085,65.72217382638432],[22.589276003419105,65.72235169282054],[22.5896556245633,65.72215222312761]]],[[[22.585831581430302,65.7210799405339],[22.5853994932215,65.72110153278997],[22.585451945445488,65.72127940083293],[22.585831581430302,65.7210799405339]]],[[[22.57944219505931,65.72320397631307],[22.57901006496059,65.72322555084273],[22.579062478439347,65.72340342147675],[22.57944219505931,65.72320397631307]]],[[[22.56031131718178,65.77595640199473],[22.561177379651657,65.77591333999622],[22.56112496113419,65.77573546321229],[22.56031131718178,65.77595640199473]]]]}},{"type":"Feature","properties":{"cyano_daymap_file_id":723608,"date":"2024-09-12Z","cloud":null,"sub_surfac":null,"surface":null,"no_data":null,"class":1,"color_hex":null,"algae_class":"class_1","source_date":"2024-09-12"},"geometry":{"type":"Polygon","coordinates":[[[22.606292280000005,65.65055190000001],[22.601053909999997,65.63276565999999],[22.70867991,65.62732245],[22.70337716,65.60954043],[22.68187039,65.61063424000001],[22.68451354,65.61952574],[22.662997559999997,65.62061695999999],[22.66036163,65.61172502],[22.61733815,65.61389748],[22.619959619999996,65.62279032],[22.57691377,65.62495154000001],[22.58474664,65.65163233],[22.606292280000005,65.65055190000001]]]}},{"type":"Feature","properties":{"cyano_daymap_file_id":723608,"date":"2024-09-12Z","cloud":null,"sub_surfac":null,"surface":null,"no_data":null,"class":1,"color_hex":null,"algae_class":"class_1","source_date":"2024-09-12"},"geometry":{"type":"MultiPolygon","coordinates":[[[[22.733090739999998,65.56289203],[22.72513834,65.53622021],[22.70369312,65.53731648],[22.706334749999996,65.5462076],[22.699586152298725,65.54655162627247],[22.699559946002356,65.54710868416345],[22.69611895454154,65.54872828277801],[22.696277325033037,65.54926176064346],[22.695471532901006,65.54948335306523],[22.69450033210066,65.55061595402066],[22.69486982939307,65.55186073977926],[22.691683556748405,65.55597910512171],[22.708978359999996,65.55509865],[22.711623970000005,65.56398964],[22.733090739999998,65.56289203]]],[[[22.68417144696979,65.54490590233416],[22.682939417421892,65.54542826487335],[22.68304480114266,65.54578392801383],[22.684410720582534,65.54571439792713],[22.68417144696979,65.54490590233416]]],[[[22.67435443,65.51173461],[22.652926739999998,65.5128235],[22.645074480000005,65.48614647],[22.60225615,65.48831251],[22.604857299999995,65.49720581],[22.626274600000006,65.49612385000002],[22.627009472180983,65.49862745653053],[22.627772967720908,65.49858882817921],[22.627929576622424,65.49912239522843],[22.62711956481625,65.49900252670973],[22.628884859999996,65.50501664],[22.6074604,65.50609904],[22.608573500910506,65.50989606064458],[22.60927023469907,65.50963139648061],[22.611088717340238,65.50990061726324],[22.611777886116425,65.51076829859534],[22.609074171484455,65.51160395297264],[22.60952600999393,65.51314526888775],[22.61111756044012,65.51296753524157],[22.61165043129201,65.513301629454],[22.612832025121083,65.51288100807089],[22.612936295822966,65.51323673120106],[22.61507938770209,65.51312854330165],[22.615183690197586,65.5134842645546],[22.616573875941334,65.51377505634878],[22.61640605647705,65.5146860013217],[22.61822496377525,65.5149551318843],[22.618485854999967,65.51584442807695],[22.617252050759113,65.5160872343801],[22.616551227113582,65.51666410642802],[22.617136418838115,65.51717603969507],[22.619760681181486,65.51722399402311],[22.620084971130012,65.51684662198319],[22.622123909281147,65.51638261480193],[22.621423187350427,65.5169595083858],[22.620565839924176,65.51700282430684],[22.620722434944046,65.51753639903819],[22.6199172613548,65.51775756974219],[22.618944325148224,65.51888968338956],[22.61915309412313,65.51960111882903],[22.6173225825023,65.52077652745136],[22.617102573962175,65.52150961374173],[22.61251333281423,65.52333565352731],[22.61528147,65.53277835],[22.65817142,65.53060786],[22.6626943439179,65.54591571333593],[22.665077108727584,65.54543373669725],[22.666093349486236,65.54592365938827],[22.669098176988925,65.54577104090036],[22.66925597318145,65.54630455292173],[22.6712970708954,65.54583982787909],[22.676824698050904,65.54537832120799],[22.677148639008095,65.5450008239477],[22.67843634793765,65.5449353300118],[22.68198333603024,65.54367179113602],[22.682088698152068,65.5440274551601],[22.680582513628977,65.54482614926263],[22.683905187558832,65.54400622285061],[22.67435443,65.51173461]]]]}},{"type":"Feature","properties":{"cyano_daymap_file_id":723608,"date":"2024-09-12Z","cloud":null,"sub_surfac":null,"surface":null,"no_data":null,"class":1,"color_hex":null,"algae_class":"class_1","source_date":"2024-09-12"},"geometry":{"type":"Polygon","coordinates":[[[22.68788497,65.48396837],[22.68000756,65.45729342],[22.701388449999996,65.4562012],[22.704019409999994,65.46509245999998],[22.768171589999998,65.46179637999998],[22.76551926,65.45290646],[22.78689222,65.4518022],[22.784234759999997,65.44291267],[22.74150107,65.44511728],[22.738859820000002,65.43622678],[22.717497119999994,65.43732413],[22.72013125,65.44621507999999],[22.698759459999994,65.44730986],[22.68826317,65.41174388],[22.66691785,65.41283388],[22.664305779999992,65.40394177999998],[22.6429656,65.40502833],[22.645570570000004,65.41392088],[22.62422134,65.41500487],[22.62682115,65.42389779],[22.64817749,65.42281336],[22.653397179999995,65.44059812999998],[22.674765789999995,65.43950979999998],[22.67738569,65.44840165],[22.656009970000003,65.44949042],[22.66386008,65.4761669],[22.64246099,65.47725399],[22.645074480000005,65.48614647],[22.68788497,65.48396837]]]}},{"type":"Feature","properties":{"cyano_daymap_file_id":723608,"date":"2024-09-12Z","cloud":null,"sub_surfac":null,"surface":null,"no_data":null,"class":1,"color_hex":null,"algae_class":"class_1","source_date":"2024-09-12"},"geometry":{"type":"Polygon","coordinates":[[[22.76568815,65.38068407],[22.76304655,65.37179401],[22.7843537,65.3706908],[22.7790623,65.35291137],[22.75776927,65.35401367999998],[22.75249987,65.33623308],[22.709936150000004,65.33842692],[22.720426339999996,65.37399143],[22.74173743,65.37289421],[22.74437195,65.38178472999999],[22.76568815,65.38068407]]]}},{"type":"Feature","properties":{"cyano_daymap_file_id":723608,"date":"2024-09-12Z","cloud":null,"sub_surfac":null,"surface":null,"no_data":null,"class":1,"color_hex":null,"algae_class":"class_1","source_date":"2024-09-12"},"geometry":{"type":"MultiPolygon","coordinates":[[[[22.861353449999992,65.12292508999998],[22.840248869999996,65.12403697999999],[22.86671262,65.21292115],[22.845536639999995,65.21403459],[22.84818685,65.22292308999998],[22.86936981,65.22180919],[22.874690119999997,65.23958508],[22.895885059999994,65.23846730999999],[22.898555169999998,65.24735469999999],[22.91975511,65.24623349],[22.917078019999998,65.23734656],[22.98064493,65.23396646999998],[22.977948900000005,65.22508084],[22.9991269,65.22394864999998],[22.99372693,65.20617811],[23.014888999999997,65.20504386999998],[23.00948314,65.18727397],[23.03062931,65.18613768],[23.029861674918408,65.18361528334874],[23.011423917751596,65.1707541953058],[23.002086021599,65.1650103332603],[22.982021613701992,65.1539487475862],[22.960190125166896,65.1434996447016],[22.936695353363596,65.13371361195249],[22.924360538612298,65.1290836625267],[22.8985886497093,65.1203780521599],[22.885184620758892,65.11631308182429],[22.857131448102617,65.10871344034179],[22.861353449999992,65.12292508999998]]],[[[22.962149,65.24398216],[22.967537109999995,65.26175399],[22.92511526,65.26400716000002],[22.930483399999996,65.28178054],[22.951709330000003,65.28065453],[22.95709948,65.29842673],[22.97833741,65.29729682],[22.97293324,65.27952554],[23.015375049999992,65.27725862999999],[23.020807229999996,65.29502805999999],[22.99957333,65.29616392999999],[23.00228545,65.305049],[23.023526359999998,65.30391267],[23.026247510000005,65.31279721],[23.0474934,65.31165743],[23.052955840000003,65.32942538000002],[23.031695899999995,65.33056608],[23.0426171,65.36610299],[23.06390517999999,65.36496041999999],[23.06935920839998,65.38262093997012],[23.1383421263494,65.2880901187065],[23.089750185962696,65.28445681869319],[23.089709002936797,65.2756147460627],[23.0877229961228,65.2617264628135],[23.083434648887803,65.24793025256493],[23.078519545659496,65.23772613691176],[22.962149,65.24398216]]]]}}]}