{"type":"FeatureCollection","properties":{"source":"SMHI SE.SR Ytansamling av alger","date":"2024-06-28","note":"Test: SMHI WFS clipped to Lulea municipal sea area and simplified 20 m."},"features":[{"type":"Feature","properties":{"cyano_daymap_file_id":721294,"date":"2024-06-28Z","cloud":null,"sub_surfac":null,"surface":null,"no_data":null,"class":1,"color_hex":null,"algae_class":"class_1","source_date":"2024-06-28"},"geometry":{"type":"MultiPolygon","coordinates":[[[[22.51066354,65.77262769],[22.575608499999998,65.76940563999999],[22.57298437,65.76051206],[22.59462139,65.75943237],[22.591991940000003,65.75053918],[22.606090044303578,65.74983265843865],[22.604195119519396,65.74896748549598],[22.636865963714,65.73790735481191],[22.650721356675746,65.72663655343464],[22.64892695,65.7206072],[22.69212457,65.71842398],[22.68681071,65.70064148],[22.62205499,65.70390905],[22.62468907,65.71280167999998],[22.60309255,65.71388523],[22.605721329999998,65.72277824],[22.595361517444122,65.72329503712162],[22.598116366939003,65.72407537363112],[22.601468207246022,65.7235465869304],[22.60211061124213,65.72423639326144],[22.604376401591136,65.72448390101218],[22.605071504524158,65.72535155387187],[22.60377508152409,65.72541649246274],[22.604627981778762,65.72681772800496],[22.60288784080145,65.72834883384753],[22.599482845484815,65.72869979567515],[22.599272582975804,65.72798834727134],[22.600411433692738,65.72738986064347],[22.59993833233816,65.72578910433681],[22.598052065741342,65.72534204083037],[22.597409739990226,65.72465221657811],[22.593883642043465,65.72336876063245],[22.58901018341821,65.72361187211506],[22.587692649944074,65.72441623060092],[22.588387194154755,65.72528396523587],[22.587522881640165,65.72532716439795],[22.586868455913272,65.72608182821611],[22.585244694685343,65.72652394104136],[22.585781809044217,65.7268580838944],[22.58453771247614,65.72710072776253],[22.584747561007354,65.7278122006417],[22.583018749208588,65.72789855457722],[22.58193191151867,65.72867478467762],[22.580687690240698,65.7289173983188],[22.579823240840106,65.72896055511566],[22.579286157053076,65.72862639092395],[22.57891917944602,65.72738129744774],[22.580215775910155,65.72731656888993],[22.58118504554753,65.72762914976202],[22.58005848543461,65.72678295861526],[22.58173479431971,65.72651876950457],[22.581472605006454,65.7256294219626],[22.580018819108634,65.72516054990807],[22.581262867856896,65.72491794346388],[22.579913971224215,65.7248048094869],[22.57883999481028,65.72413647795494],[22.54362177951239,65.7258760633219],[22.542261231931622,65.7264994851299],[22.5410585002719,65.72655922511346],[22.543506849999996,65.73490622],[22.50026678,65.73704766],[22.50286301,65.74594276],[22.481232709999997,65.74700934],[22.48641645,65.76480024],[22.50806139,65.76373278],[22.51066354,65.77262769]],[[22.627325140000004,65.72169424],[22.62996321,65.73058675],[22.60835211,65.73167119],[22.605721329999998,65.72277824],[22.627325140000004,65.72169424]],[[22.565337384740083,65.73455605720771],[22.562335434383975,65.7336226748675],[22.561693836071846,65.73293269266568],[22.560292286104715,65.73264151052474],[22.558681585753423,65.7316388000274],[22.558524707969195,65.73110516340084],[22.561013773587398,65.73062028214365],[22.561132197959306,65.72953149051578],[22.563188818312454,65.72906809935967],[22.56308418284598,65.72871234522918],[22.564433219780724,65.72882562699257],[22.56519303246576,65.72842680494614],[22.56529769554792,65.72878255735091],[22.568375688920984,65.72880965010393],[22.57178116266393,65.72845937952873],[22.571885916519758,65.72881512649575],[22.573614834288662,65.72872889797299],[22.574151847976605,65.72906308287779],[22.5750163121895,65.72901995814742],[22.574741274540553,65.72957513802197],[22.577059713954664,65.73000092227784],[22.57726938508686,65.73071240724607],[22.57510808847503,65.7308202432176],[22.575645166355542,65.73115442221611],[22.5735886155964,65.73161798100229],[22.574178092495753,65.73213003783208],[22.571531989749065,65.73208151274919],[22.56963240308354,65.73307864043444],[22.568715426017423,65.73294386138724],[22.56844021514441,65.73349903160954],[22.56742447289573,65.7337161582727],[22.586739009999995,65.73275258],[22.589364479999997,65.74164591],[22.567742090000003,65.7427247],[22.565337384740083,65.73455605720771]],[[22.56259963069066,65.72855599710205],[22.56303186630199,65.7285344681253],[22.56308418284598,65.72871234522918],[22.56259963069066,65.72855599710205]],[[22.588936587319857,65.72417356253656],[22.58904155619528,65.72452929552671],[22.588609413600015,65.72455089744307],[22.588936587319857,65.72417356253656]],[[22.579928107752686,65.72931629541688],[22.579980542400843,65.72949416552875],[22.579548307749135,65.72951574263202],[22.579928107752686,65.72931629541688]],[[22.579586656905295,65.7251821263962],[22.57953423548474,65.72500425602045],[22.579966394769272,65.72498267971041],[22.579586656905295,65.7251821263962]],[[22.579102075405963,65.72502583111115],[22.579049657698466,65.72484796053156],[22.579481814858465,65.72482638561891],[22.579102075405963,65.72502583111115]],[[22.57889354756074,65.73027037550565],[22.57743954049597,65.72980148100791],[22.578304022789762,65.72975833742221],[22.57889354756074,65.73027037550565]],[[22.57848697903588,65.72740287119461],[22.57843455976039,65.72722500041664],[22.578866757251134,65.72720342684781],[22.57848697903588,65.72740287119461]],[[22.578513725786088,65.73046982035721],[22.578081473355933,65.7304913934721],[22.578029049335303,65.73031352259903],[22.578513725786088,65.73046982035721]],[[22.576417821159144,65.72931100510611],[22.576850055531875,65.72928943689648],[22.576902468946127,65.72946730828056],[22.576417821159144,65.72931100510611]],[[22.576902468946127,65.72946730828056],[22.577387122573082,65.72962360985349],[22.576954883154652,65.7296451796388],[22.576902468946127,65.72946730828056]],[[22.57551395355981,65.72773172527377],[22.575946162448787,65.72771015988573],[22.575998565795643,65.72788803168014],[22.57551395355981,65.72773172527377]],[[22.575998565795643,65.72788803168014],[22.576483183870725,65.72804433648515],[22.576050969936592,65.72806590344874],[22.575998565795643,65.72788803168014]],[[22.575199567670293,65.72666449289746],[22.575631759042533,65.72664292857728],[22.57568415762523,65.72682080052655],[22.575199567670293,65.72666449289746]],[[22.57568415762523,65.72682080052655],[22.576168753418884,65.72697710655434],[22.5757365570019,65.72699867245001],[22.57568415762523,65.72682080052655]],[[22.57593317921207,65.72915470033016],[22.575985585992175,65.72933257209607],[22.575553350031022,65.72935413786634],[22.57593317921207,65.72915470033016]],[[22.573850602678775,65.72655130585406],[22.573902988790163,65.72672917854091],[22.57347079424247,65.72675073798302],[22.573850602678775,65.72655130585406]],[[22.571244192235756,65.72812518582852],[22.57129656425962,65.7283030595544],[22.57086434079906,65.72832461188266],[22.571244192235756,65.72812518582852]],[[22.570064707238533,65.73305709079997],[22.570117083170384,65.73323496489694],[22.569684776094288,65.73325651470931],[22.570064707238533,65.73305709079997]],[[22.547015625973657,65.72626323624235],[22.5470678268517,65.72644111999561],[22.54663561024568,65.72646260344298],[22.547015625973657,65.72626323624235]],[[22.546859028085507,65.72572958482857],[22.546911226590566,65.72590746865879],[22.546479018744552,65.72592895157425],[22.546859028085507,65.72572958482857]],[[22.520115857165177,65.77073055826534],[22.52027223063015,65.77126423946365],[22.519839236860765,65.7712856544895],[22.520115857165177,65.77073055826534]],[[22.51892113046467,65.77115058663571],[22.519025364223115,65.77150637508663],[22.518592365148102,65.77152778662217],[22.518055143251672,65.77119340777651],[22.51892113046467,65.77115058663571]]],[[[22.582161771767723,65.72395350372369],[22.581969867244045,65.72434117179252],[22.5837508937496,65.7244327007808],[22.583856032225903,65.7238689858887],[22.582161771767723,65.72395350372369]]],[[[22.579699281432234,65.72407634454834],[22.579756705354665,65.72427119866141],[22.5811189777735,65.72400552328791],[22.579699281432234,65.72407634454834]]],[[[22.575435535593332,65.73044293460622],[22.575487942092536,65.73062080654739],[22.575920199288902,65.73059924075083],[22.575435535593332,65.73044293460622]]]]}},{"type":"Feature","properties":{"cyano_daymap_file_id":721294,"date":"2024-06-28Z","cloud":null,"sub_surfac":null,"surface":null,"no_data":null,"class":1,"color_hex":null,"algae_class":"class_1","source_date":"2024-06-28"},"geometry":{"type":"MultiPolygon","coordinates":[[[[22.25632204,65.64967374],[22.254923590297125,65.64469551680145],[22.25295733912918,65.64425631851071],[22.253057314248622,65.64461232711673],[22.251432699079555,65.64505088153413],[22.251582637066086,65.64558489615982],[22.2502891579784,65.64564679434174],[22.250439076592656,65.64618081028168],[22.24762069184323,65.64703722602181],[22.24632712902263,65.64709909126032],[22.24432097948449,65.64773619873147],[22.24335871730764,65.64742140894163],[22.240340320284684,65.64756566011282],[22.23919641138941,65.64816149290888],[22.23752144278583,65.64842189314018],[22.23792059198803,65.64984597499134],[22.236765301197142,65.65060734977492],[22.25632204,65.64967374]],[[22.246045778406618,65.64765373161694],[22.246095726083936,65.64783173858403],[22.245664524577357,65.64785235735829],[22.246045778406618,65.64765373161694]]],[[[22.267539114711614,65.64011577346463],[22.268187893041592,65.63937723003578],[22.267436780154245,65.6367072511482],[22.268579536476988,65.63611121678655],[22.274206400788778,65.63559004883335],[22.272869189999998,65.63084023],[22.258124667162594,65.63154722133018],[22.258178583001918,65.63173919216412],[22.25504116159653,65.63169507363614],[22.255262055160042,65.63223972680802],[22.25622388336699,65.63255444539182],[22.2574667031751,65.63231450031097],[22.257316736552287,65.63178049173072],[22.257897635490927,65.63229385062562],[22.26038319435594,65.631813923658],[22.260352343944344,65.63325859434623],[22.25949045125681,65.63329990670394],[22.259640473132475,65.633833912596],[22.258066637650046,65.63445053247436],[22.25618063575577,65.6370664647321],[22.257292659351332,65.63791518400446],[22.259016756414603,65.63783257633838],[22.258454768709395,65.63894189669891],[22.25926733777932,65.64051243180509],[22.267539114711614,65.64011577346463]]],[[[22.2491305608734,65.62405470429924],[22.24784426749375,65.62447707074634],[22.246982642082273,65.6245183094928],[22.246882843334042,65.62416229513823],[22.245590416980875,65.62422414312068],[22.245690198311934,65.62458015849363],[22.243304792456623,65.62541585819868],[22.24383538527726,65.62575126648066],[22.243123340202338,65.6263265089595],[22.24380360028103,65.62719594285569],[22.243789924524993,65.63026330380681],[22.244751542780264,65.63057809712096],[22.244901242788206,65.63111212068995],[22.244039391723913,65.63115334490526],[22.24466991658065,65.63184476517539],[22.243808040771132,65.63188598831607],[22.24390783314962,65.63224200473644],[22.24476972057835,65.63220078091682],[22.244438578445024,65.63257740942007],[22.245300475985243,65.63253618248888],[22.24520066316171,65.63218016718257],[22.248267166497076,65.63221384346333],[22.249460113186732,65.63179595695358],[22.25127746143239,65.63170894143119],[22.2491305608734,65.62405470429924]],[[22.24629383493236,65.63140628981982],[22.24634374666483,65.63158429707126],[22.245912815057938,65.63160491394503],[22.24629383493236,65.63140628981982]],[[22.245962724639885,65.63178292134234],[22.246012634975965,65.63196092871571],[22.245581696805555,65.63198154471277],[22.245962724639885,65.63178292134234]]],[[[22.24882717,65.62297303999999],[22.26267198774522,65.62230822899495],[22.26551807051749,65.6205632663714],[22.26377582447287,65.61902326604084],[22.261372353414075,65.61823656708097],[22.259942184087713,65.61469718395388],[22.26070351691298,65.61429987113048],[22.26073438519903,65.61285520003496],[22.265501623322415,65.61118324980605],[22.264390530427207,65.61033458151192],[22.260946011588263,65.61049986374476],[22.260615365588034,65.61087652276979],[22.25650932120782,65.61179502239784],[22.256228529667748,65.61234967632404],[22.254125426307056,65.61263087759762],[22.253413955981483,65.61320616283193],[22.251741377142814,65.6134666968217],[22.250218456054697,65.61426123115834],[22.250318254657902,65.61461724334247],[22.24902631260276,65.6146791158991],[22.250368155089717,65.61479524939867],[22.25094851835271,65.61530864012856],[22.248745332494796,65.61523375778783],[22.247784246796744,65.61491898459278],[22.243096863047796,65.61532372773421],[22.24491924554432,65.61559731166643],[22.25013710325139,65.61552789963385],[22.25033671296797,65.61623992391578],[22.248813589979395,65.61703444609228],[22.248913382180145,65.61739045925646],[22.24800210299873,65.61725369487196],[22.247371866954374,65.61656228558529],[22.23860861555035,65.6164403703185],[22.237366365115808,65.6166801554938],[22.234583006003454,65.61609162295078],[22.21879619019037,65.61738636994481],[22.21717265504906,65.61782454740484],[22.211092708297482,65.61793386500034],[22.209518633987418,65.61854998371348],[22.207795626859255,65.61863201871554],[22.20411719120823,65.61952862317374],[22.20335482643567,65.61992566179175],[22.20365238439722,65.62099380806129],[22.204994374420195,65.62111034146882],[22.203271180378476,65.62119232688744],[22.202939561860564,65.62156886939701],[22.20164713879677,65.62163034305803],[22.201018015328344,65.62093873066326],[22.197754636959175,65.62019198049917],[22.195169891454913,65.62031482751907],[22.193644814707724,65.62110881433362],[22.18895537940846,65.62151190416238],[22.18905437245775,65.62186796423939],[22.18743004046223,65.62230583101984],[22.18441418762048,65.62244894609596],[22.17689215731822,65.62208412428299],[22.175366409458356,65.62287793377818],[22.1747517085983,65.62380893992163],[22.17020958187817,65.62474556567672],[22.165887431691527,65.62332677417909],[22.163733068229792,65.62342870126297],[22.16401595481006,65.62287419901617],[22.162144542423352,65.62242160015356],[22.161565752065982,65.62190785506374],[22.16223019972887,65.62115493870789],[22.16153990585736,65.61866236902607],[22.163065843959362,65.6178686967186],[22.16291791693025,65.61733457577776],[22.16401297611289,65.6165612734277],[22.163815727579333,65.61584911348302],[22.162043427485226,65.61575258867401],[22.16174765116182,65.61468434388644],[22.16531517030828,65.61180993889108],[22.165216548448036,65.61145385975931],[22.163493843512864,65.61153538873869],[22.16072548184294,65.61256822452962],[22.161833323495777,65.6134176824296],[22.161119761545887,65.61399255431776],[22.161464795364644,65.61523884165176],[22.160603311914162,65.61527958853627],[22.161132635996985,65.61561529792185],[22.15955748364305,65.61623090847199],[22.158991636428365,65.61733989658703],[22.15413019067972,65.62027523600213],[22.154708797020014,65.62078901121856],[22.153847116878378,65.62082972161762],[22.15223458011382,65.62288996601067],[22.15296097157081,65.62393788055634],[22.151249688907836,65.62564202849612],[22.151594435855024,65.62688834087115],[22.150732547601432,65.62692903556979],[22.15126199211363,65.62726477820334],[22.153035048661998,65.62736142171447],[22.15413081352206,65.62658818402811],[22.157147347356762,65.62644566433897],[22.157245927245523,65.62680174906656],[22.15810779897633,65.62676101753573],[22.158206393467403,65.62711710149874],[22.160028771953822,65.62739170502402],[22.160656977344768,65.62808349599864],[22.163722979286888,65.62811888513667],[22.163624304623077,65.62776280552906],[22.165397433317988,65.62785930392064],[22.16572967715693,65.62748283754752],[22.167022493457676,65.62742166606365],[22.16773627592436,65.62684676437111],[22.168598129312286,65.62680597344098],[22.168499393860877,65.62644989758154],[22.17012431273157,65.62601222785803],[22.1699761847611,65.62547811576742],[22.179123848619856,65.62540550745148],[22.180317632870914,65.62498815654352],[22.180119860489057,65.62427602289821],[22.182655626943625,65.62397539520086],[22.182472047088805,65.62488599352207],[22.181278303091304,65.62530336099219],[22.182005933981113,65.62635112450168],[22.179816044989668,65.62789797864849],[22.181638693141,65.62817232008364],[22.182733625885408,65.62739888392733],[22.183595469175433,65.62735800792527],[22.184739788279185,65.62676259013374],[22.18459135478227,65.62622849525614],[22.187162201916223,65.6244830971602],[22.194006487363744,65.62397773178819],[22.194818654351014,65.62375876536593],[22.194719573656403,65.62340270989894],[22.19763635034024,65.62290333639464],[22.19916140504849,65.62210930968506],[22.20385077135396,65.62170590510087],[22.20542517105755,65.62108984207435],[22.207628765496516,65.62116534961604],[22.208208441225516,65.62167891036675],[22.214239615040192,65.62139167958222],[22.21844811243375,65.62083033189067],[22.21864690319945,65.62154240567442],[22.221231636769172,65.62141915883328],[22.223667144606495,65.62076181900875],[22.223998449844146,65.62038523423635],[22.226102527670395,65.62010444129277],[22.226814791827184,65.61952927655723],[22.23064173549615,65.61916617103383],[22.23140365292733,65.61876899965905],[22.234749888144062,65.61824835134584],[22.23503119810674,65.61769373221108],[22.236273519248137,65.61745396547505],[22.236124091255757,65.61691993072293],[22.24656038189649,65.61678152663505],[22.24805199367371,65.61743170178158],[22.247440037817878,65.61836297533152],[22.246297545695235,65.61895884802861],[22.24543610022038,65.61900007625226],[22.244873891085668,65.62010934858576],[22.243300510452254,65.62072581099278],[22.243699463651026,65.62214987980657],[22.245041673539145,65.62226605686065],[22.246252458462376,65.62347088267329],[22.248969649999424,65.62348101681225],[22.24882717,65.62297303999999]],[[22.167045271760664,65.62435422667957],[22.167143977692803,65.62471030377442],[22.168337928705494,65.62429304551344],[22.16891690773843,65.62480676295056],[22.166331539322623,65.6249291246565],[22.16604868255826,65.62548363092377],[22.163463230535335,65.62560594456333],[22.16326591430912,65.6248937846117],[22.164029046128256,65.62449694016175],[22.167045271760664,65.62435422667957]]],[[[22.179971210879547,65.58115773666692],[22.180037890894653,65.58153048490786],[22.18228742750381,65.5817844276877],[22.186620049314108,65.5808424508636],[22.179971210879547,65.58115773666692]]],[[[22.23874035428903,65.6153517132286],[22.238409325148833,65.61572832752506],[22.243096863047796,65.61532372773421],[22.23874035428903,65.6153517132286]]],[[[22.172290416120152,65.59290096877046],[22.172819416460744,65.59323664055383],[22.17368014719258,65.59319583152546],[22.175204253868287,65.59240205454917],[22.176876301947082,65.5921423696989],[22.177158602963797,65.59158784842904],[22.178019270967965,65.59154701536842],[22.17744089255763,65.5910333267408],[22.178301541693475,65.590992492259],[22.17810413590599,65.59028035225327],[22.179395069268857,65.59021909343832],[22.17914828534613,65.5893289204214],[22.17995951456119,65.58911004248156],[22.179860796110457,65.58875397373504],[22.180721365313723,65.588713126284],[22.179007936966975,65.58410465271795],[22.180150512832295,65.58350928606401],[22.180051817381432,65.58315321720296],[22.18162450957535,65.58253741739593],[22.18142709023002,65.58182528179674],[22.18056674997857,65.5818661310503],[22.180037890894653,65.58153048490786],[22.178796724933527,65.58176978002493],[22.178895396898756,65.58212584993393],[22.177322662778007,65.58274162182629],[22.177139105742658,65.58365221379873],[22.176328019809887,65.583871075275],[22.17374675841731,65.58399352385567],[22.17278773348189,65.58367825581551],[22.171335856478986,65.58158260364192],[22.170475505164067,65.58162339571425],[22.168951865317695,65.5824171207352],[22.16905040562803,65.58277319831609],[22.167809074647536,65.58301240502949],[22.168879795021226,65.58530652296767],[22.168216400863102,65.58605945857383],[22.169126181885886,65.58619671654414],[22.17086055961787,65.58773787831805],[22.17105774401002,65.58845002989914],[22.170345043955162,65.58902493702513],[22.17168524016225,65.58914178227204],[22.173173389811158,65.58979272663322],[22.173038967342606,65.59088135229989],[22.171895910452886,65.59147666992826],[22.171994532405087,65.59183274477971],[22.170421055484255,65.59244845214837],[22.170568965926183,65.5929825660518],[22.172290416120152,65.59290096877046]]],[[[22.15249286966566,65.61277703128157],[22.15358805906787,65.61200380290633],[22.156172214687146,65.61188166990634],[22.156799919223612,65.61257348173682],[22.1581412837886,65.61269043550125],[22.159433386164242,65.6126293354862],[22.16009767364658,65.61187642993687],[22.16143901522004,65.61199335476222],[22.16362872538344,65.61044676733906],[22.163050186457312,65.609933025445],[22.160896919115284,65.61003490177008],[22.16031844335354,65.6095211488499],[22.16078553608786,65.60805607495264],[22.161929561724953,65.60746083189476],[22.1654237339337,65.60747583469157],[22.166432878095776,65.60796918069191],[22.169016560070116,65.60784683342054],[22.16891790565869,65.60749075699508],[22.170541647569788,65.6070530940061],[22.1703936412,65.60651898106535],[22.171967953349238,65.60590326602758],[22.172151805721718,65.60499267765869],[22.173394134815812,65.60475342581866],[22.17324608565916,65.60421931606193],[22.174008471625214,65.60382242851156],[22.175752511213307,65.60067335265546],[22.175555086608966,65.5999612095721],[22.17396759664892,65.59895422207981],[22.17362222441952,65.59770796626555],[22.17132205660507,65.59727586998396],[22.171124784322387,65.59656371964839],[22.16945239280397,65.596823344352],[22.16921918112247,65.59755589168408],[22.168407598135442,65.59777471552671],[22.16947905353733,65.60006882185884],[22.168631375258094,65.60173234849394],[22.16629477730286,65.60274488056784],[22.16543371670341,65.6027856508295],[22.164720514659443,65.60336053625768],[22.163428887617712,65.60342167675516],[22.162285069910357,65.6040169291506],[22.162383617649468,65.60437301092317],[22.16085842892037,65.60516666929102],[22.159997277890444,65.60520740955131],[22.15852121912792,65.60617908742276],[22.156368241154016,65.60628089668843],[22.15522413608549,65.60687609856451],[22.153932307582696,65.6069371601083],[22.151077845361232,65.60923648101974],[22.15127468463159,65.60994866147404],[22.150327128731174,65.6112560093555],[22.147275121174072,65.61284308370603],[22.144789167373975,65.61332116161032],[22.14412439708161,65.61407400470819],[22.145564152627795,65.61454716470737],[22.147717865983942,65.61444550178018],[22.148431740418175,65.61387068995468],[22.1492932001701,65.61383001241346],[22.149194788469504,65.6134739208708],[22.15249286966566,65.61277703128157]]],[[[22.171837664512765,65.59598880716204],[22.17140725159126,65.59600920751348],[22.171456569210502,65.5961872450352],[22.171837664512765,65.59598880716204]]],[[[22.171111361505172,65.59494098189003],[22.171209988556956,65.59529705719176],[22.171640389887497,65.59527665751169],[22.171111361505172,65.59494098189003]]],[[[22.170138601517564,65.59300296233579],[22.170187903589056,65.5931810004244],[22.170618270894817,65.59316060397266],[22.170138601517564,65.59300296233579]]],[[[22.169954739676218,65.59391354845262],[22.17010265059088,65.5944476627994],[22.17053303892191,65.5944272663877],[22.169954739676218,65.59391354845262]]],[[[22.164114612466612,65.62323027854804],[22.16454548299957,65.62320989451543],[22.16449615089398,65.62303185492902],[22.164114612466612,65.62323027854804]]],[[[22.1491072331181,65.62736650141807],[22.14877474720331,65.62774293370266],[22.150449336058443,65.62748351612639],[22.150781794330015,65.62710708043637],[22.1491072331181,65.62736650141807]]],[[[22.147912825284347,65.627783612709],[22.14796205464596,65.62796165865467],[22.148823982377454,65.62792097931334],[22.147912825284347,65.627783612709]]],[[[22.147100123938866,65.62800233312936],[22.147149348231686,65.62818037938666],[22.148011284751455,65.62813970457701],[22.147100123938866,65.62800233312936]]],[[[22.14628740873661,65.6282210493296],[22.14633662796042,65.62839909589844],[22.147198573268327,65.62835842562056],[22.14628740873661,65.6282210493296]]],[[[22.145905654190813,65.62841942921234],[22.145954871251885,65.62859747592528],[22.146385847927988,65.62857714244394],[22.145905654190813,65.62841942921234]]],[[[22.145573108730346,65.628795855047],[22.145523893832067,65.62861780818994],[22.144661936761395,65.62865846906907],[22.145573108730346,65.628795855047]]],[[[22.14169425233145,65.62897879218268],[22.141743441813432,65.62915684052304],[22.14476035567529,65.62901456342956],[22.14169425233145,65.62897879218268]]],[[[22.140450467578873,65.62921779816872],[22.140401286817195,65.62903974932637],[22.139970296825986,65.62906006594068],[22.140450467578873,65.62921779816872]]],[[[22.140068653278938,65.62941616393681],[22.140019474680887,65.62923811495044],[22.139588481039727,65.62925843051532],[22.140068653278938,65.62941616393681]]],[[[22.139686833165275,65.62961452879942],[22.13963765673093,65.62943647966902],[22.138775661405525,65.62947710748305],[22.139686833165275,65.62961452879942]]],[[[22.138874003389603,65.6298332063897],[22.13882483202603,65.62965515694806],[22.137962827914507,65.62969578022944],[22.138874003389603,65.6298332063897]]],[[[22.13806115975666,65.6300518797586],[22.138011993464087,65.62987383000569],[22.137580987386805,65.62989413998841],[22.13806115975666,65.6300518797586]]],[[[22.136768130574755,65.63011280655807],[22.136817288888988,65.6302908567895],[22.137679314900815,65.6302502398055],[22.136768130574755,65.63011280655807]]]]}},{"type":"Feature","properties":{"cyano_daymap_file_id":721294,"date":"2024-06-28Z","cloud":null,"sub_surfac":null,"surface":null,"no_data":null,"class":1,"color_hex":null,"algae_class":"class_1","source_date":"2024-06-28"},"geometry":{"type":"MultiPolygon","coordinates":[[[[22.236513752616798,65.57897300675396],[22.23423286298509,65.5789476959262],[22.23408374325994,65.57841365603704],[22.234844446867367,65.57801647903598],[22.234148584026624,65.57552429412374],[22.231799765134518,65.57491509183704],[22.229699386199297,65.57519592805934],[22.229302065497237,65.57377180620368],[22.22963272761762,65.57339521523485],[22.230492694987117,65.57335409106128],[22.230343690554882,65.57282004635167],[22.231583934658513,65.57258033807112],[22.23295601798561,65.57125196627842],[22.237006898065328,65.5701561447502],[22.237088874862188,65.56888947691526],[22.235749467531523,65.56877320229688],[22.234740598133445,65.56828031491398],[22.237220549250747,65.56780082142566],[22.237931196213413,65.5672256199918],[22.239220817029555,65.56716386445818],[22.239799845134357,65.56767731095117],[22.241519360735104,65.567594946381],[22.24437923284088,65.56691673318485],[22.245039943923306,65.56616349066911],[22.246429014870287,65.56645769285143],[22.251686803715604,65.56656633163878],[22.253836047994447,65.56646320566927],[22.25454628789016,65.5658879302673],[22.256215801560604,65.56562739512228],[22.256365286528034,65.56616140968569],[22.25522523012427,65.56675732609611],[22.255374702613903,65.56729134175528],[22.25456480266195,65.56751061026243],[22.254813913365645,65.56840063745892],[22.25400397447252,65.56861990334596],[22.254203256445454,65.56933192593368],[22.253162647239144,65.5702838398924],[22.253081453962512,65.57155050873982],[22.25232121804731,65.57194777274317],[22.252850794207355,65.57228315949115],[22.25204071898884,65.57250241620531],[22.25185983789683,65.57341307216376],[22.2548197289595,65.5730906709236],[22.255579958406134,65.57269339444805],[22.255330772011654,65.57180336927284],[22.256284253285816,65.57175760440138],[22.255383189999996,65.56853989],[22.264700908717845,65.56792579675948],[22.267130339511745,65.56726781829686],[22.267030529950528,65.56691181718877],[22.268369964929207,65.56702781493378],[22.2703194619816,65.56621245567713],[22.26973987194415,65.56569913138868],[22.273458380230153,65.56497903039187],[22.275797945304493,65.56366451105819],[22.27509854778311,65.56117239233063],[22.27422857976949,65.56151433189218],[22.273269218154617,65.5611997032513],[22.269301699879957,65.56102979566374],[22.255549551972088,65.56169065005076],[22.248342941117468,65.56239724025535],[22.237896253795913,65.56398023567863],[22.237135996330064,65.56437742369741],[22.23503652435209,65.56465832509569],[22.23399538312021,65.5656101125577],[22.230077037302305,65.56561719594337],[22.229316611660707,65.566014346342],[22.223877153796774,65.56681556121892],[22.219826213029503,65.56791103224974],[22.215626254432962,65.56847233587368],[22.21577492723557,65.56900639828056],[22.21754419268105,65.5691023247808],[22.218982707057787,65.5695747999338],[22.219181040802475,65.57028687770783],[22.217659561952825,65.57108107133642],[22.21785787336999,65.57179315105158],[22.224224725891865,65.57275177191447],[22.22457211960269,65.57399789279563],[22.224009880237407,65.57510708839109],[22.222868687087878,65.57570277221186],[22.22356347639996,65.57819501931432],[22.222703336010817,65.5782361058334],[22.221992060429933,65.5788112418707],[22.221131896700605,65.5788523196958],[22.218418899694104,65.58006417108032],[22.218865349609942,65.58166634530923],[22.21972561059586,65.58162527940777],[22.22030459611017,65.58213880076636],[22.220635489447908,65.58176222721671],[22.226227131027727,65.58149514678371],[22.22698804458963,65.5810980071977],[22.22716983759126,65.58018737218123],[22.228460130959462,65.5801257017373],[22.22875817017202,65.58119379436397],[22.232199058365588,65.58102927833886],[22.234200453342257,65.58039237677357],[22.235920829749134,65.58031006739803],[22.235771666002456,65.57977602960294],[22.236688614417943,65.57959881091449],[22.236513752616798,65.57897300675396]],[[22.269789792051483,65.56587713090957],[22.268930146429383,65.5659184749972],[22.268880232097825,65.56574047513654],[22.269789792051483,65.56587713090957]],[[22.2681621639545,65.5616258043628],[22.26859191709198,65.56160513578938],[22.268641819899322,65.56178313586179],[22.2681621639545,65.5616258043628]],[[22.268641819899322,65.56178313586179],[22.26912148161798,65.56194046578493],[22.268691723458666,65.56196113591027],[22.268641819899322,65.56178313586179]],[[22.26650088703343,65.56657648065739],[22.26607104991684,65.5665971441175],[22.265971257925145,65.56624114213838],[22.26650088703343,65.56657648065739]],[[22.25760496416537,65.5659214939153],[22.257175129346177,65.56594213210774],[22.257125295247242,65.56576412759244],[22.25760496416537,65.5659214939153]],[[22.256545973439202,65.56525075020465],[22.25611614867057,65.56527138529378],[22.256066323351977,65.56509338034367],[22.256545973439202,65.56525075020465]]],[[[22.247917399999995,65.54183885],[22.232892541334415,65.54255874356478],[22.23132692027829,65.54354980315514],[22.228898732583563,65.54420719528574],[22.22876677288988,65.54529584648435],[22.22790772731414,65.54533695189967],[22.227319198399613,65.54600783115538],[22.228542554599155,65.55039770831891],[22.2304364256037,65.54972568556177],[22.233823511637347,65.54938315786247],[22.234153817701667,65.54900656043108],[22.238019989619662,65.54882138360286],[22.238218652663704,65.54953343332063],[22.239077816827976,65.54949226823368],[22.2393087001284,65.54875963618377],[22.244033914373222,65.54853313568577],[22.244843324463655,65.54831392824335],[22.244743906627466,65.54795790860601],[22.249532040119366,65.54761572567934],[22.247917399999995,65.54183885]],[[22.238879130706966,65.54878021986845],[22.238829461047164,65.54860220771762],[22.239259027584097,65.54858162420199],[22.238879130706966,65.54878021986845]],[[22.23839989376207,65.54862279002158],[22.238350227734887,65.54844477767789],[22.23877979213551,65.54842419554298],[22.23839989376207,65.54862279002158]]]]}}]}