{"type":"FeatureCollection","features":[{"type":"Feature","properties":{"class":"municipality"},"geometry":{"type":"MultiPolygon","coordinates":[[[[21.335719604672796,65.67162222320219],[21.4642333133396,65.69056304454172],[21.4689764042772,65.6851082258874],[21.4738809610252,65.6828437592543],[21.478910654582705,65.6790447909967],[21.479193489728402,65.6780872616104],[21.4775817962304,65.6768957902815],[21.472768399371798,65.6776511922175],[21.470743135758,65.6770716098528],[21.468203304787004,65.6743621283289],[21.467875757686198,65.67306159523929],[21.4705270967509,65.6707512129947],[21.4713098909216,65.66865583386239],[21.4743493985067,65.6670220177393],[21.475332755780897,65.665518534629],[21.4822594486476,65.6632898839081],[21.512949977589198,65.68908854577039],[21.5139033497979,65.6883749236592],[21.5302706470489,65.6990800899318],[21.528243782774297,65.6993249842718],[21.5274392334781,65.6997795518568],[21.524197486240205,65.69950877145611],[21.5199615503057,65.7001383056547],[21.518464630463,65.7017755279461],[21.5144748969244,65.703599177329],[21.5142309271599,65.7043838964702],[21.5123623446492,65.7049661659539],[21.5117284809553,65.70548381829119],[21.514646633268605,65.7043845733819],[21.5150179261718,65.70349547601168],[21.5184179602416,65.7020296741536],[21.5201819914869,65.7006623292231],[21.5232593822156,65.7003812874747],[21.544785162599,65.7125022737638],[21.5428497051588,65.7133466038148],[21.5429675261173,65.71362147382348],[21.5366897539651,65.7149830443897],[21.5359988027099,65.7154622891854],[21.5363335109483,65.7161958226687],[21.535043734467898,65.7164659341701],[21.5354594465561,65.7169078746265],[21.534807323879296,65.7173674745471],[21.5299125269204,65.71704073105609],[21.529193379506296,65.71705276226959],[21.52847496461,65.7172779346629],[21.529474819082502,65.71710512744501],[21.534904883833196,65.7174072172423],[21.5357571681139,65.7170651894725],[21.5357617481151,65.7163997863281],[21.53646580519599,65.71619736054559],[21.536369597663995,65.71534641458248],[21.5371064424355,65.7149721166425],[21.539424288813805,65.7146150453851],[21.540288674659198,65.7148248332908],[21.551251650487302,65.7123051709896],[21.5528966850251,65.7115418993109],[21.5528220779557,65.7108071308613],[21.554963485131005,65.7097851041755],[21.557762701000797,65.7092362497797],[21.560325476776697,65.7092793318763],[21.562796631756395,65.70895675354669],[21.5635124569282,65.70847511813771],[21.5632883095549,65.7071877788087],[21.567557414132796,65.7042807458505],[21.567732185219402,65.70302545486479],[21.570135039338197,65.7017789525368],[21.570393921169302,65.7010783254206],[21.5696750561076,65.7000587393048],[21.572000955281197,65.6992102608194],[21.577023621280798,65.69911041155729],[21.576993559614696,65.6979270314383],[21.5824539395028,65.6958827962415],[21.594887991820695,65.68409242363708],[21.6031340602969,65.6802461898553],[21.646208231684998,65.6683622099073],[21.745842807083296,65.687754318263],[21.7471919539947,65.6867981132322],[21.800093780644694,65.69717988455508],[21.7980203147658,65.6980107669024],[21.7845031491445,65.7115361020494],[21.7894312956748,65.7129840175618],[21.791822237979996,65.7128483850033],[21.794551893465197,65.71333500932559],[21.797034060496596,65.71225038380149],[21.8323387059353,65.7276863813909],[21.85934975255209,65.73660966659398],[21.928576351508095,65.75291967911168],[21.8927670500667,65.78259380256839],[21.889326042364598,65.7827794387792],[21.8898288677409,65.8012132789913],[21.8935171750365,65.8014977018564],[21.9118004091458,65.8050042301075],[21.910167195661398,65.80524084119858],[21.901863570158802,65.8077793446921],[21.903262982456603,65.8083083207151],[21.910730394171097,65.80612738360568],[21.913961511373696,65.806789765772],[21.9160369489784,65.8058332176593],[21.9754222408969,65.8169822598514],[21.9707666452625,65.8194477022521],[21.9701276231376,65.81943639237859],[21.969757934719297,65.82116932005019],[21.9656052389585,65.8221034553354],[21.964140765741895,65.8220339890552],[21.961096475170198,65.82359109141689],[21.9572422401993,65.8245854641044],[21.956919453962197,65.82480485305888],[21.9608738560692,65.8262540984716],[21.982258949284905,65.8182744979857],[21.987669615495996,65.81927977152759],[21.987478239706697,65.81978209102098],[21.9888250357328,65.82019783074881],[21.9894381480026,65.821523831783],[21.992835373454895,65.82378573195848],[21.996865315290396,65.82466719820559],[22.000102174803395,65.82635636778309],[22.013011083595195,65.82541387501558],[22.027327679241395,65.8252432615259],[22.029006894331996,65.82595166419199],[22.027938725611897,65.82749612230319],[22.0296664170796,65.8289077911648],[22.0361557396551,65.8291282413375],[22.03719192685759,65.82942972325868],[22.0380542999306,65.8304939237916],[22.037182483703194,65.83259770940398],[22.038503824124795,65.8330860346052],[22.041110107278598,65.83343417074629],[22.041417002979497,65.8338091333756],[22.038858893516796,65.8372983937727],[22.0399566493709,65.838194659804],[22.0379314454906,65.8381747615372],[22.0371998296606,65.8386172767549],[22.041159369579795,65.84137829959839],[22.041851420983193,65.84292196460088],[22.039628032533997,65.8456495907582],[22.037936460471695,65.8466875109002],[22.037023806933895,65.8490898346588],[22.032684229489405,65.8538993682954],[22.0266251450639,65.8583335150554],[22.022529965499597,65.86266840267518],[22.022361094134695,65.86433186963949],[22.0211783895273,65.8644428710266],[22.0210181884681,65.8639631911008],[22.019600180741598,65.8641017779292],[22.01689533391029,65.86919039137018],[22.0112415155025,65.87255264185552],[22.0135471249599,65.8731704344737],[22.107923064384703,65.8449698768325],[22.1148123547497,65.8485149900357],[22.049465395428,65.8794533107134],[22.007222721978298,65.9189636140813],[22.0019353875304,65.92241000824922],[22.002079726019794,65.92380092892108],[21.9996787954279,65.9241376999014],[21.9984924555346,65.92463453759049],[21.968221552283797,65.9444363580554],[21.877575256392,65.9555147827794],[21.868348084993197,65.95730215284608],[21.865751494087103,65.9605530593096],[21.868845985511,65.960964207228],[21.867867110449303,65.9622958650152],[21.8667001464819,65.9636502011243],[21.8644403981776,65.96335229908789],[21.8638625956755,65.9640749165223],[21.863026170237397,65.96396377968549],[21.851289627612,65.9785136256998],[21.8561775293252,65.9899604809214],[21.8818694388133,65.9910675429134],[21.891141631574804,66.0017016340875],[21.904183792713198,65.99793397967458],[21.90936741921629,66.00144916753429],[21.9397789769298,66.0373050184822],[21.976953008268705,66.0559959446863],[22.0136293703421,66.060586026915],[22.008230583841296,66.0732173389712],[22.03626337152649,66.07013388903128],[22.031109857638803,66.084658157566],[22.0752369731055,66.0868844742421],[22.0707176330452,66.1107419882898],[22.023158573970804,66.1084767489971],[22.019765175093,66.1222348233079],[21.9896575247406,66.1499909292725],[21.9693138541253,66.1547301389187],[21.977829529293,66.1604656431384],[21.9911464010627,66.1545775312495],[22.0186204915664,66.1571845854618],[22.025602041348794,66.17362274623329],[22.0245274758744,66.1740364058636],[22.061481738896205,66.1834315481004],[22.031560542394896,66.20273806971629],[22.032294415898,66.2091895612814],[22.026533323426996,66.2400808919396],[22.082437394802795,66.25470118485988],[22.064257672773497,66.26793824771369],[22.066735658005197,66.26846193842759],[22.069024407766,66.2668729694828],[22.146396801063197,66.28328406772708],[22.235164819125,66.21586746503289],[22.3321639696796,66.1408160613996],[22.412222427763496,66.07624992296029],[22.417919584043393,66.0691376874087],[22.4252049166363,66.0644031205579],[22.4261201500315,66.0647297179114],[22.4888737950768,65.99186633735212],[22.5419988865425,65.9562887138297],[22.5386986646834,65.9416945515295],[22.537764972505403,65.9337743235569],[22.5433473916104,65.9265674236356],[22.540809614661292,65.92613780531678],[22.540710382478096,65.92524051917978],[22.542537171285296,65.92442508927408],[22.545049391241903,65.9243586643289],[22.55804323216899,65.90731222288468],[22.577316257088295,65.8751080278079],[22.5758580737733,65.87466723085278],[22.576707119680897,65.87437791295],[22.577513074477796,65.87476611325579],[22.5945675238464,65.8451561656616],[22.620921646535795,65.80538094715318],[22.620469094035304,65.8034982642763],[22.6215561552198,65.80289743083982],[22.622434215880606,65.8030876421507],[22.6312975495707,65.7903427182051],[22.639986277471895,65.78703463672049],[22.645386917472894,65.78236438831038],[22.6575697113765,65.7756053006684],[22.6466010174261,65.7675209826933],[22.629626611492498,65.76057883753],[22.604195119519396,65.74896748549598],[22.636865963714005,65.73790735481191],[22.6519919525198,65.7256029751429],[22.692209173666996,65.73394201467839],[22.7107938778677,65.7308010551863],[22.7169667140691,65.7103161878469],[22.7354728450427,65.7111853927368],[22.7390399327984,65.7110226303001],[22.745418013632495,65.709109227441],[22.747244315396795,65.7065474501637],[22.747715649125997,65.69814462065249],[22.8019485963681,65.6980889054477],[22.834625625970205,65.691171722962],[23.043952659174895,65.41743683403658],[23.1383421263494,65.2880901187065],[23.089750185962696,65.28445681869319],[23.089006707861,65.2686634456045],[23.085865544434196,65.25481330335228],[23.083434648887803,65.24793025256491],[23.07686374182269,65.23429273268009],[23.068049187509,65.22088028001592],[23.062814772555996,65.214278717246],[23.050723183384996,65.20132545108389],[23.036523732882095,65.1887561530205],[23.0286527983404,65.1826346123978],[23.011423917751596,65.1707541953058],[23.002086021599,65.1650103332603],[22.982021613701995,65.1539487475862],[22.971321041627803,65.14864482772902],[22.9486418863903,65.1385205351859],[22.924360538612298,65.1290836625267],[22.8985886497093,65.1203780521599],[22.885184620758892,65.11631308182429],[22.8574198396373,65.1087830198622],[22.8284889099152,65.1020815640313],[22.7985321811466,65.0962403480897],[22.767695334584204,65.0912889661128],[22.736125520193397,65.0872488627787],[22.703969492420804,65.0841417016372],[22.671386243666497,65.08198038309648],[22.6385276832449,65.0807765653101],[22.605549814407997,65.0805345870311],[22.572612357522697,65.08125691168058],[22.5398709130982,65.0829391987179],[22.5236222511317,65.0841381956597],[22.4989570328592,65.0864342959367],[22.4512775467598,65.06965380799399],[22.3200684113133,65.1466372251174],[21.9374845157948,65.3623116230953],[21.9150641694213,65.3981372872711],[21.8965430369557,65.4098674252637],[21.8968804845521,65.4102418579027],[21.896177249983197,65.41091905670498],[21.8947113936792,65.41103211407068],[21.8261066450842,65.4547489334365],[21.734500089379296,65.47982736795579],[21.7006410660238,65.4950666143222],[21.706055212681303,65.49519595083632],[21.7080442931098,65.4961800488123],[21.7067212813019,65.49719399633298],[21.701115315187,65.4978391591672],[21.697079318894,65.4966573130568],[21.6859942841095,65.5015726409177],[21.6864094150001,65.501752532776],[21.6842604961126,65.5023431873278],[21.6727462692944,65.50745750230858],[21.563362891365195,65.5565632445219],[21.5045049055753,65.5841246608306],[21.489871940594995,65.5913153872518],[21.395991675803796,65.61943996494709],[21.386430326032702,65.61782374544981],[21.379988116776097,65.64569702250138],[21.335719604672796,65.67162222320219]]],[[[21.524223731461497,65.71809165137529],[21.5260591189458,65.71809572262879],[21.5277943284596,65.7174652397687],[21.5259091274321,65.7180185513329],[21.5241088871725,65.7179946513131],[21.523232261985896,65.71816634995758],[21.521586824287304,65.7189465378717],[21.520885177375398,65.71956122924028],[21.51798477680749,65.72022260684409],[21.5135557852106,65.72189692742522],[21.5210012337992,65.7196422847861],[21.522288109745,65.7187110624882],[21.524223731461497,65.71809165137529]]],[[[21.511976763955094,65.72527998824748],[21.514221885422295,65.72525312863588],[21.5144367960467,65.72500353718341],[21.513861563113597,65.72404205580189],[21.511724560470203,65.72233044802302],[21.512236667539895,65.72203538624929],[21.5115364764624,65.7223827361514],[21.513748585569093,65.72416388002759],[21.5138216321856,65.7251695376312],[21.5120381408754,65.7251267663969],[21.510283993389898,65.7272442708166],[21.509332846905103,65.7272928736911],[21.508370961821097,65.72800840091789],[21.506599891557496,65.72783895322299],[21.506056605820895,65.72803268556788],[21.5065499009826,65.7284354415375],[21.5053201246879,65.7287828682789],[21.508362808624398,65.72811935378618],[21.5108579931847,65.7269878268874],[21.511976763955094,65.72527998824748]]],[[[21.845237731905595,65.891344196449],[21.846843530175,65.8914889233813],[21.8474079185891,65.8908136650249],[21.8451403786534,65.8907090369999],[21.845237731905595,65.891344196449]]]]}},{"type":"Feature","properties":{"class":"mainland"},"geometry":{"type":"Polygon","coordinates":[[[21.504504969999996,65.58412465],[21.48987201,65.59131542],[21.395991589999998,65.61944],[21.38643038,65.61782371],[21.37998819,65.64569707],[21.33571964,65.67162222],[21.46423332,65.69056310000002],[21.46897641,65.68510823],[21.47408731999999,65.68270892],[21.478910689999992,65.67904483],[21.47919345,65.67808725999998],[21.477581829999995,65.67689576],[21.4727683,65.67765117],[21.470743040000002,65.67707161],[21.468203359999997,65.67436214999998],[21.46787579,65.67306164000001],[21.47052706,65.6707512],[21.47130992,65.66865585000001],[21.47434943,65.66702204],[21.47533265,65.66551851],[21.482259469999995,65.66328991999998],[21.512949870000003,65.68908853],[21.513903249999995,65.68837495999999],[21.5302707,65.69908008],[21.52824379,65.69932502],[21.527439270000002,65.69977958],[21.524197539999996,65.69950873999998],[21.51996154,65.70013832],[21.518464609999995,65.70177558],[21.514474779999993,65.70359915999998],[21.51423097,65.70438392],[21.512362320000005,65.70496616],[21.51172844,65.70548384999998],[21.514646539999998,65.70438457],[21.515017849999996,65.70349552],[21.51841792,65.70202964999999],[21.520182049999995,65.70066235999998],[21.523259349999996,65.70038125999999],[21.54478513,65.7125023],[21.542849719999996,65.71334661999998],[21.5429675,65.71362146],[21.536689709999997,65.71498302],[21.535998860000003,65.71546228],[21.536333439999996,65.71619582],[21.535043779999995,65.71646595],[21.53545942,65.71690789999998],[21.53480735,65.71736747],[21.52991245,65.71704079],[21.529193430000003,65.71705275999999],[21.52847501,65.71727794],[21.529474889999996,65.71710517],[21.534904779999998,65.71740723999999],[21.535757199999995,65.71706518999999],[21.53576167,65.71639977],[21.536465750000005,65.71619734],[21.536369549999996,65.71534643],[21.53710651,65.71497212],[21.53942427,65.71461504],[21.540288659999998,65.71482487],[21.55125167,65.71230513999998],[21.55289667,65.71154196],[21.55282207,65.71080714],[21.55496351,65.70978513],[21.557762609999997,65.70923624999999],[21.56032546,65.70927933],[21.56279667,65.70895677],[21.563512429999996,65.70847512],[21.56328839,65.70718781],[21.567557320000002,65.70428074],[21.56773217,65.70302546999999],[21.570134999999997,65.70177892999999],[21.570393879999997,65.70107833],[21.569675059999994,65.70005873999999],[21.57200099,65.69921027],[21.57702365,65.69911038999999],[21.57699363,65.69792702999999],[21.58245397,65.69588285],[21.59488793,65.68409248],[21.603134039999997,65.68024624],[21.646208180000002,65.66836220000002],[21.74584282,65.68775435],[21.747191920000002,65.68679811000001],[21.800093840000002,65.6971799],[21.798020260000005,65.69801075000001],[21.784503199999996,65.71153611],[21.789431199999996,65.71298400999999],[21.79182215,65.7128484],[21.794551920000004,65.71333503],[21.79703404,65.71225043],[21.832338599999996,65.72768635999999],[21.8593497,65.73660972],[21.9285764,65.75291972],[21.89276703,65.78259381999999],[21.88932606,65.78277940999999],[21.88982886,65.80121329],[21.89351707,65.80149773000001],[21.91180046,65.80500427],[21.910167259999998,65.80524086999999],[21.901863540000004,65.80777937],[21.90326292,65.80830834],[21.91073046,65.80612742000001],[21.91396155,65.8067898],[21.91603685,65.80583326],[21.975422299999995,65.81698230999997],[21.970766530000002,65.8194477],[21.97012766,65.81943644],[21.96975788,65.82116934],[21.96560522,65.8221035],[21.964140699999998,65.82203404],[21.961096359999992,65.82359105999998],[21.957242269999995,65.82458542999998],[21.956919419999995,65.82480487999999],[21.960873829999993,65.82625413999999],[21.98225887,65.81827452999998],[21.987669579999995,65.81927974999999],[21.987478199999998,65.81978207999998],[21.98882501,65.82019783],[21.98943813,65.8215238],[21.992835389999996,65.82378571],[21.996865320000005,65.82466721999998],[22.00010212,65.82635636],[22.01301108,65.82541391],[22.02732759,65.8252433],[22.02900687,65.82595163],[22.027938709999997,65.82749615],[22.029666430000002,65.82890777],[22.03615575,65.82912828],[22.03719192999999,65.82942969999999],[22.03805427,65.8304939],[22.03718242,65.83259776],[22.038503779999996,65.83308605999999],[22.04111006999999,65.83343414999999],[22.04141692,65.83380917],[22.038858819999998,65.83729839999998],[22.03995659,65.83819469],[22.03793139,65.83817477],[22.037199849999993,65.83861728999999],[22.041159290000003,65.84137828],[22.04185141,65.84292194000001],[22.03962794,65.84564958999998],[22.037936420000005,65.84668752],[22.03702381,65.84908984],[22.03268415,65.85389941],[22.026625069999998,65.85833352999998],[22.02253001,65.8626684],[22.0223611,65.86433189],[22.021178289999998,65.86444292999998],[22.02101825,65.8639632],[22.019600179999994,65.86410182999998],[22.01689527,65.86919037],[22.011241449999996,65.87255260999999],[22.013547049999996,65.87317042],[22.10792302,65.84496989999998],[22.11481226,65.84851501],[22.049465289999997,65.87945330999999],[22.007222739999996,65.91896365999999],[22.00193529,65.92241001],[22.002079629999997,65.92380098999999],[21.999678710000005,65.92413774],[21.99849246,65.92463458],[21.968221539999995,65.94443638],[21.877575150000002,65.95551483],[21.868348009999995,65.9573022],[21.865751419999995,65.96055309],[21.868846009999995,65.96096417999999],[21.867867089999997,65.96229589999999],[21.866700199999997,65.96365019999999],[21.86444032,65.96335234],[21.863862569999995,65.96407495],[21.863026109999996,65.96396382],[21.851289619999996,65.97851363999999],[21.85617754,65.98996046],[21.881869339999998,65.99106754999998],[21.89114152,66.00170161000001],[21.904183720000002,65.99793399],[21.90936749,66.00144921000002],[21.939779029999997,66.03730503],[21.97695296,66.05599598],[22.013629429999998,66.06058603999999],[22.008230559999998,66.07321734999998],[22.03626338,66.07013389],[22.03110989,66.08465817],[22.075237,66.08688451],[22.070717530000003,66.11074197000002],[22.02315859,66.10847674],[22.019765139999997,66.12223486999999],[21.989657579999992,66.14999092999997],[21.96931381,66.15473011],[21.977829529999998,66.16046561999998],[21.99114645,66.15457755],[22.018620390000002,66.15718456000002],[22.02560202,66.17362271],[22.02452741,66.17403645999998],[22.061481749999995,66.18343156999998],[22.0315605,66.20273811],[22.032294470000004,66.20918956],[22.026533299999997,66.24008087],[22.082437419999998,66.25470118],[22.06425765,66.26793826999999],[22.066735599999998,66.26846196999999],[22.069027829999996,66.26686607999999],[22.146396759999995,66.28328407],[22.235164719999993,66.21586747999999],[22.332163889999993,66.14081606999999],[22.41222232,66.07624996],[22.41791945,66.06913767],[22.425204799999992,66.06440308999998],[22.426120129999997,66.06472972999998],[22.48887377,65.99186638],[22.54199874,65.95628875],[22.538698689999997,65.94169454999998],[22.537764899999992,65.93377432999999],[22.54334734,65.92656747],[22.54080963,65.92613779],[22.54071026,65.92524056],[22.5425371,65.92442509],[22.545049309999996,65.92435868999999],[22.55804308,65.90731221999998],[22.577316230000005,65.87510807],[22.575858059999998,65.87466719999999],[22.57670698,65.87437791],[22.57751301,65.87476608],[22.594567429999998,65.84515618],[22.620921609999996,65.80538094],[22.620468999999996,65.80349827],[22.62155602,65.80289747],[22.62243415,65.80308763999999],[22.631297530000005,65.79034272],[22.639986170000004,65.78703468000002],[22.64538685,65.78236442],[22.6575697,65.77560531],[22.64660092,65.76752095],[22.62962651,65.76057886],[22.604195099999995,65.74896745999999],[22.636865959999998,65.73790731],[22.65199196,65.72560296],[22.692209179999995,65.73394205],[22.71079379,65.73080109],[22.716966689999992,65.71031619999998],[22.735472749999996,65.71118536],[22.739039789999996,65.71102267],[22.74541796,65.70910925],[22.747244289999998,65.70654742],[22.747715659999997,65.69814463],[22.80194849,65.69808894],[22.83462557,65.6911717],[23.043952489999995,65.41743680999998],[23.13834196,65.28809015999998],[23.08975001,65.28445683],[23.08900660999999,65.26866344999999],[23.085865390000002,65.25481334],[23.08043177,65.24108809],[23.072733969999994,65.22755476999998],[23.06281472,65.21427868],[23.050723159999997,65.20132548],[23.036523629999998,65.18875618999999],[23.028652649999998,65.18263464],[23.01142374,65.1707542],[22.99228172999999,65.15940660999999],[22.971320859999995,65.14864481],[22.948641840000004,65.13852056000002],[22.92436054,65.1290837],[22.898588619999998,65.12037805999998],[22.871456169999995,65.11244661],[22.843090999999998,65.10532594],[22.813630479999997,65.09905156999999],[22.79853217,65.09624039000002],[22.7676952,65.09128899],[22.736125469999994,65.08724887999999],[22.703969329999996,65.08414168999998],[22.687722659999995,65.08294184999998],[22.6549814,65.08125808],[22.6220432,65.08053492],[22.60554981,65.08053462],[22.572612289999995,65.08125689],[22.53987091999999,65.08293924999998],[22.523622129999996,65.08413817],[22.498957050000005,65.08643432],[22.451277519999998,65.06965381999998],[22.32006835,65.14663722],[21.937484490000003,65.36231164],[21.915064119999997,65.39813733999999],[21.896542939999996,65.40986744],[21.89688054,65.41024188],[21.8961773,65.41091909],[21.89471145,65.41103212],[21.82610666999999,65.45474890999998],[21.734500109999995,65.47982735999999],[21.70064102,65.49506661],[21.70605528,65.49519598],[21.70804422,65.49618009],[21.70672119,65.49719404],[21.70111522,65.49783920999998],[21.69707935,65.49665731000002],[21.68599419,65.50157269],[21.686409349999998,65.50175254],[21.68426042,65.5023432],[21.672746329999995,65.50745753],[21.563362910000002,65.55656326],[21.504504969999996,65.58412465]]]}},{"type":"Feature","properties":{"class":"sea"},"geometry":{"type":"Polygon","coordinates":[[[21.512282215455393,65.72516233891949],[21.514221885422295,65.72525312863588],[21.5144367960467,65.72500353718341],[21.513861563113597,65.72404205580189],[21.511724560470203,65.72233044802302],[21.512236667539895,65.72203538624929],[21.5115364764624,65.7223827361514],[21.513748585569093,65.72416388002759],[21.5138216321856,65.7251695376312],[21.5120381408754,65.7251267663969],[21.510283993389898,65.7272442708166],[21.509332846905103,65.7272928736911],[21.508370961821097,65.72800840091789],[21.506599891557496,65.72783895322299],[21.506056605820895,65.72803268556788],[21.5065499009826,65.7284354415375],[21.5053201246879,65.7287828682789],[21.508362808624398,65.72811935378618],[21.5108579931847,65.7269878268874],[21.512282215455393,65.72516233891949]]]}},{"type":"Feature","properties":{"class":"inland_water"},"geometry":{"type":"MultiPolygon","coordinates":[[[[21.43481762821759,65.60773878658264],[21.48987201,65.59131542],[21.496831302953876,65.58783538535032],[21.489871940594995,65.5913153872518],[21.448962974755002,65.6034835625072],[21.436365793852797,65.60726080458029],[21.43481762821759,65.60773878658264]]],[[[21.433157768441397,65.60824527936319],[21.429678740172996,65.60929599386597],[21.434481227845662,65.6078421101204],[21.433157768441397,65.60824527936319]]],[[[21.41934164720572,65.61240683098775],[21.415836298643598,65.6134329338047],[21.408005566085265,65.615801488724],[21.41934164720572,65.61240683098775]]],[[[21.393252825633116,65.6189997656079],[21.395991589999998,65.61944],[21.401096900861276,65.61789510576257],[21.395991675803796,65.61943996494709],[21.393252825633116,65.6189997656079]]],[[[21.386430326032702,65.61782374544981],[21.38571186177304,65.6209483937708],[21.38614707,65.61913818],[21.386430326032702,65.61782374544981]]],[[[21.382642147502043,65.63435768279038],[21.383390759999997,65.63112878],[21.383884890000004,65.62897022],[21.38414539949485,65.62779454111455],[21.382642147502043,65.63435768279038]]],[[[21.368205055842243,65.65260150436998],[21.374319839999995,65.64903404999998],[21.37998819,65.64569707],[21.38034701054585,65.6442328026497],[21.379988116776097,65.64569702250138],[21.374319783099498,65.6490340049534],[21.3727877003524,65.64991737052479],[21.371799746633098,65.6504930707042],[21.3705218431406,65.6512412223307],[21.368205055842243,65.65260150436998]]],[[[21.358333821256696,65.6583569487168],[21.357724610086336,65.6587180246948],[21.35881176954874,65.65807734692649],[21.358333821256696,65.6583569487168]]],[[[21.481634799023443,65.66344922921346],[21.4809368535091,65.6637099189362],[21.4810916490145,65.6636229471498],[21.481634799023443,65.66344922921346]]],[[[21.479674460318392,65.66401061737598],[21.479674369999998,65.66401061999998],[21.479568381750564,65.66402989980884],[21.479674460318392,65.66401061737598]]],[[[21.479403520123867,65.66406605865366],[21.479453072938423,65.66405493924003],[21.479403549999997,65.66406605],[21.479403520123867,65.66406605865366]]],[[[21.478750653987753,65.66425992474066],[21.4790581173569,65.6641783890076],[21.479391613528936,65.66406950740758],[21.478750653987753,65.66425992474066]]],[[[21.47802934135665,65.66451791211145],[21.4777671526036,65.6646421835422],[21.477886799318195,65.664592566988],[21.478004426056398,65.6645340264194],[21.47802934135665,65.66451791211145]]],[[[21.4766615902479,65.66518401955992],[21.476661621775897,65.66518399052957],[21.476503656087495,65.66519416225827],[21.4766615902479,65.66518401955992]]],[[[21.4764746803114,65.66519602804821],[21.475663786537364,65.6653820489037],[21.4763281425756,65.6652523717104],[21.4764746803114,65.66519602804821]]],[[[21.475332755780897,65.665518534629],[21.47533265,65.66551851],[21.47527280543844,65.66575876451894],[21.475332755780897,65.665518534629]]],[[[21.348319815948926,65.67347816298924],[21.33571964,65.67162222],[21.338627694170857,65.66993292765159],[21.335719604672796,65.67162222320219],[21.348319815948926,65.67347816298924]]],[[[21.474866225588254,65.66609008079726],[21.47463026,65.6663167],[21.474592701642635,65.66637124894159],[21.474866225588254,65.66609008079726]]],[[[21.47441751551436,65.6669519124252],[21.474503969999997,65.66668223999999],[21.474522779999997,65.66684348999999],[21.47441751551436,65.6669519124252]]],[[[21.473998808500937,65.66722415668524],[21.47367836,65.66739289],[21.473567370462195,65.66742205443565],[21.473998808500937,65.66722415668524]]],[[[21.4723441673966,65.66781921281648],[21.47234415,65.66781921],[21.47213603999103,65.66793032358001],[21.4723441673966,65.66781921281648]]],[[[21.47195907,65.66802481],[21.471652226457312,65.66832235696491],[21.47195908360264,65.66802480273742],[21.47195907,65.66802481]]],[[[21.47128803607808,65.66869271776629],[21.47093895775429,65.66934437584027],[21.471287125229292,65.66899894274229],[21.47128803607808,65.66869271776629]]],[[[21.470403039999997,65.67043237],[21.47045867458989,65.67081628585215],[21.4705270967509,65.6707512129947],[21.4704244417392,65.6701703508465],[21.47059665591823,65.66989098786777],[21.470424409999996,65.6701704],[21.470403039999997,65.67043237]]],[[[21.470121166214916,65.67104773867578],[21.470057929999996,65.67123051999998],[21.469611387509307,65.67161233782454],[21.470057989221395,65.6712304846107],[21.470121166214916,65.67104773867578]]],[[[21.469400145108306,65.67175315598335],[21.4690077,65.67200476],[21.46894550033005,65.67203406526382],[21.4690077967038,65.67200472716809],[21.469400145108306,65.67175315598335]]],[[[21.4685541330438,65.6722852582569],[21.46862275985026,65.67222747491356],[21.46844956567743,65.67236016505733],[21.4685541330438,65.6722852582569]]],[[[21.467834520000004,65.67376567],[21.468258319820603,65.67429442856154],[21.468233678034398,65.67413573728669],[21.467834599096605,65.6737656424095],[21.467835109462015,65.67333267931306],[21.467834520000004,65.67376567]]],[[[21.468499412299096,65.67458355682278],[21.468499339999997,65.67458357999999],[21.46878867194454,65.67474027759455],[21.468499412299096,65.67458355682278]]],[[[21.46942971,65.67558816000002],[21.4702305772215,65.67635119942418],[21.46897996690554,65.67492250054707],[21.46942971,65.67558816000002]]],[[[21.4702348124234,65.6763550532026],[21.470234810097725,65.67635505108638],[21.470235236575533,65.67635979206975],[21.4702348124234,65.6763550532026]]],[[[21.47032290308136,65.67666704973543],[21.470743040000002,65.67707161],[21.471080848703654,65.67720816414501],[21.47032290308136,65.67666704973543]]],[[[21.47593325063166,65.67709112423805],[21.47638917,65.67701897],[21.476752530642166,65.67694203267338],[21.4763892087072,65.6770189164669],[21.47593325063166,65.67709112423805]]],[[[21.4778041543211,65.6770843552317],[21.47780138260196,65.67699529306229],[21.477773745572666,65.67710385515473],[21.4778041543211,65.6770843552317]]],[[[21.475078979999996,65.67728213],[21.475692360597048,65.6772018327124],[21.4750789866279,65.6772821198077],[21.474836694090303,65.6772744951919],[21.474421475912592,65.67727428008028],[21.47416927326127,65.67731847133543],[21.47442154,65.67727432],[21.475078979999996,65.67728213]]],[[[21.471656647336594,65.67740165550708],[21.47165656,65.67740165],[21.471997409999993,65.67754016999999],[21.47235537774072,65.67765985920587],[21.471656647336594,65.67740165550708]]],[[[21.47814382602309,65.67736532975789],[21.47771715,65.67725915],[21.47788192,65.67730617],[21.47814382602309,65.67736532975789]]],[[[21.473035925569356,65.67757870130559],[21.473806639489702,65.6774356562705],[21.4733467483378,65.6775183703936],[21.473035925569356,65.67757870130559]]],[[[21.4784376014335,65.6775164037152],[21.47831595,65.67746763],[21.47843756,65.67751640999998],[21.478541757900526,65.67759802091844],[21.4784376014335,65.6775164037152]]],[[[21.47919345,65.67808725999998],[21.479040859026057,65.67880097961623],[21.47869456189702,65.67770158196232],[21.47919345,65.67808725999998]]],[[[21.478856708143287,65.67908044371258],[21.478551599024396,65.67926726291081],[21.478779544295797,65.6791314404041],[21.478856708143287,65.67908044371258]]],[[[21.4778334501579,65.6797122141867],[21.4778334,65.67971219],[21.47694480710493,65.68034483016704],[21.4778334501579,65.6797122141867]]],[[[21.476318743527102,65.68079812503238],[21.47606118,65.68100363],[21.475861878448047,65.68117960613316],[21.4760612972461,65.681003655037],[21.476318743527102,65.68079812503238]]],[[[21.474740482327796,65.6820056138444],[21.474740429999997,65.68200564],[21.47460728917103,65.68211111562829],[21.474740482327796,65.6820056138444]]],[[[21.474376288588896,65.68238136466698],[21.47437623,65.6823814],[21.47419829,65.68254204],[21.47417056609104,65.68258373224347],[21.474376288588896,65.68238136466698]]],[[[21.4738809610252,65.6828437592543],[21.47388091,65.68284374000001],[21.473484718467017,65.68298940509126],[21.4738809610252,65.6828437592543]]],[[[21.472964938330495,65.6831981049733],[21.47296489,65.68319808],[21.47281837159544,65.68338071646774],[21.472964938330495,65.6831981049733]]],[[[21.472359195019795,65.6836562164038],[21.472359079999997,65.68365619999999],[21.472245823778167,65.68368597113788],[21.472359195019795,65.6836562164038]]],[[[21.472064680903628,65.68375874512053],[21.471133009999992,65.68416786999998],[21.470999669999998,65.68424562],[21.470834593501568,65.68428894673441],[21.472064680903628,65.68375874512053]]],[[[21.4705076068259,65.68437476820847],[21.4705076,65.68437477],[21.470495810565634,65.68438131574551],[21.4705076068259,65.68437476820847]]],[[[21.47028418979807,65.6845084465584],[21.470067220000004,65.68470873],[21.469988248731934,65.6847488088724],[21.47028418979807,65.6845084465584]]],[[[21.458721539010977,65.68975966891502],[21.458263149999993,65.68969284],[21.4388523599546,65.68681489726667],[21.458263200701392,65.68969285192318],[21.458721539010977,65.68975966891502]]],[[[21.514363669999998,65.70394607999998],[21.514358538071903,65.7037481366855],[21.514363593909497,65.7039460622784],[21.514355752152696,65.70418055603889],[21.513894997941588,65.70451332755677],[21.514355809999994,65.70418054999999],[21.514363669999998,65.70394607999998]]],[[[21.515017890331805,65.70349550814444],[21.514646539999998,65.70438457],[21.513617801347436,65.70475940814347],[21.514646633268605,65.7043845733819],[21.515017890331805,65.70349550814444]]],[[[21.512909501085304,65.7047902482137],[21.51249286768966,65.704924201531],[21.51370428210654,65.70457459085958],[21.512909501085304,65.7047902482137]]],[[[21.512139914817396,65.70512854415058],[21.512028614739954,65.70525607931101],[21.51231145745176,65.70500331482353],[21.512139914817396,65.70512854415058]]],[[[21.512549031727403,65.7051024869651],[21.512642852700132,65.70506749442094],[21.51244505958941,65.70517650858618],[21.512549031727403,65.7051024869651]]],[[[21.5117284809553,65.70548381829119],[21.511728487849812,65.70548381999834],[21.511767269560014,65.7054595040067],[21.5117284809553,65.70548381829119]]],[[[21.512039469093597,65.7055608222587],[21.512070693601718,65.70552176112143],[21.512039449977376,65.70556081752535],[21.512039469093597,65.7055608222587]]],[[[21.504504969999996,65.58412465],[21.530180172377904,65.57210266900992],[21.501895644136592,65.5853787179516],[21.504504969999996,65.58412465]]],[[[21.513903279316832,65.68837497641762],[21.512949916795936,65.68908849497603],[21.512949977589198,65.68908854577039],[21.513903279316832,65.68837497641762]]],[[[21.51728400566186,65.69058137626831],[21.5302706470489,65.6990800899318],[21.529074233313032,65.6993252371761],[21.53017072,65.69912825],[21.5302707,65.69908008],[21.51728400566186,65.69058137626831]]],[[[21.524861784196297,65.69955937534068],[21.524310977568724,65.69950512670741],[21.52495810563711,65.69963347434285],[21.524861784196297,65.69955937534068]]],[[[21.523241597088905,65.6996473029694],[21.523241610000003,65.69964735],[21.523885802164507,65.69955394285255],[21.523241597088905,65.6996473029694]]],[[[21.527910329999997,65.69940764],[21.529073171980126,65.69932532334414],[21.527442192892163,65.69970134743254],[21.527910329999997,65.69940764]]],[[[21.522543257853517,65.69982413406248],[21.520664139411164,65.70001013150066],[21.52066405,65.70001016],[21.52236949,65.69988209000002],[21.522543257853517,65.69982413406248]]],[[[21.525926805489352,65.69970685089669],[21.52666645,65.69975738],[21.527439270000002,65.69977958],[21.52744198789344,65.69970676466093],[21.525926805489352,65.69970685089669]]],[[[21.519312095713165,65.70081801662752],[21.51996154,65.70013832],[21.5207172676345,65.6999931412233],[21.5199615503057,65.7001383056547],[21.5193722410434,65.7005354622278],[21.519194221562596,65.70074792121218],[21.519312095713165,65.70081801662752]]],[[[21.5205405943292,65.70059690357532],[21.52054062,65.70059688],[21.520428363851487,65.70061737970047],[21.5205405943292,65.70059690357532]]],[[[21.51989713,65.7008872],[21.519897168040902,65.7008872118129],[21.51997041811539,65.70079524289176],[21.51989713,65.7008872]]],[[[21.519366410000003,65.70085032999998],[21.5192565270631,65.70108494832671],[21.51919110639668,65.70113585548083],[21.51925655,65.70108495000001],[21.519366410000003,65.70085032999998]]],[[[21.523259349999996,65.70038125999999],[21.522562337310156,65.70044409813289],[21.5232593822156,65.7003812874747],[21.526979493725353,65.70247710007818],[21.523259349999996,65.70038125999999]]],[[[21.5182200447176,65.70193146897333],[21.518464609999995,65.70177558],[21.518546418538318,65.70169621928933],[21.518464630463,65.7017755279461],[21.5182200447176,65.70193146897333]]],[[[21.519766633889823,65.70096358260189],[21.51841792,65.70202964999999],[21.517752360000003,65.70234567],[21.51726835,65.70260002000002],[21.517098528992033,65.70269164421215],[21.5184179602416,65.7020296741536],[21.5190160699845,65.7016173949584],[21.519766633889823,65.70096358260189]]],[[[21.5174922567029,65.7022664554525],[21.517492279999995,65.70226646],[21.517726957316984,65.70216776300433],[21.5174922567029,65.7022664554525]]],[[[21.516407259999994,65.70274406999998],[21.516541188995102,65.7026663918506],[21.5164072609151,65.7027440401171],[21.5159768534483,65.7028610558781],[21.515904448877055,65.70289760548674],[21.516407259999994,65.70274406999998]]],[[[21.5147688416504,65.7034608324143],[21.514768839999995,65.70346087999998],[21.515097619999995,65.70337508],[21.51512364980413,65.70336412872483],[21.5147688416504,65.7034608324143]]],[[[21.56481073122447,65.70601479105542],[21.564810742182097,65.70601478495999],[21.564830010878204,65.70600309366351],[21.56481073122447,65.70601479105542]]],[[[21.564416107659138,65.7062343072449],[21.564713476028807,65.70606889137551],[21.56441613,65.70623429],[21.564416107659138,65.7062343072449]]],[[[21.564248985215933,65.7063633082415],[21.56397845,65.70657213],[21.563897189497155,65.70664657365705],[21.563978483066396,65.7065721158048],[21.564248985215933,65.7063633082415]]],[[[21.563413892984503,65.707273619576],[21.5634138,65.70727366],[21.56357519857934,65.70739616201911],[21.563413892984503,65.707273619576]]],[[[21.56368543,65.70755256999999],[21.563700855444882,65.70763296625913],[21.56362663157159,65.7074443225393],[21.56368543,65.70755256999999]]],[[[21.563655092372997,65.70772011217008],[21.563655029999996,65.70772010999998],[21.563616986974722,65.70792441442775],[21.563655092372997,65.70772011217008]]],[[[21.562924972324357,65.70888214538601],[21.5633096176952,65.7086704638775],[21.5635124569282,65.70847511813771],[21.5635748479658,65.70823036565771],[21.56360636782645,65.70799050608036],[21.562924972324357,65.70888214538601]]],[[[21.562676609999997,65.70901457000001],[21.562399686158056,65.70905049012154],[21.562733457801993,65.70898720203607],[21.562676609999997,65.70901457000001]]],[[[21.557762701000797,65.7092362497797],[21.557762609999997,65.70923624999999],[21.557657109675713,65.70925462983007],[21.557762701000797,65.7092362497797]]],[[[21.562228788110893,65.70905601369603],[21.56170528,65.70907291],[21.56150112104547,65.70910519082435],[21.561705309644204,65.7090729317722],[21.562228788110893,65.70905601369603]]],[[[21.560325476776697,65.7092793318763],[21.56032546,65.70927933],[21.56032084735878,65.70927894544234],[21.560325476776697,65.7092793318763]]],[[[21.5558881078189,65.7097103107495],[21.55633192236266,65.7096330381018],[21.555824703616498,65.7097076490478],[21.5558881078189,65.7097103107495]]],[[[21.554226233491544,65.71034480613558],[21.55440103,65.71027075],[21.55423937,65.7103389],[21.554226233491544,65.71034480613558]]],[[[21.553865962144105,65.71052355081807],[21.553544539999994,65.71070291999999],[21.553429817280584,65.71072965180674],[21.553865962144105,65.71052355081807]]],[[[21.552822070910892,65.71080713971794],[21.55282207,65.71080714],[21.552820474529362,65.71080914666992],[21.552822070910892,65.71080713971794]]],[[[21.552814906041505,65.7111130221061],[21.552741541091333,65.71093600621842],[21.552909426631782,65.71126508510079],[21.552814906041505,65.7111130221061]]],[[[21.5528966850251,65.7115418993109],[21.552910653462185,65.71147046617057],[21.55289668135223,65.71154190195915],[21.5528966850251,65.7115418993109]]],[[[21.544091092284795,65.7126414625608],[21.54409113,65.71264146],[21.54478513,65.7125023],[21.544091092284795,65.7126414625608]]],[[[21.55125167,65.71230513999998],[21.55072777378736,65.71242095368858],[21.55138443336342,65.7122570619798],[21.55125167,65.71230513999998]]],[[[21.550333553698483,65.71246489253413],[21.5502673,65.71252567999998],[21.55025999880076,65.71254376696132],[21.550333553698483,65.71246489253413]]],[[[21.542856192583937,65.71335736103667],[21.54312464,65.71318497],[21.54332461995073,65.71308862586282],[21.542856192583937,65.71335736103667]]],[[[21.547454419706696,65.71311979032279],[21.547608239688618,65.71308826261962],[21.5461323003132,65.71342572940566],[21.547454419706696,65.71311979032279]]],[[[21.543660091789302,65.71400384501351],[21.54461903227235,65.71377718866015],[21.54326375593936,65.71409895389155],[21.543660091789302,65.71400384501351]]],[[[21.53922369404971,65.71448798276624],[21.54097891,65.71407201],[21.54245995967693,65.71373303661413],[21.5401812693935,65.7142414318807],[21.53922369404971,65.71448798276624]]],[[[21.539424288813805,65.7146150453851],[21.53942427,65.71461504],[21.53913881743351,65.7146511929728],[21.539424288813805,65.7146150453851]]],[[[21.538872152926835,65.71460879814376],[21.5371569611274,65.7148374034708],[21.536953848167258,65.71490071956504],[21.538872152926835,65.71460879814376]]],[[[21.536278770689126,65.71567294084893],[21.536369597663995,65.71534641458248],[21.536826640225286,65.71509453866808],[21.536369549999996,65.71534643],[21.536278770689126,65.71567294084893]]],[[[21.53643945767234,65.71510941974616],[21.5360429291188,65.71564057230482],[21.536166255733704,65.71576573959975],[21.53643945767234,65.71510941974616]]],[[[21.536085270314327,65.71632067191187],[21.5363357698649,65.71574305733542],[21.536288240846094,65.71568460732642],[21.536085270314327,65.71632067191187]]],[[[21.5354115009211,65.7163604831023],[21.535108363511053,65.7165579775875],[21.53603506146059,65.71631639132806],[21.5354115009211,65.7163604831023]]],[[[21.53582693203685,65.71638154410266],[21.535722019999998,65.71653589],[21.535732142704664,65.71665536393273],[21.53582693203685,65.71638154410266]]],[[[21.5285851555493,65.71715922537689],[21.528585160000002,65.71715924],[21.529193420999878,65.71705276157552],[21.5285851555493,65.71715922537689]]],[[[21.535815126136104,65.7169104956328],[21.535776015227896,65.71682349124927],[21.535783132368884,65.71699588935452],[21.535815126136104,65.7169104956328]]],[[[21.531985809433,65.7171071716773],[21.531301591686002,65.71717179453921],[21.5299125269204,65.71704073105609],[21.52921077189925,65.717052471338],[21.53130154,65.71717183],[21.53198574,65.71710721],[21.532469798588377,65.71720349788443],[21.531985809433,65.7171071716773]]],[[[21.535602206740997,65.71716905184108],[21.53564998423363,65.71713702923206],[21.53557504012005,65.7171785360663],[21.535602206740997,65.71716905184108]]],[[[21.53480735,65.71736747],[21.535343539999996,65.71714693999999],[21.535407189021324,65.71701564382512],[21.535343539623604,65.71714690495881],[21.53480735,65.71736747]]],[[[21.532916085298897,65.7173294622936],[21.53291611,65.71732948],[21.53317719112717,65.71733794018544],[21.532916085298897,65.7173294622936]]],[[[21.533401340496592,65.71734521776939],[21.53372653,65.71742167],[21.533726607747422,65.71742167117603],[21.533401340496592,65.71734521776939]]],[[[21.532817603604258,65.71738716948425],[21.5345026498382,65.7174740860935],[21.534568687218297,65.71746310789372],[21.532817603604258,65.71738716948425]]],[[[21.534904883833196,65.7174072172423],[21.535045391731323,65.71736042095775],[21.53490481296484,65.71740722902383],[21.534904883833196,65.7174072172423]]],[[[21.5277943284596,65.7174652397687],[21.5259091274321,65.7180185513329],[21.5241088871725,65.7179946513131],[21.523232261985896,65.71816634995758],[21.521586824287304,65.7189465378717],[21.520885177375398,65.71956122924028],[21.51798477680749,65.72022260684409],[21.5135557852106,65.72189692742522],[21.5210012337992,65.7196422847861],[21.5233807929319,65.718253516094],[21.5260591189458,65.71809572262879],[21.5277943284596,65.7174652397687]]],[[[21.79738929236068,65.46259425132047],[21.775372949474104,65.4686059756655],[21.740510302576997,65.4781624244735],[21.73499868633887,65.47968926408188],[21.79738929236068,65.46259425132047]]],[[[21.734500089379296,65.47982736795579],[21.732789550280973,65.48059784590643],[21.734500097062348,65.47982736582773],[21.734500089379296,65.47982736795579]]],[[[21.700641072825984,65.4950666112632],[21.7006410660238,65.4950666143222],[21.70120778211966,65.49508016154117],[21.700641072825984,65.4950666112632]]],[[[21.706055271199876,65.49519597978988],[21.706156401811594,65.49524601664561],[21.70605528,65.49519598],[21.706055271199876,65.49519597978988]]],[[[21.70672119,65.49719404],[21.701115315187,65.4978391591672],[21.697619657707335,65.49681555110573],[21.70111522,65.49783920999998],[21.70672119,65.49719404]]],[[[21.697079318894,65.4966573130568],[21.685994292509072,65.50157264455758],[21.697079333478502,65.49665731732793],[21.697079318894,65.4966573130568]]],[[[21.68603247957165,65.5019193585867],[21.685142609687098,65.5023131892701],[21.68426047152914,65.50234319825014],[21.685142609999996,65.50231324],[21.68603247957165,65.5019193585867]]],[[[21.6727462692944,65.50745750230858],[21.671215046169596,65.508147147818],[21.68104912079019,65.50376988085523],[21.6727462692944,65.50745750230858]]],[[[21.65736626,65.51435865],[21.666622661494536,65.51020878168718],[21.655393894413933,65.51523158675994],[21.65736626,65.51435865]]],[[[21.65175401,65.51687417],[21.65266625,65.51645358],[21.65377306297262,65.51595359044013],[21.652666204105103,65.5164535788262],[21.6517539821762,65.5168741639827],[21.65049978364794,65.51743623962267],[21.65175401,65.51687417]]],[[[21.641804066137723,65.52130978755154],[21.64430405,65.52018407],[21.64575716,65.51952539],[21.646653266654727,65.51913487178055],[21.641804066137723,65.52130978755154]]],[[[21.554252076918857,65.56082771526154],[21.563362910000002,65.55656326],[21.623585289588565,65.52951010938537],[21.554252076918857,65.56082771526154]]],[[[21.548018799999998,65.56376402],[21.54983606113696,65.56289264980688],[21.539854057461795,65.56757855549951],[21.548018799999998,65.56376402]]],[[[21.63106284476911,65.67254336443065],[21.646208231548965,65.66836220994486],[21.646208180000002,65.66836220000002],[21.63106284476911,65.67254336443065]]],[[[21.667460557294064,65.67243280433043],[21.66300918,65.67156783],[21.656323580503646,65.67031172827362],[21.663009129428197,65.67156783514609],[21.667460557294064,65.67243280433043]]],[[[21.59488793664807,65.68409247690315],[21.586618226848106,65.69202933870172],[21.587470875241902,65.69125112611441],[21.59488793664807,65.68409247690315]]],[[[21.74719195019595,65.68679811592465],[21.747191920000002,65.68679811000001],[21.746651520271133,65.6871811542151],[21.74719195019595,65.68679811592465]]],[[[21.57978526411104,65.69677971151273],[21.57934586,65.69692737],[21.579285726632403,65.69694847191118],[21.579345896519797,65.6969273682653],[21.57978526411104,65.69677971151273]]],[[[21.577054430962296,65.6989296083141],[21.577018715673873,65.69867361590394],[21.577032282494194,65.69905958439226],[21.577054430962296,65.6989296083141]]],[[[21.575414505312494,65.69902772240619],[21.575414540000004,65.69902769],[21.57523812820514,65.69905308478938],[21.575414505312494,65.69902772240619]]],[[[21.573000548791498,65.69919143543129],[21.573000579999995,65.69919144],[21.572981391437775,65.69917528582738],[21.573000548791498,65.69919143543129]]],[[[21.571430659200598,65.69930964309339],[21.571776161718528,65.69924943466648],[21.571050004766622,65.6994380936663],[21.571430659200598,65.69930964309339]]],[[[21.57379599137385,65.69926506876224],[21.573349820000004,65.69930138],[21.5731854136321,65.69927048779721],[21.57379599137385,65.69926506876224]]],[[[21.57686039,65.69916962],[21.576860361019698,65.69916964609749],[21.577023623303862,65.69911039968527],[21.57686039,65.69916962]]],[[[21.5765165048922,65.69916592318616],[21.5766000680029,65.6991780850506],[21.576600090883247,65.69917808430883],[21.5765165048922,65.69916592318616]]],[[[21.5704578322949,65.6997007530041],[21.57076686860553,65.69955773575214],[21.570210876280235,65.69980607915952],[21.5704578322949,65.6997007530041]]],[[[21.569901410000003,65.70067177],[21.569630343052005,65.70050969329871],[21.569671208602983,65.7000770141082],[21.56963034,65.7005097],[21.569901410000003,65.70067177]]],[[[21.570258787426205,65.7007141050944],[21.57025869,65.70071416],[21.570335144862835,65.70089351788148],[21.570258787426205,65.7007141050944]]],[[[21.570393921169302,65.7010783254206],[21.570393879999997,65.70107833],[21.570364911712083,65.70114125665636],[21.570393921169302,65.7010783254206]]],[[[21.569946100000003,65.70134834],[21.570120316713215,65.70154719483428],[21.570201445352712,65.70124047815388],[21.569946100000003,65.70134834]]],[[[21.570123929122424,65.70160406048306],[21.56998715,65.70191857],[21.569830875960154,65.70202691223568],[21.570123929122424,65.70160406048306]]],[[[21.569474336457702,65.7022048997845],[21.569474249999995,65.70220489999998],[21.569406543244472,65.70222836099819],[21.569474336457702,65.7022048997845]]],[[[21.568793121933,65.70252363164958],[21.5690509214042,65.70238957003862],[21.568703294523154,65.70255273196688],[21.568793121933,65.70252363164958]]],[[[21.568119870000004,65.70277015],[21.568013228924862,65.70283943854574],[21.568349331339963,65.7026779695911],[21.568119870000004,65.70277015]]],[[[21.567540585195236,65.70370349855494],[21.56762420019,65.7031458175155],[21.567732174841105,65.70302546643276],[21.56762411,65.70314583],[21.567540585195236,65.70370349855494]]],[[[21.567559150979513,65.70406147226815],[21.567557320000002,65.70428074],[21.56736679714824,65.70444113381909],[21.567557414132796,65.7042807458505],[21.567559150979513,65.70406147226815]]],[[[21.5665002690997,65.7049172908243],[21.56716660426403,65.70456402889097],[21.56545291138251,65.7056149066199],[21.5665002690997,65.7049172908243]]],[[[21.797720074058898,65.6967174436637],[21.798547754741318,65.69687869693826],[21.794552282152253,65.69609027219926],[21.797720074058898,65.6967174436637]]],[[[21.79905198601273,65.69759736412439],[21.800093840000002,65.6971799],[21.800093774053206,65.69717988719657],[21.79905198601273,65.69759736412439]]],[[[21.791614020334784,65.70452639651991],[21.793253570000005,65.70288872],[21.795093265945464,65.70100630489208],[21.7932535389389,65.7028887059406],[21.791614020334784,65.70452639651991]]],[[[21.7845031491445,65.7115361020494],[21.784513769257607,65.71153922264497],[21.789682301583287,65.70643674049427],[21.7845031491445,65.7115361020494]]],[[[21.7894312956748,65.7129840175618],[21.790781790478228,65.71290741192819],[21.78943125861871,65.71298400667573],[21.7894312956748,65.7129840175618]]],[[[21.799288810000004,65.71319748],[21.79783245196347,65.71261431214137],[21.81138534518709,65.71849242486029],[21.799288810000004,65.71319748]]],[[[21.8264758220539,65.72513110247101],[21.829021219226608,65.72624057947387],[21.82461203388958,65.72431982333318],[21.8264758220539,65.72513110247101]]],[[[21.876601991846844,65.74068318375718],[21.87426725,65.74012877],[21.87101434378966,65.73936265892942],[21.874267217884498,65.7401287718267],[21.876601991846844,65.74068318375718]]],[[[21.889326042364598,65.7827794387792],[21.889315223522892,65.78297173357018],[21.889326058427258,65.78277943791284],[21.889326042364598,65.7827794387792]]],[[[21.847274037560098,65.8908069821047],[21.8451403786534,65.8907090369999],[21.845237731905595,65.891344196449],[21.846843530175,65.8914889233813],[21.847274037560098,65.8908069821047]]],[[[21.868845985511,65.960964207228],[21.867867089999997,65.96229589999999],[21.868846009999995,65.96096417999999],[21.867517733542456,65.96078773907928],[21.868845985511,65.960964207228]]],[[[21.866389008588516,65.96360918629938],[21.8644403981776,65.96335229908789],[21.864440361130477,65.96335234542151],[21.866389008588516,65.96360918629938]]],[[[21.86670015299479,65.96365019380497],[21.866700199999997,65.96365019999999],[21.866988654957517,65.96332596469347],[21.86670015299479,65.96365019380497]]],[[[21.863862569999995,65.96407495],[21.8638625956755,65.9640749165223],[21.863026135053406,65.9639638233286],[21.863862569999995,65.96407495]]],[[[21.852746030909024,65.97670903403636],[21.851289627612,65.9785136256998],[21.85128962897131,65.97851362888467],[21.852746030909024,65.97670903403636]]],[[[21.87294407154069,65.99068561869325],[21.85617754,65.98996046],[21.85330110719909,65.98322560292762],[21.8561775293252,65.9899604809214],[21.866770087410995,65.9904211177144],[21.87294407154069,65.99068561869325]]],[[[21.904183731048686,65.9979339974936],[21.891141593217995,66.001701588855],[21.891141631574804,66.0017016340875],[21.904183731048686,65.9979339974936]]],[[[21.908927739432745,66.00115105156614],[21.921624970172303,66.0158586429187],[21.9218927996319,66.0161617267841],[21.928222377164225,66.02361526827515],[21.908927739432745,66.00115105156614]]],[[[21.9348556813067,66.0315808005446],[21.93485574,66.03158081999999],[21.934594757787846,66.03127628863705],[21.9348556813067,66.0315808005446]]],[[[21.93495834381163,66.03170138647788],[21.93810615038,66.0353622468007],[21.9396855136572,66.0371831926609],[21.9397789769298,66.0373050184822],[21.940955760849036,66.03789650127558],[21.939779029999997,66.03730503],[21.939685559999994,66.03718323999998],[21.93495834381163,66.03170138647788]]],[[[21.9571738804621,66.0459963383964],[21.9572567031296,66.04603616311505],[21.956216038270206,66.04551807438175],[21.9571738804621,66.0459963383964]]],[[[21.977829529293,66.1604656431384],[21.982638974030113,66.15833956862268],[21.977829529999998,66.16046561999998],[21.96959570199592,66.15492002016411],[21.977829529293,66.1604656431384]]],[[[21.866882707448127,65.42873248667568],[21.86736575999999,65.42842522999999],[21.869815400000004,65.42683251000001],[21.87005978096713,65.42668165399267],[21.869815348799296,65.426832531017],[21.866882707448127,65.42873248667568]]],[[[21.8553398882519,65.4361021634633],[21.85672713,65.43523126],[21.857279498066834,65.4348779156471],[21.8553398882519,65.4361021634633]]],[[[21.838702888498347,65.44670918016045],[21.839439829999996,65.44624362],[21.84016576225259,65.44577511947466],[21.8394397795837,65.4462435769873],[21.838702888498347,65.44670918016045]]],[[[21.8365192059251,65.44810139421918],[21.835066475119017,65.44903268460357],[21.8373731999296,65.44755575561977],[21.8365192059251,65.44810139421918]]],[[[21.832143546915326,65.4508982170503],[21.830394823010998,65.4519794234787],[21.827119887130504,65.45410345913008],[21.832143546915326,65.4508982170503]]],[[[21.818332705422797,65.4568653468732],[21.81340112529195,65.45821697719457],[21.823737516652663,65.45539399379034],[21.818332705422797,65.4568653468732]]],[[[21.92578473524398,65.75525070359008],[21.9285764,65.75291972],[21.9285763239357,65.75291970213718],[21.92578473524398,65.75525070359008]]],[[[21.918572253305413,65.76126457281721],[21.921226249999993,65.75904904999999],[21.921468334284206,65.75884937360922],[21.9212262180414,65.7590490180488],[21.918572253305413,65.76126457281721]]],[[[21.914473046472096,65.76469883783838],[21.913740502618104,65.76530873387892],[21.915126745336966,65.76414319542162],[21.914473046472096,65.76469883783838]]],[[[21.895626910000004,65.78026422],[21.896670355341325,65.77936977399361],[21.89540542487412,65.78044244142258],[21.895626910000004,65.78026422]]],[[[21.8943996083288,65.7812695960636],[21.894331678821345,65.78132328522715],[21.894883794964297,65.78087035072208],[21.8943996083288,65.7812695960636]]],[[[21.89149361868705,65.78266251124278],[21.89276703,65.78259381999999],[21.892782544860538,65.78258117996918],[21.8927670500667,65.78259380256839],[21.89149361868705,65.78266251124278]]],[[[21.91103667602571,65.80510904837514],[21.91180046,65.80500427],[21.911800320439873,65.80500424228218],[21.91103667602571,65.80510904837514]]],[[[21.9105345963608,65.8052170899573],[21.910375132491573,65.80524041621196],[21.910601905585853,65.80519714004913],[21.9105345963608,65.8052170899573]]],[[[21.910167195661398,65.80524084119858],[21.910122882112752,65.80542262365108],[21.91036494935382,65.80524190546976],[21.910167195661398,65.80524084119858]]],[[[21.90925170511809,65.80558503475636],[21.90982487,65.80546164],[21.90989809577679,65.80545205319754],[21.90925170511809,65.80558503475636]]],[[[21.907911447387633,65.80602007520551],[21.90849299,65.80585716999998],[21.90860508982244,65.80580781712263],[21.9084930308746,65.8058571291069],[21.907911447387633,65.80602007520551]]],[[[21.911631514460296,65.806316247801],[21.911804511378314,65.80633875667607],[21.91163149158641,65.80631622150909],[21.911631514460296,65.806316247801]]],[[[21.914231624625238,65.80671051068929],[21.915047887197698,65.80637705288109],[21.91603686493803,65.80583326282473],[21.914231624625238,65.80671051068929]]],[[[21.905744229629107,65.80671675129565],[21.90506227,65.80702097000001],[21.90551072999999,65.80687696999999],[21.905744229629107,65.80671675129565]]],[[[21.903998355673195,65.80725266151558],[21.903898125535704,65.80727098187221],[21.904047437133592,65.80721495805625],[21.903998355673195,65.80725266151558]]],[[[21.9033027107574,65.8072805584414],[21.903003949058714,65.80734561844054],[21.903457324364464,65.8072625078949],[21.9033027107574,65.8072805584414]]],[[[21.902856266218226,65.80739309215744],[21.9023205555409,65.8076710041324],[21.90212708001313,65.80769767672432],[21.902320539999998,65.80767105],[21.902560089999998,65.80757141999999],[21.902856266218226,65.80739309215744]]],[[[21.901863570158802,65.8077793446921],[21.901863587713482,65.80777935144367],[21.90192835408338,65.80775416299737],[21.901863570158802,65.8077793446921]]],[[[21.9390227442293,65.8101773576112],[21.944328547204915,65.81118464463809],[21.932358139339083,65.80891830980727],[21.9390227442293,65.8101773576112]]],[[[21.9701276231376,65.81943639237859],[21.97012766,65.81943644],[21.970763654953704,65.8194476493337],[21.9701276231376,65.81943639237859]]],[[[21.97046733147245,65.81986416748292],[21.97046734,65.81986414999999],[21.970090823867327,65.8198136617917],[21.97046733147245,65.81986416748292]]],[[[21.969923001475927,65.82076241644114],[21.969968649999995,65.82055834999998],[21.970102409999996,65.82047218],[21.97010868646828,65.8204573507857],[21.969968605355096,65.8205583098957],[21.969923001475927,65.82076241644114]]],[[[21.96825442598792,65.8213270652794],[21.969061879999998,65.82119620999998],[21.96975788825829,65.8211693218439],[21.9690618387482,65.8211961922974],[21.96825442598792,65.8213270652794]]],[[[21.966669627160197,65.82186442066407],[21.966669660000004,65.82186447],[21.967037403218736,65.8217420070461],[21.966669627160197,65.82186442066407]]],[[[21.964140765741895,65.8220339890552],[21.96433645,65.82202645],[21.964447078320966,65.82207871911393],[21.964336547741805,65.8220264407587],[21.964140765741895,65.8220339890552]]],[[[21.964630359081017,65.822159053334],[21.964522583576382,65.82211208933728],[21.96463032,65.82215905],[21.964630359081017,65.822159053334]]],[[[21.96592960234561,65.822048426664],[21.96492138,65.82218388],[21.96560522,65.8221035],[21.96592960234561,65.822048426664]]],[[[21.98159789062593,65.81852195301792],[21.96225288,65.82575999999999],[21.961323873227684,65.82609288431324],[21.962252997572104,65.8257600243287],[21.98159789062593,65.81852195301792]]],[[[21.961612953437495,65.82335522666708],[21.96161291,65.82335527],[21.961898568075245,65.82322134384434],[21.961612953437495,65.82335522666708]]],[[[21.960747096037096,65.823694539743],[21.960543614416594,65.82373596965209],[21.960794625669905,65.82368046669924],[21.960747096037096,65.823694539743]]],[[[21.958491622551197,65.8241953962355],[21.958491629999997,65.82419541999998],[21.95900967042715,65.82407140852615],[21.958491622551197,65.8241953962355]]],[[[21.956919453962197,65.82480485305888],[21.956919457648038,65.82480485440982],[21.956989763719946,65.82475706581396],[21.956919453962197,65.82480485305888]]],[[[22.001827044534497,65.9232896655491],[22.001818613125543,65.92331563259464],[22.001868991696664,65.92326814012738],[22.001827044534497,65.9232896655491]]],[[[22.0017819705723,65.92344505032791],[22.001782019999993,65.92344509],[22.001789237724886,65.92341701505067],[22.0017819705723,65.92344505032791]]],[[[22.00059629649453,65.92401478449686],[22.000888919999994,65.92396441],[22.001095319879852,65.92397148351006],[22.00059629649453,65.92401478449686]]],[[[22.001770254667125,65.92391594642704],[22.00129355,65.92399069],[22.00151406,65.92398951],[22.001770254667125,65.92391594642704]]],[[[22.000082957944837,65.9240828950268],[22.000037893607555,65.92408498388127],[22.00008292,65.92408289999999],[22.000082957944837,65.9240828950268]]],[[[21.9996787954279,65.9241376999014],[21.99957688790722,65.92416477997526],[21.999788096946375,65.92411548098141],[21.9996787954279,65.9241376999014]]],[[[21.998982869331503,65.9244134333109],[21.99898285,65.92441344],[21.99927951958387,65.92434777991892],[21.998982869331503,65.9244134333109]]],[[[21.868348054165864,65.95730219144664],[21.877575150000002,65.95551483],[21.942066420000003,65.94758454],[21.96620495,65.94469245],[21.968221539999995,65.94443638],[21.99849246,65.92463458],[21.998627619999997,65.92456519999999],[21.99873721941475,65.92449184491468],[21.9984924555346,65.92463453759049],[21.968221552283797,65.9444363580554],[21.9420664756904,65.9475845317394],[21.877575256392,65.9555147827794],[21.868348054165864,65.95730219144664]]],[[[21.9962196438706,66.058397258052],[22.009829103613544,66.06010845486026],[21.995431692268646,66.05829963616522],[21.9962196438706,66.058397258052]]],[[[22.00945430194468,66.0703553044519],[22.013629429999998,66.06058603999999],[22.013629368076185,66.06058603221896],[22.00945430194468,66.0703553044519]]],[[[22.03590940829041,66.07111969738561],[22.03626338,66.07013389],[22.036263370815625,66.07013389101118],[22.03590940829041,66.07111969738561]]],[[[22.031109893912433,66.08465815940146],[22.03160892354198,66.08326956618149],[22.031109857638803,66.084658157566],[22.031109893912433,66.08465815940146]]],[[[22.023158573970804,66.1084767489971],[22.022923205900987,66.10940395314722],[22.023158587551308,66.1084767496461],[22.023158573970804,66.1084767489971]]],[[[22.019074352668277,66.12290324776953],[22.019765139999997,66.12223486999999],[22.019765143928655,66.12223485346269],[22.019074352668277,66.12290324776953]]],[[[21.9896575247406,66.1499909292725],[21.984416396113193,66.1512123112605],[21.989657579999992,66.14999092999997],[21.995639256461462,66.14458410469965],[21.9896575247406,66.1499909292725]]],[[[22.018303224770207,66.15716524499713],[22.018620398396045,66.15718457978227],[22.018620390000002,66.15718456000002],[22.018303224770207,66.15716524499713]]],[[[22.02494972330406,66.17387386196746],[22.0245274758744,66.1740364058636],[22.024527520870947,66.17403641731313],[22.02494972330406,66.17387386196746]]],[[[22.031560542394896,66.20273806971629],[22.061481749999995,66.18343156999998],[22.06148171769363,66.18343156179355],[22.031560542394896,66.20273806971629]]],[[[22.028190116289668,66.23129294075815],[22.032294470000004,66.20918956],[22.031901109610292,66.20573250829823],[22.032294415898,66.2091895612814],[22.028190116289668,66.23129294075815]]],[[[22.064257672773497,66.26793824771369],[22.082437419999998,66.25470118],[22.02653332626734,66.24008087687837],[22.082437394802795,66.25470118485988],[22.064257672773497,66.26793824771369]]],[[[22.066735648298344,66.2684619363763],[22.069024407766,66.2668729694828],[22.07190931828448,66.26747863057487],[22.069027829999996,66.26686607999999],[22.066735648298344,66.2684619363763]]],[[[21.91506414313413,65.39813730325898],[21.913460659818398,65.39911249976579],[21.91128376147982,65.40050375259662],[21.91346073,65.39911255],[21.91506414313413,65.39813730325898]]],[[[21.899580473996366,65.40797064873911],[21.90478228,65.40466283],[21.907962041810226,65.40263213399011],[21.904782216930798,65.40466280329379],[21.899580473996366,65.40797064873911]]],[[[21.896735611459526,65.40976851987776],[21.89756355,65.40927194],[21.897626005862445,65.40922444633944],[21.896735611459526,65.40976851987776]]],[[[21.896177249983197,65.41091905670498],[21.8947113936792,65.41103211407068],[21.892994596285067,65.412117294492],[21.89471145,65.41103212],[21.8961773,65.41091909],[21.89688054,65.41024188],[21.8967982460686,65.41015060698085],[21.896177249983197,65.41091905670498]]],[[[21.8906586138637,65.4136023053183],[21.890178812433874,65.41391535843474],[21.891244934604345,65.41323202160433],[21.8906586138637,65.4136023053183]]],[[[21.884921968354803,65.41725835949708],[21.877243806836695,65.4221322052418],[21.87609883952457,65.42286071360054],[21.88248008,65.41881698],[21.88426895,65.41768029],[21.884921968354803,65.41725835949708]]],[[[21.97542218085675,65.81698228832592],[21.974461287015288,65.81743798898435],[21.975422299999995,65.81698230999997],[21.97542218085675,65.81698228832592]]],[[[21.987669571818213,65.81927976341359],[21.987669579999995,65.81927974999999],[21.986359509625583,65.81903638571117],[21.987669571818213,65.81927976341359]]],[[[21.9876613487224,65.8199099706605],[21.98766136872137,65.81990997212509],[21.987582974617464,65.81985523595476],[21.9876613487224,65.8199099706605]]],[[[21.98943814280156,65.82152380922962],[21.9894381480026,65.821523831783],[21.98954431676902,65.82160035785806],[21.98943814280156,65.82152380922962]]],[[[21.991080248363804,65.8226479855279],[21.991080259999997,65.82264798],[21.991040150200128,65.82262463397163],[21.991080248363804,65.8226479855279]]],[[[21.99241675443906,65.82345709930942],[21.99217951,65.82322624],[21.992000396865294,65.8231124041927],[21.992179473287294,65.82322626662818],[21.99241675443906,65.82345709930942]]],[[[21.992835373454895,65.82378573195848],[21.993069441069743,65.82391602934888],[21.99264085632332,65.8236408789942],[21.992835373454895,65.82378573195848]]],[[[21.9935465827206,65.8241091015077],[21.99354654,65.82410908],[21.99348006000455,65.82408654383764],[21.9935465827206,65.8241091015077]]],[[[21.9954449235078,65.8244404192926],[21.995444960000004,65.82444042],[21.995389939286927,65.82442777507381],[21.9954449235078,65.8244404192926]]],[[[21.997248957486697,65.8248383585227],[21.997295302989464,65.82485743591252],[21.997143284269402,65.8247912131999],[21.997248957486697,65.8248383585227]]],[[[21.9987109160108,65.8254655178192],[21.99890889345892,65.82555745553046],[21.99850427510062,65.82538306780671],[21.9987109160108,65.8254655178192]]],[[[22.011056287246987,65.82557623865378],[22.00829631,65.82562418000002],[22.007515100000006,65.82566352000003],[22.007150416061382,65.82570939706646],[22.008296335505495,65.8256241849744],[22.009133377370496,65.82563664063099],[22.010138229863497,65.8256155768937],[22.0109867216604,65.8255825831217],[22.011056287246987,65.82557623865378]]],[[[22.01339603505705,65.82540331019669],[22.015800846833596,65.82542231086789],[22.016025385857954,65.82542016309972],[22.01379622,65.82539229],[22.01339603505705,65.82540331019669]]],[[[22.0203361922529,65.8252907391923],[22.020336119999996,65.82529071],[22.019833208750637,65.82525571263815],[22.0203361922529,65.8252907391923]]],[[[22.000102172615957,65.82635636681536],[22.000102174803395,65.82635636778309],[22.000109263157604,65.826357285255],[22.000102172615957,65.82635636681536]]],[[[22.025050695624003,65.8252690310392],[22.025050649999997,65.82526903],[22.025012261013536,65.8252697386322],[22.025050695624003,65.8252690310392]]],[[[22.0268035198635,65.8252546955814],[22.026803499999996,65.82525467],[22.026324348883094,65.82525742898132],[22.0268035198635,65.8252546955814]]],[[[22.028554194543393,65.8256093796309],[22.02867635446121,65.82567728856723],[22.0282772535107,65.82551044269921],[22.028554194543393,65.8256093796309]]],[[[22.02900686868397,65.82595163445895],[22.02900687,65.82595163],[22.028995686982363,65.82593867181228],[22.02900686868397,65.82595163445895]]],[[[22.028920876737,65.82624298717434],[22.0285624271336,65.8265899171589],[22.028395597594045,65.82676690175586],[22.028562459999996,65.82658994],[22.028920876737,65.82624298717434]]],[[[22.0283251151354,65.8281199669786],[22.0285579156275,65.82824596372559],[22.028192662565115,65.82795256074215],[22.0283251151354,65.8281199669786]]],[[[22.030166137822835,65.82897938311241],[22.029666430000002,65.82890777],[22.029599673963787,65.82884546093919],[22.0296664170796,65.8289077911648],[22.030166137822835,65.82897938311241]]],[[[22.0315648516885,65.8291184515582],[22.031816300867327,65.82911490841366],[22.031511275863018,65.82911401566672],[22.0315648516885,65.8291184515582]]],[[[22.033020542019,65.8290526479462],[22.03302042,65.82905264],[22.032674458504438,65.82907889405162],[22.033020542019,65.8290526479462]]],[[[22.0346285575528,65.8291698631188],[22.034628469999998,65.82916982999998],[22.03425027405976,65.82914861078886],[22.0346285575528,65.8291698631188]]],[[[22.03719192685759,65.82942972325868],[22.037290873915545,65.8295163088314],[22.036905828830765,65.82928564309351],[22.03719192685759,65.82942972325868]]],[[[22.037412185581697,65.8315088629187],[22.03741181148429,65.83151213473198],[22.037412186374432,65.83150886165403],[22.037412185581697,65.8315088629187]]],[[[22.038959193376,65.83711775727991],[22.03895922,65.83711779],[22.03918707709285,65.83689617763764],[22.038959193376,65.83711775727991]]],[[[22.038434,65.83816419],[22.038896630992753,65.83821262950796],[22.037931415968668,65.83817476945339],[22.038434,65.83816419]]],[[[22.0371998296606,65.8386172767549],[22.03719984989819,65.83861728773546],[22.03719734494667,65.83856156828404],[22.0371998296606,65.8386172767549]]],[[[22.0374009619428,65.8387264070758],[22.03740094,65.83872638],[22.037225412422625,65.83863115751316],[22.0374009619428,65.8387264070758]]],[[[22.039013030286494,65.83970732913389],[22.03916201853051,65.83974462577237],[22.038743722100513,65.83965466810643],[22.039013030286494,65.83970732913389]]],[[[22.0392236007461,65.8401400540599],[22.03922365,65.84014004999999],[22.039283962808916,65.83994566914966],[22.0392236007461,65.8401400540599]]],[[[22.040172272592198,65.840723934189],[22.040375345808386,65.84084048966695],[22.03980346444446,65.84059913537408],[22.040172272592198,65.840723934189]]],[[[22.0410350761872,65.8437678611545],[22.04103511,65.84376785999999],[22.04105677832576,65.84374249989817],[22.0410350761872,65.8437678611545]]],[[[22.037023806933895,65.8490898346588],[22.03702381,65.84908984],[22.037134236678614,65.84879917945898],[22.037023806933895,65.8490898346588]]],[[[22.0233844905308,65.86220153434331],[22.023244418116164,65.86228362892841],[22.02515969725529,65.86002791266665],[22.0233844905308,65.86220153434331]]],[[[22.022529965499597,65.86266840267518],[22.0225361193347,65.8628752212133],[22.0227208007441,65.8630928135292],[22.02290776815127,65.86322925270288],[22.022529965499597,65.86266840267518]]],[[[22.022842273155234,65.86329946895628],[22.0226324267715,65.8637266167926],[22.022635501846736,65.86376124941675],[22.022842273155234,65.86329946895628]]],[[[22.019291132083648,65.86441348226451],[22.0210181917608,65.86396320096013],[22.0201427051618,65.8639807187253],[22.019600180741598,65.8641017779292],[22.0193427855452,65.8643102949204],[22.019291132083648,65.86441348226451]]],[[[22.022416646162355,65.86425329281336],[22.0211783895273,65.8644428710266],[22.021070965396248,65.86412121989392],[22.021178289999998,65.86444292999998],[22.02212793,65.86445837],[22.0223611,65.86433189],[22.022416646162355,65.86425329281336]]],[[[22.026032582543106,65.86938538048916],[22.055889598048804,65.8604728661976],[22.06255381873976,65.85847454026617],[22.05588957,65.86047284],[22.026032582543106,65.86938538048916]]],[[[22.01354705979719,65.87317041701414],[22.0135471249599,65.8731704344737],[22.017601721370298,65.87193458432941],[22.01354705979719,65.87317041701414]]],[[[22.01124153213017,65.8725526320088],[22.0112415155025,65.87255264185552],[22.012897409105694,65.87299634842813],[22.01124153213017,65.8725526320088]]],[[[22.0402156743278,65.8882033568324],[22.040163657284197,65.88825099865456],[22.041054856568678,65.88741317925783],[22.0402156743278,65.8882033568324]]],[[[22.0388342715087,65.88949304844202],[22.038834319999992,65.88949305999998],[22.039234737235027,65.88911835565085],[22.0388342715087,65.88949304844202]]],[[[22.035723871229763,65.89238230008864],[22.03706631,65.89118558],[22.037382096276737,65.8908846878258],[22.0370662742172,65.8911855782344],[22.0364019649989,65.8917585949129],[22.035723871229763,65.89238230008864]]],[[[22.03142336168367,65.89635676352415],[22.032202599999998,65.89564669],[22.03499709660478,65.89305517702242],[22.0322025740071,65.89564664900409],[22.03142336168367,65.89635676352415]]],[[[22.007222739999996,65.91896365999999],[22.028145129999995,65.89935235],[22.028279917333336,65.89923232914532],[22.028145171901105,65.8993523028996],[22.007222721978298,65.9189636140813],[22.004671056116287,65.92062697873612],[22.007222739999996,65.91896365999999]]],[[[22.00204694305119,65.92320732874887],[22.00204696999999,65.92320731999999],[22.002071041386067,65.92318443272022],[22.00204694305119,65.92320732874887]]],[[[22.002079657041673,65.92380096430507],[22.002047763186358,65.9238173250094],[22.002079629999997,65.92380098999999],[22.002079657041673,65.92380096430507]]],[[[22.07415154840974,66.0926179332196],[22.075237,66.08688451],[22.075236966654835,66.08688450832257],[22.07415154840974,66.0926179332196]]],[[[22.102250367768903,66.2739234660929],[22.11600254747175,66.27684152941238],[22.102245513686263,66.27392243080175],[22.102250367768903,66.2739234660929]]],[[[22.4989570328592,65.0864342959367],[22.4512775467598,65.06965380799399],[22.498957050000005,65.08643432],[22.51387815220583,65.0850049490897],[22.4989570328592,65.0864342959367]]],[[[22.5398709130982,65.0829391987179],[22.5301291220038,65.08365827466326],[22.551037031829136,65.08228272780491],[22.5398709130982,65.0829391987179]]],[[[22.596849917708692,65.08066199023536],[22.6220432,65.08053492],[22.6549814,65.08125808],[22.687722659999995,65.08294184999998],[22.709052222592184,65.08459420278761],[22.687722653553603,65.08294181426642],[22.6549815048834,65.0812580646165],[22.622043315924998,65.0805348656589],[22.605549814407997,65.0805345870311],[22.596849917708692,65.08066199023536]]],[[[21.9374845157948,65.3623116230953],[21.937484513410087,65.36231162693758],[21.96040884510964,65.34951242690163],[21.9374845157948,65.3623116230953]]],[[[23.083434648887803,65.24793025256491],[23.080431850646793,65.2410880822697],[23.07686374182269,65.23429273268009],[23.072734007836395,65.22755481896989],[23.068049187509,65.22088028001592],[23.062814772555996,65.214278717246],[23.057037804082093,65.2077578360096],[23.050723183384996,65.20132545108389],[23.0438821336382,65.1949890305416],[23.036523732882095,65.1887561530205],[23.0286527983404,65.1826346123978],[23.0202825861563,65.1766317795629],[23.011423917751596,65.1707541953058],[23.002086021599,65.1650103332603],[22.992281764691903,65.1594066170989],[22.982021613701995,65.1539487475862],[22.971321041627803,65.14864482772902],[22.960190125166896,65.1434996447016],[22.9486418863903,65.1385205351859],[22.936695353363596,65.13371361195249],[22.924360538612298,65.1290836625267],[22.911652175756,65.1246370283433],[22.8985886497093,65.1203780521599],[22.885184620758892,65.11631308182429],[22.8714562928845,65.1124465793685],[22.8574198396373,65.1087830198622],[22.8430911307973,65.1053259673164],[22.8284889099152,65.1020815640313],[22.813630577896,65.099051531591],[22.7985321811466,65.0962403480897],[22.7832160680862,65.09365218440139],[22.767695334584204,65.0912889661128],[22.751992016067195,65.0891539804837],[22.736125520193397,65.0872488627787],[22.722794680090857,65.08585819224805],[22.751991859999997,65.08915397999999],[22.7676952,65.09128899],[22.79853217,65.09624039000002],[22.82848877,65.10208155],[22.85741978,65.10878303],[22.88518444,65.11631308000001],[22.898588619999998,65.12037805999998],[22.92436054,65.1290837],[22.948641840000004,65.13852056000002],[22.971320859999995,65.14864481],[22.99228172999999,65.15940660999999],[23.00208588,65.16501034],[23.01142374,65.1707542],[23.028652649999998,65.18263464],[23.036523629999998,65.18875618999999],[23.050723159999997,65.20132548],[23.06281472,65.21427868],[23.06804916,65.22088029000001],[23.076863560000003,65.23429272000001],[23.08343456,65.24793028],[23.085865390000002,65.25481334],[23.08900660999999,65.26866344999999],[23.08975001,65.28445683],[23.13834196,65.28809015999998],[23.043952489999995,65.41743680999998],[22.83462557,65.6911717],[22.810354676609965,65.69631049217924],[22.834625625970205,65.691171722962],[23.043952659174895,65.41743683403658],[23.1383421263494,65.2880901187065],[23.089750185962696,65.28445681869319],[23.089006707861,65.2686634456045],[23.085865544434196,65.25481330335228],[23.083434648887803,65.24793025256491]]],[[[22.747244289999998,65.70654742],[22.745417965865652,65.70910924177292],[22.747244315396795,65.7065474501637],[22.74757604354706,65.70063374060898],[22.747244289999998,65.70654742]]],[[[22.737355031534904,65.71109952120727],[22.735472749999996,65.71118536],[22.722881513166325,65.71059424875833],[22.7354728450427,65.7111853927368],[22.737355031534904,65.71109952120727]]],[[[22.7390399327984,65.7110226303001],[22.741121532631492,65.71039821709829],[22.739039920479485,65.71102263086235],[22.7390399327984,65.7110226303001]]],[[[22.7107938778677,65.7308010551863],[22.716966710124574,65.71031620094641],[22.710793796341267,65.7308010689715],[22.7107938778677,65.7308010551863]]],[[[22.6652282100327,65.72834929928699],[22.65199196,65.72560296],[22.636865959999998,65.73790731],[22.604195099999995,65.74896745999999],[22.636865963714005,65.73790735481191],[22.6519919525198,65.7256029751429],[22.6652282100327,65.72834929928699]]],[[[22.611638002945366,65.75236726057602],[22.62962651,65.76057886],[22.64660092,65.76752095],[22.64848468025853,65.7687416366631],[22.6466010174261,65.7675209826933],[22.629626611492498,65.76057883753],[22.611638002945366,65.75236726057602]]],[[[22.657569697662524,65.7756053082795],[22.6575697113765,65.7756053006684],[22.65520038643215,65.77386122474753],[22.657569697662524,65.7756053082795]]],[[[22.64538685,65.78236442],[22.639986174864315,65.78703467579437],[22.645386917472894,65.78236438831038],[22.653369506376816,65.77793610072109],[22.64538685,65.78236442]]],[[[22.6312975495707,65.7903427182051],[22.637433387937083,65.78800674235544],[22.631297530000005,65.79034272],[22.62925633352841,65.79327583493404],[22.6312975495707,65.7903427182051]]],[[[22.62285593,65.80254913],[22.622401030833295,65.80308895632429],[22.624794862632054,65.79971593831856],[22.62285593,65.80254913]]],[[[22.0380324567397,65.83030579753381],[22.038032499999996,65.83030576999998],[22.037939169881003,65.83023703374153],[22.0380324567397,65.83030579753381]]],[[[22.037824343494,65.8308268586218],[22.0377300968895,65.83098852290101],[22.03791822111989,65.83069094204298],[22.037824343494,65.8308268586218]]],[[[22.621662702802396,65.8028842246108],[22.6216627,65.80288419],[22.621597681836178,65.80289228376012],[22.621662702802396,65.8028842246108]]],[[[22.62143623,65.80294715],[22.6214362346421,65.8029471632119],[22.62155607828897,65.80289746274396],[22.62143623,65.80294715]]],[[[22.620707633870605,65.8032998890351],[22.620924405662702,65.8031023597405],[22.621264486346234,65.80296296849443],[22.62092435,65.80310236],[22.620707633870605,65.8032998890351]]],[[[22.622153830938792,65.80310774212329],[22.622223357424282,65.80309911934573],[22.622153777593343,65.80310772782332],[22.622153830938792,65.80310774212329]]],[[[22.039102806669398,65.8332066302421],[22.039200228184743,65.83321941164118],[22.03910278535911,65.83320662595165],[22.039102806669398,65.8332066302421]]],[[[22.040789389102056,65.83340874818137],[22.0413765,65.83354074999998],[22.04111006999999,65.83343414999999],[22.040789389102056,65.83340874818137]]],[[[22.041272080189703,65.83412976055071],[22.041212716526825,65.83422588194196],[22.041337109174446,65.83398589137322],[22.041272080189703,65.83412976055071]]],[[[22.040945828701595,65.8345204575298],[22.040945779999998,65.83452051],[22.04097221184897,65.83449949777173],[22.040945828701595,65.8345204575298]]],[[[22.040706601170598,65.83490776583359],[22.04070664,65.83490777],[22.04060826385655,65.83484329925886],[22.040706601170598,65.83490776583359]]],[[[22.040138954935497,65.83548785956859],[22.04013897,65.83548788],[22.040405085653717,65.83537240764296],[22.040138954935497,65.83548785956859]]],[[[22.039135142970117,65.83823321611906],[22.039677703356002,65.8382742569223],[22.0396530069994,65.8382709516649],[22.039135142970117,65.83823321611906]]],[[[22.04073422825761,65.84106193847268],[22.04073419,65.84106191],[22.04068570634582,65.84103143790927],[22.04073422825761,65.84106193847268]]],[[[22.041969718781562,65.84264325994894],[22.042051400000002,65.84237835999998],[22.04199916353234,65.84230028434133],[22.041969718781562,65.84264325994894]]],[[[22.041845537686203,65.8428360948834],[22.0418503382319,65.84290616135438],[22.041891573945904,65.8427835679994],[22.041845537686203,65.8428360948834]]],[[[22.041600949400102,65.84324732915512],[22.041600999999993,65.84324732999998],[22.04165500448175,65.84317551418027],[22.041600949400102,65.84324732915512]]],[[[22.070008172619467,65.8562548245455],[22.0719977284394,65.8556656691585],[22.0794487129844,65.8534313734328],[22.080033759916798,65.8532777733995],[22.0867688796332,65.8512512507128],[22.10423911062708,65.84606419052066],[22.086768789999997,65.85125123],[22.080033789999998,65.85327774],[22.079448629999998,65.85343138999998],[22.070008172619467,65.8562548245455]]],[[[22.08920246484127,65.8606480234283],[22.110132009999997,65.85071713],[22.11378353,65.8490377],[22.114418968953657,65.84871484150696],[22.11013200744239,65.85071710419449],[22.08920246484127,65.8606480234283]]],[[[22.6024819693174,65.8327841641576],[22.620921646535795,65.80538094715318],[22.62070222870759,65.80330328320669],[22.620921609999996,65.80538094],[22.615495909999996,65.81324107],[22.604645289999993,65.82942149999998],[22.60149933,65.83430115],[22.6010834,65.83495044999997],[22.599691100000005,65.83716177000001],[22.599580180000004,65.83736789],[22.594567429999998,65.84515618],[22.58831524,65.85601907],[22.587931319999996,65.85671227],[22.587629069999995,65.85722148999999],[22.587275132969154,65.85783433549855],[22.6024819693174,65.8327841641576]]],[[[22.586806519307792,65.85865528562009],[22.58696405172706,65.85837527248418],[22.586735839830755,65.85877214184532],[22.586806519307792,65.85865528562009]]],[[[22.585848030000005,65.86029522],[22.585598229999995,65.86077015000001],[22.58544408,65.8610236],[22.58506569,65.86166427],[22.58501401600377,65.86176658190367],[22.585598368040497,65.8607701044138],[22.585848067148696,65.8602952336339],[22.586194313114095,65.85972818182458],[22.586682456799537,65.8588620645291],[22.585848030000005,65.86029522]]],[[[22.584233509619594,65.86310608705129],[22.584733374366273,65.86225360759367],[22.577513074477796,65.87476611325579],[22.584233509619594,65.86310608705129]]],[[[22.57643451411071,65.8744262856666],[22.576707077955124,65.87437792035409],[22.57670698,65.87437791],[22.57643451411071,65.8744262856666]]],[[[22.5759700847177,65.8745902748426],[22.576370466182873,65.87443765712678],[22.57583781916025,65.87475820139214],[22.5759700847177,65.8745902748426]]],[[[22.57726366318739,65.87456980382169],[22.57726364,65.87456977],[22.57710049445074,65.8745907318835],[22.57726366318739,65.87456980382169]]],[[[22.577472695945097,65.87469580612199],[22.57747426070366,65.87469853068863],[22.57747265459172,65.87469576586703],[22.577472695945097,65.87469580612199]]],[[[22.575838524151884,65.87475865157705],[22.57624743,65.87489346],[22.57631566277087,65.87490886275481],[22.575838524151884,65.87475865157705]]],[[[22.5768234126398,65.8750755030575],[22.576823380000004,65.87507553],[22.576971415925563,65.87510492836283],[22.5768234126398,65.8750755030575]]],[[[22.577316257088295,65.8751080278079],[22.57712850669994,65.87511072267193],[22.57725598698514,65.87520561042423],[22.577316257088295,65.8751080278079]]],[[[22.576894932437607,65.87578569816569],[22.55804308,65.90731221999998],[22.54784805,65.92068326],[22.546828389999998,65.92215347],[22.54504933495955,65.92435865906465],[22.546828436238997,65.9221534683253],[22.55804323216899,65.90731222288468],[22.563817972996798,65.8977816299088],[22.576894932437607,65.87578569816569]]],[[[22.544294701641316,65.9242894829853],[22.544307793422316,65.92428930032025],[22.54430779,65.9242893],[22.544294701641316,65.9242894829853]]],[[[22.543184989475268,65.92434193528172],[22.5425371,65.92442509],[22.542197982708334,65.9245477405803],[22.542537171285296,65.92442508927408],[22.543184989475268,65.92434193528172]]],[[[22.540710382478096,65.92524051917978],[22.54210859094937,65.92457484671185],[22.54181107,65.92465175],[22.541465899999995,65.92475062],[22.54108261,65.92494169],[22.540867800000004,65.92510612],[22.54071026,65.92524056],[22.54059635,65.92544486],[22.54059387,65.92565258000002],[22.54071147,65.92603454999998],[22.54078270304708,65.92610946960914],[22.540710382478096,65.92524051917978]]],[[[22.537764899999992,65.93377432999999],[22.538457602958204,65.93965028506162],[22.537764972505403,65.9337743235569],[22.5382784251589,65.9331434605577],[22.5433473916104,65.9265674236356],[22.541007802034155,65.92622228956327],[22.54334734,65.92656747],[22.537764899999992,65.93377432999999]]],[[[22.54199874,65.95628875],[22.523580319999997,65.96867813999998],[22.49015125088443,65.99101370922958],[22.528010268856598,65.96575657952009],[22.5419988865425,65.9562887138297],[22.539498352902605,65.9453553287168],[22.54199874,65.95628875]]],[[[22.488624911638258,65.99216198819526],[22.47488508,66.00829286],[22.468957269999997,66.01548612],[22.436976237308997,66.05215752456303],[22.488624911638258,65.99216198819526]]],[[[22.42812419,66.06229575],[22.4261201500315,66.0647297179114],[22.430565928616055,66.05950195300949],[22.42812419,66.06229575]]],[[[22.417919584043393,66.0691376874087],[22.425204799999992,66.06440308999998],[22.41791945,66.06913767],[22.41222232,66.07624996],[22.37405141,66.10726330999998],[22.373879609999996,66.10740513],[22.368137659999995,66.11194846],[22.362186189999996,66.11675887],[22.3593444,66.11893293999998],[22.34535397,66.13022955999999],[22.341405339991518,66.1335015252563],[22.3738796662381,66.1074051373588],[22.412222427763496,66.07624992296029],[22.417919584043393,66.0691376874087]]],[[[22.338670727075154,66.13571385897204],[22.33804105,66.1362067],[22.332163889999993,66.14081606999999],[22.326471300000005,66.1452677],[22.322394639999995,66.14846100999999],[22.252133719999996,66.20266168],[22.235164719999993,66.21586747999999],[22.146396771364262,66.28328406143648],[22.235164819125,66.21586746503289],[22.3223947698028,66.14846098461129],[22.3321639696796,66.1408160613996],[22.338670727075154,66.13571385897204]]]]}}]}