{"type":"FeatureCollection","properties":{"source":"SMHI SE.SR Ytansamling av alger","date":"2009-08-31","note":"Test: SMHI WFS clipped to Lulea municipal sea area and simplified 20 m."},"features":[{"type":"Feature","properties":{"cyano_daymap_file_id":3308,"date":"2009-08-31Z","cloud":null,"sub_surfac":null,"surface":null,"no_data":null,"class":1,"color_hex":null,"algae_class":"class_1","source_date":"2009-08-31"},"geometry":{"type":"MultiPolygon","coordinates":[[[[22.684706759999994,65.10506141999998],[22.70580412,65.10397157999999],[22.716176559999997,65.13953755999998],[22.73729971,65.13844299],[22.739904559999996,65.14733388],[22.655372660000005,65.15169612000001],[22.65279558,65.14280347],[22.63166476,65.14388617],[22.62396576,65.11720651],[22.602853849999995,65.11828493],[22.60029824,65.10939115],[22.53697198,65.11260733],[22.53443905,65.10371218],[22.450005519999994,65.10795720999998],[22.44750218,65.09906028],[22.42639609,65.1001137],[22.42889249,65.10901106],[22.407777609999997,65.11006193999998],[22.41026893,65.11895967],[22.389145259999992,65.12000800999999],[22.39411952,65.13780412999999],[22.372980109999997,65.13885034999998],[22.37546305,65.14774874],[22.354314829999996,65.14879240999998],[22.38417045,65.25557347999998],[22.40540261,65.25452471],[22.41292935,65.28121733],[22.434180729999998,65.28016428],[22.436700430000002,65.28906127],[22.521715289999996,65.28481748],[22.52426503,65.29371267000002],[22.54552104,65.29264382],[22.54296426,65.28374906],[22.5854565,65.28160326000001],[22.588027339999993,65.29049715],[22.60927762,65.28941933],[22.617022779999996,65.31609928999998],[22.63829225,65.31501717],[22.643479419999995,65.33280261],[22.664761060000004,65.33171661],[22.6699701,65.3495009],[22.648674349999993,65.35058778999999],[22.65387704,65.36837271],[22.675186929999995,65.36728493999999],[22.67779827,65.37617686],[22.6564813,65.37726508],[22.659087510000003,65.38615737],[22.68041156,65.38506871],[22.693507379999996,65.42952700999999],[22.842968799999998,65.42180667],[22.832289669999994,65.38625276999998],[22.853605,65.38513967],[22.85627886,65.39402779],[22.877599269999994,65.39291123999999],[22.88296717,65.41068637],[22.861632590000003,65.41180383],[22.86699434,65.4295796],[22.824290810000004,65.43180734],[22.826960499999995,65.44069604],[22.848320359999995,65.43958320999998],[22.853679949999997,65.45735949000002],[22.810929769999998,65.45958395],[22.81359834,65.46847289],[22.834981550000002,65.46736171],[22.837659249999998,65.47625012999998],[22.756282525881446,65.48046144072792],[22.755620692656237,65.48394063097795],[22.75427925088453,65.48527340600073],[22.75350202325553,65.48542734052124],[22.75473706,65.48956879],[22.776140529999996,65.48846573],[22.77631354605608,65.48904387772825],[22.776801324122026,65.48934815537966],[22.777657768209924,65.48930394994787],[22.778405211463355,65.49034860191985],[22.77690335728167,65.49101478163102],[22.778800839999995,65.49735538],[22.714563019999996,65.50065686],[22.717203869999995,65.50954779999999],[22.73862562,65.50844987],[22.746581579999994,65.53512092999999],[22.70369312,65.53731648],[22.711623970000005,65.56398964],[22.690155209999993,65.56508422999998],[22.69279562,65.5739756],[22.714271569999994,65.57288055999999],[22.72753953,65.61733419],[22.792063449999997,65.61402413],[22.7947447,65.6229133],[22.816255859999995,65.62180342999999],[22.817327615235584,65.62534015592807],[22.817621104491078,65.62499667922545],[22.819826989357836,65.62506323436784],[22.821441226396693,65.62606311675711],[22.824938486508973,65.62606283720524],[22.825046207627516,65.62641837652258],[22.82230239004168,65.62746303193016],[22.82246392933398,65.62799634413891],[22.821656851358465,65.62821862182062],[22.820795922075543,65.62826312396764],[22.820580580953948,65.62755203814937],[22.818037717789867,65.62768345039673],[22.827030049999998,65.65735758999999],[22.805489979999997,65.65846928],[22.807983126107843,65.66670019989606],[22.809864529197505,65.66584076832406],[22.81363663573441,65.66528514303488],[22.815845878818337,65.66390729704489],[22.817516216666178,65.66364054728035],[22.818486145588547,65.66395159459672],[22.81875570741408,65.66484045198926],[22.81789355694598,65.6648849503841],[22.81762420127364,65.66544051351683],[22.81643874146469,65.66586279479868],[22.816600448378743,65.66639611179808],[22.81751656147536,65.66652939210798],[22.817139364948247,65.66672941076871],[22.817786122349457,65.66741825126365],[22.816007838824675,65.66877388473726],[22.813582636096182,65.66944064342105],[22.812181401867544,65.66915179951486],[22.812073643221897,65.66879625124106],[22.80910945241831,65.66912962227377],[22.809809927480618,65.66999627363087],[22.809045174942508,65.67020646808318],[22.810874809999994,65.67624685999999],[22.83242936,65.67513425999996],[22.835132079999998,65.68402248999999],[22.840297168630475,65.68375510277505],[23.0439526591749,65.41743683403658],[23.1383421263494,65.2880901187065],[23.089750185962696,65.28445681869319],[23.089709002936797,65.2756147460627],[23.0877229961228,65.2617264628135],[23.083434648887803,65.24793025256493],[23.08043185064679,65.2410880822697],[23.072734007836395,65.22755481896989],[23.062814772555992,65.214278717246],[23.05703780408209,65.2077578360096],[23.0438821336382,65.1949890305416],[23.0286527983404,65.1826346123978],[23.011423917751596,65.1707541953058],[23.002086021599,65.1650103332603],[22.982021613701992,65.1539487475862],[22.960190125166896,65.1434996447016],[22.936695353363596,65.13371361195249],[22.924360538612298,65.1290836625267],[22.8985886497093,65.1203780521599],[22.885184620758892,65.11631308182429],[22.8574198396373,65.1087830198622],[22.8430911307973,65.1053259673164],[22.813630577896,65.099051531591],[22.783216068086205,65.09365218440139],[22.767695334584204,65.0912889661128],[22.736125520193397,65.0872488627787],[22.703969492420804,65.0841417016372],[22.678154783568516,65.082449776009],[22.684706759999994,65.10506141999998]],[[22.85904757999999,65.47513549],[22.880433899999996,65.47401782999998],[22.87774195,65.46513031999999],[22.899119130000003,65.46401012000001],[22.90451927999999,65.48178414999998],[22.861734419999998,65.48402339],[22.85904757999999,65.47513549]],[[22.778687430000005,65.5695773],[22.75721748,65.57068141],[22.754555499999995,65.56179138999998],[22.751529191821785,65.56194656880625],[22.751283308692965,65.56269534847598],[22.74999494435834,65.56276146920166],[22.748166727438374,65.56393846906487],[22.746878292117007,65.56400456400551],[22.74671467073894,65.564915615161],[22.744190844268307,65.5652255759239],[22.744403479785937,65.56593679722023],[22.740161431784188,65.56633477546225],[22.739519394327516,65.56564555696242],[22.740595399404242,65.56486829617434],[22.74349557935243,65.56435856964121],[22.743818762921723,65.56398093763028],[22.74639564274279,65.56384878876658],[22.747095075829957,65.56327131699281],[22.74881293877694,65.56318318603846],[22.7481707570159,65.56249400575997],[22.749348581624233,65.56205838309198],[22.733090739999998,65.56289203],[22.73043794,65.55400149],[22.73253962238252,65.55389373190955],[22.7370420418335,65.55151070437127],[22.737635215277507,65.55057766006924],[22.73951610036555,65.54957859967678],[22.740750750358966,65.54933476740372],[22.74102070502074,65.54877933561647],[22.743649212822092,65.54882505588428],[22.745259890411827,65.5483813632256],[22.74408275078892,65.54735857136998],[22.744941165972055,65.54731453080913],[22.745047404255267,65.54767014172108],[22.74719345693339,65.54756001735178],[22.74875085091815,65.54693848456289],[22.750115907666636,65.54694899761121],[22.749237550000004,65.54401115],[22.77068596,65.5429084],[22.768022819999995,65.53401863],[22.78739768537296,65.53301974029202],[22.787177258124515,65.53268400585463],[22.78631941038498,65.53272828006791],[22.78578376391529,65.53239483832087],[22.78610798561419,65.53057268406153],[22.788301286881477,65.52904626889514],[22.78679374,65.52402393],[22.799546945817173,65.52336462176346],[22.800482188942134,65.52188609700582],[22.801768381561427,65.5218195694657],[22.801608057295823,65.52128622332395],[22.80235860755773,65.52088630318259],[22.806163528965836,65.520508861662],[22.806752652332914,65.52102001104953],[22.807534658082858,65.5206246854793],[22.80555035,65.51402705],[22.826971259999997,65.51291660999999],[22.83501914,65.53958202],[22.813576759999997,65.54069383],[22.816256259999992,65.54958262999999],[22.837705809999996,65.54847036],[22.840394489999998,65.55735862999998],[22.818937769999994,65.55847134999999],[22.824306849999996,65.5762486],[22.78135861,65.5784668],[22.778687430000005,65.5695773]],[[22.827739653616135,65.63386240724091],[22.827632489883403,65.6349512875515],[22.825425748094528,65.63488485485897],[22.825801902000737,65.63324040299995],[22.827093526595448,65.6331736029147],[22.827739653616135,65.63386240724091]],[[22.822572294375163,65.6312407254844],[22.820796391533957,65.63115196604971],[22.82047334141655,65.63008533756802],[22.82128048711853,65.62986306547191],[22.821495596248415,65.62912972924843],[22.822787029854346,65.62906296782369],[22.825800860003202,65.63035156682396],[22.825908614355193,65.6307071052041],[22.825101484014965,65.63092940176946],[22.825855258895658,65.63197375409239],[22.823702640189822,65.63208506295804],[22.82354104482849,65.63155175262197],[22.822411059204832,65.63215183371675],[22.822572294375163,65.6312407254844]],[[22.821442579518827,65.63328522008311],[22.822572635869715,65.63268514545587],[22.82321863084198,65.6333739704073],[22.822895811144196,65.63375176820132],[22.821442579518827,65.63328522008311]],[[22.822519119009293,65.63395179488698],[22.82208856067031,65.63397404999658],[22.822034701060833,65.63379627926791],[22.822519119009293,65.63395179488698]],[[22.822034385768553,65.63235185899939],[22.8220882417666,65.63252962976212],[22.8216577065512,65.63255188340749],[22.822034385768553,65.63235185899939]],[[22.819511181685826,65.67021809147666],[22.819834474033037,65.66984029577824],[22.82199024585568,65.66972900894913],[22.821398075595983,65.67210679846947],[22.81897270970265,65.67277364494852],[22.816762748334174,65.67270711967096],[22.816493156310298,65.67181825895595],[22.81546904116039,65.67132942910771],[22.819511181685826,65.67021809147666]],[[22.818966404684325,65.62799656938483],[22.8190202288139,65.6281743415576],[22.81858976259136,65.62819658577554],[22.818966404684325,65.62799656938483]],[[22.813993640177465,65.50313168118892],[22.81351175283059,65.50297611209542],[22.813940160945588,65.5029539039303],[22.813993640177465,65.50313168118892]],[[22.814154647924592,65.50222058598246],[22.815011437265266,65.50217616507676],[22.814796974764494,65.50290948398141],[22.813940160945588,65.5029539039303],[22.814154647924592,65.50222058598246]],[[22.78482868531738,65.49001687307414],[22.783972232532452,65.49006111926109],[22.78391898966309,65.48988332893278],[22.784722188951363,65.48966129311543],[22.78482868531738,65.49001687307414]],[[22.754244739189907,65.60171923482318],[22.754084795026493,65.6011858338876],[22.755108448367835,65.60023065929462],[22.75478855393278,65.59916385916316],[22.75597206330122,65.59874207984824],[22.757638899758348,65.59847602523752],[22.758605648496776,65.59878748752081],[22.762152680707597,65.59896649112235],[22.763816422417275,65.6001448231054],[22.765106595067603,65.6000785658877],[22.76499982449184,65.5997229744011],[22.765859924030085,65.59967879758874],[22.766989874212488,65.59907913857236],[22.769140053625694,65.59896865987635],[22.769353703688285,65.59967983580232],[22.767900538646806,65.60065719702386],[22.76440662536768,65.60065612669611],[22.76101623692275,65.60245502631305],[22.75848897068438,65.6027652613721],[22.754244739189907,65.60171923482318]],[[22.751974968999313,65.56500677796657],[22.752404459555684,65.56498473295247],[22.7524576726771,65.56516253485336],[22.751974968999313,65.56500677796657]],[[22.7524576726771,65.56516253485336],[22.754175638388308,65.56507434197222],[22.754282090040526,65.56542994424606],[22.752993599705206,65.56549609180801],[22.7524576726771,65.56516253485336]],[[22.742959725690284,65.60049223497093],[22.74285325573612,65.60013662478414],[22.741939866024527,65.60000286617355],[22.741726962031063,65.59929164392582],[22.74334075428702,65.59884793909147],[22.747264506727873,65.59882746099915],[22.751024631695888,65.5997179375618],[22.751827758797194,65.6009404991058],[22.7480102406231,65.6013167044261],[22.74473331026369,65.60058192953713],[22.742959725690284,65.60049223497093]],[[22.748968512661552,65.56516105918183],[22.748539015693357,65.56518309451496],[22.748485829254985,65.56500529095919],[22.748968512661552,65.56516105918183]],[[22.74187515763075,65.56769118749864],[22.742681094132077,65.56746934648199],[22.742145255060898,65.56713575210239],[22.74289801964925,65.56673610397641],[22.746657391135898,65.56618227492896],[22.746493752915132,65.56709332604403],[22.745687861673247,65.56731518688386],[22.7457942085467,65.56767079622291],[22.74493512460534,65.56771484859708],[22.74552418466131,65.56822623736643],[22.744665081857796,65.56827028840488],[22.744607704792706,65.56953694845988],[22.74278308896014,65.56926942453406],[22.742623619681268,65.5687360067855],[22.74171134508441,65.56860223527114],[22.74187515763075,65.56769118749864]]],[[[22.81802275266438,65.62763406640906],[22.81826684732955,65.62712995123476],[22.817851652518883,65.62706944652126],[22.81802275266438,65.62763406640906]]],[[[22.808223809999998,65.52291604999999],[22.8078241143951,65.52158710016273],[22.80702003528206,65.52190891024081],[22.807082860763177,65.52297503416762],[22.808223809999998,65.52291604999999]]],[[[22.744505581432996,65.5677368729687],[22.743593333231065,65.56760311252083],[22.74375281399457,65.56813652912163],[22.744665081857796,65.56827028840488],[22.744505581432996,65.5677368729687]]],[[[22.74208775422204,65.56840241247198],[22.74337642164434,65.568336355885],[22.743323262665797,65.56815855022387],[22.74208775422204,65.56840241247198]]]]}}]}