{"type":"FeatureCollection","properties":{"source":"SMHI SE.SR Ytansamling av alger","date":"2009-06-21","note":"Test: SMHI WFS clipped to Lulea municipal sea area and simplified 20 m."},"features":[{"type":"Feature","properties":{"cyano_daymap_file_id":3237,"date":"2009-06-21Z","cloud":null,"sub_surfac":null,"surface":null,"no_data":null,"class":1,"color_hex":null,"algae_class":"class_1","source_date":"2009-06-21"},"geometry":{"type":"Polygon","coordinates":[[[22.221583260000003,65.29056017],[22.21913589,65.28165887999998],[22.240396889999996,65.28063316999999],[22.23059746,65.24502912],[22.188129979999996,65.24707421],[22.185698739999992,65.23817221999998],[22.155096612012308,65.23963694077284],[22.144678530219142,65.24550993633054],[22.145655250000004,65.24910735],[22.137619967469277,65.24948906689377],[22.088656627672037,65.27709121888572],[22.09393679,65.29665404000002],[22.221583260000003,65.29056017]]]}},{"type":"Feature","properties":{"cyano_daymap_file_id":3237,"date":"2009-06-21Z","cloud":null,"sub_surfac":null,"surface":null,"no_data":null,"class":1,"color_hex":null,"algae_class":"class_1","source_date":"2009-06-21"},"geometry":{"type":"MultiPolygon","coordinates":[[[[22.37471631073734,65.3101435201465],[22.374279162803262,65.30966082727232],[22.374679871629134,65.30801729889339],[22.37680743812983,65.30791264628533],[22.376932631952634,65.3068239354539],[22.377783617956027,65.30678206568231],[22.377508289053427,65.30733688912329],[22.37850947788572,65.30782890264636],[22.384892020487015,65.30751469338054],[22.38509245017057,65.30822653174474],[22.38429153526948,65.30844640311685],[22.38481726291707,65.30878136712305],[22.383540706327118,65.30884423052292],[22.383014993374612,65.30850926189979],[22.380987572961416,65.30896992499366],[22.38148106206496,65.30980774752638],[22.548079720000004,65.30153852],[22.54552104,65.29264382],[22.715500080000005,65.28398544],[22.71288708999999,65.27509419999998],[22.73411875,65.27399892],[22.731500689999997,65.26510805999999],[22.77394412,65.26290943],[22.766059629999994,65.23623913999998],[22.78725742,65.2351367],[22.784626179999997,65.22624692],[22.80581503,65.22514195],[22.79265326,65.18069429],[22.750343299999997,65.18289677],[22.747730709999995,65.17400615],[22.726579779999994,65.17510249],[22.72397608,65.16621136],[22.59707183,65.1727244],[22.607331,65.20829912],[22.586145709999993,65.20937597999999],[22.59127276,65.22716384],[22.57007158,65.22823859000002],[22.567514099999997,65.21934426],[22.419101900000005,65.22678106000001],[22.4165953,65.21788364000001],[22.31056558,65.22310408000001],[22.322941760000003,65.26760119000001],[22.34418651,65.26656095],[22.349163989999997,65.28435853],[22.306644449999997,65.28643770999999],[22.304168879999995,65.2775381],[22.240396889999996,65.28063316999999],[22.247765659999995,65.30733558999998],[22.33287594,65.30319779],[22.33536413,65.31209679],[22.37471631073734,65.3101435201465]],[[22.373828839801437,65.30805915155499],[22.373528658066977,65.30699136664794],[22.374805153874398,65.30692858893005],[22.374679871629134,65.30801729889339],[22.373828839801437,65.30805915155499]],[[22.371375759072315,65.30854061095658],[22.37095023191282,65.30856152864794],[22.37085020488706,65.30820559815263],[22.371375759072315,65.30854061095658]]],[[[22.37909946558084,65.30992595954227],[22.379861222928387,65.30956664102209],[22.378960080388843,65.30943056147011],[22.378859941268956,65.30907463745767],[22.37673229089615,65.30917931998638],[22.37645691756046,65.30973414195412],[22.377397497429484,65.31001043778515],[22.37909946558084,65.30992595954227]]]]}},{"type":"Feature","properties":{"cyano_daymap_file_id":3237,"date":"2009-06-21Z","cloud":null,"sub_surfac":null,"surface":null,"no_data":null,"class":1,"color_hex":null,"algae_class":"class_1","source_date":"2009-06-21"},"geometry":{"type":"MultiPolygon","coordinates":[[[[22.810562473696518,65.09850686524949],[22.783216068086205,65.09365218440139],[22.767695334584204,65.0912889661128],[22.736125520193397,65.0872488627787],[22.703969492420804,65.0841417016372],[22.687722653553607,65.08294181426642],[22.6549815048834,65.0812580646165],[22.634885355061286,65.08081682862073],[22.63737308,65.08944619],[22.67954587,65.08727716],[22.68212536,65.09616932],[22.70321581,65.09507993],[22.70580412,65.10397157999999],[22.810562473696518,65.09850686524949]]],[[[22.450005519999994,65.10795720999998],[22.445000689999997,65.09016328999999],[22.46609801,65.08910733],[22.463591449999992,65.08021069999998],[22.479066537223485,65.07943396414845],[22.4512775467598,65.06965380799399],[22.380079601783404,65.11142727961848],[22.450005519999994,65.10795720999998]]],[[[22.48970881,65.09694455],[22.53190799,65.09481697],[22.53443905,65.10371218],[22.597744529999996,65.1004973],[22.595192700000002,65.09160338],[22.61628384,65.09052627000001],[22.613726990000004,65.08163272],[22.631227383866165,65.08073651330777],[22.622043315924994,65.0805348656589],[22.5890680589074,65.08077551930198],[22.5562078378235,65.0819784364121],[22.5236222511317,65.0841381956597],[22.4989570328592,65.0864342959367],[22.48538848965053,65.081658934574],[22.48970881,65.09694455]]]]}}]}