{"type":"FeatureCollection","properties":{"source":"SMHI SE.SR Ytansamling av alger","date":"2009-08-04","note":"Test: SMHI WFS clipped to Lulea municipal sea area and simplified 20 m."},"features":[{"type":"Feature","properties":{"cyano_daymap_file_id":3281,"date":"2009-08-04Z","cloud":null,"sub_surfac":null,"surface":null,"no_data":null,"class":1,"color_hex":null,"algae_class":"class_1","source_date":"2009-08-04"},"geometry":{"type":"Polygon","coordinates":[[[21.968586339999998,65.39269026999999],[21.96621315999999,65.38378422],[21.97351289363402,65.38344553894497],[21.973954253370728,65.38235729869676],[21.975093024971162,65.38176351517272],[21.974903024473512,65.38105104169341],[21.975757167301182,65.38101141884256],[21.976089224563935,65.38063536970984],[21.975946710274197,65.38010101569044],[21.977180362396446,65.37986345363872],[21.977796885194653,65.3789332317466],[21.982398271324996,65.37673605728268],[21.982255654389686,65.37620171018985],[21.98353661111735,65.37614221403905],[21.984200375777764,65.37539008406048],[21.985567584541933,65.37529308048676],[21.983936271199553,65.3691781856481],[21.982915930696336,65.36895809885782],[21.98229897284545,65.36826546580346],[21.983105160758562,65.36804768954873],[21.98345653156425,65.3673799061002],[21.97806506,65.34717025],[21.99939015,65.34617805],[22.00177045,65.35508352],[22.023100869999993,65.35408790999999],[22.02549006,65.36299292],[22.0468258,65.36199389999999],[22.049223889999997,65.37089844],[22.027881039999997,65.37189786999998],[22.032668369999996,65.38970759],[22.09673426,65.38669783],[22.094318329999997,65.37779422],[22.115662889999996,65.37678535999999],[22.113241649999996,65.36788211],[22.15591112,65.3658562],[22.15347748,65.35695371],[22.19612545,65.35491661],[22.19367944,65.34601491],[22.23630590999999,65.34396662999998],[22.23384755,65.3350657],[22.25515095,65.33403748],[22.25022558,65.31623628],[22.29279855,65.31417252999998],[22.29032449,65.30527268],[22.354148889999998,65.30215585999998],[22.351655509999997,65.29325722],[22.37291954,65.29221272],[22.36792427,65.27441612],[22.452905389999998,65.27021162999999],[22.45038241,65.26131493999999],[22.49284766,65.25919564],[22.490312519999996,65.25029976],[22.55397517,65.24709971000001],[22.55142089,65.23820507],[22.57263097,65.23713286],[22.57007158,65.22823859000002],[22.59127276,65.22716384],[22.58870828,65.21826994],[22.6734659,65.2139429],[22.67087539,65.20505070000002],[22.692053019999996,65.20396194],[22.68945746,65.19507012],[22.710626180000002,65.19397883],[22.705426909999996,65.17619586999999],[22.81117186,65.17069930999999],[22.80591082,65.15292054],[22.82704009,65.15181321999998],[22.82440555,65.14292418999999],[22.84552594,65.14181435],[22.842886419999996,65.1329257],[22.863997920000003,65.13181336],[22.861353449999992,65.12292508999998],[22.88245607,65.12181023],[22.880434090128908,65.11502469457426],[22.8574198396373,65.1087830198622],[22.844798934131028,65.10573800485088],[22.729496719999993,65.11176993999999],[22.732095789999995,65.12066102],[22.7109865,65.1217547],[22.716176559999997,65.13953755999998],[22.67392448999999,65.14171779999998],[22.67909446,65.15950216],[22.63680695,65.1616723],[22.639380899999995,65.17056525999999],[22.61822732,65.17164631],[22.620796219999995,65.18053965],[22.557303159999996,65.18376629],[22.559853049999997,65.19266087999999],[22.538677929999995,65.19373091],[22.54122273,65.20262587],[22.49885286,65.20475788],[22.496322019999997,65.19586205],[22.475141249999997,65.19692316],[22.477665099999996,65.20581942],[22.435283949999995,65.20793355999999],[22.437795679999997,65.21683060999999],[22.331775219999997,65.22206596],[22.33425379,65.23096508],[22.29181864,65.23303919],[22.29428501,65.24193909],[22.251828469999996,65.24400209999999],[22.24937615,65.23510136],[22.20692636,65.23715159],[22.209364629999996,65.24605316],[22.188129979999996,65.24707421],[22.19056302999999,65.25597614999998],[22.120151471942382,65.2593365991618],[21.9374845157948,65.3623116230953],[21.916989049313713,65.39506195898758],[21.968586339999998,65.39269026999999]],[[22.33038962,65.29429873],[22.327905150000003,65.28539961000001],[22.349163989999997,65.28435853],[22.351655509999997,65.29325722],[22.33038962,65.29429873]],[[22.40289743,65.24562704999998],[22.4241207,65.24457571],[22.421610369999996,65.23567842],[22.442824749999996,65.23462453],[22.440309279999994,65.22572759999998],[22.482718419999998,65.22361174000001],[22.48777927,65.24140381000001],[22.4453421,65.2435214],[22.44786132,65.25241819999998],[22.40540261,65.25452471],[22.40289743,65.24562704999998]],[[22.097092029926294,65.34214764535412],[22.09666570073831,65.34216779408699],[22.09656922755892,65.34181164880792],[22.097092029926294,65.34214764535412]],[[22.07591245894513,65.34206503739361],[22.078560072280982,65.34067782450352],[22.080595424100174,65.34022116801209],[22.08111799241752,65.34055722235658],[22.07993527720462,65.3409736871048],[22.081503044281206,65.34198185095023],[22.080939146756574,65.34309053155319],[22.082596433178026,65.3428320284873],[22.083731036694257,65.34223746484423],[22.081750615203465,65.34449505444692],[22.080519602294054,65.34473344696475],[22.07914419181946,65.34443759173],[22.077012270242886,65.34453807171454],[22.076063290077204,65.34422209428583],[22.07591245894513,65.34206503739361]],[[22.07448272237156,65.339968240736],[22.07618797446404,65.33988789062664],[22.07628416347532,65.34024405175009],[22.075431527513626,65.34028422986289],[22.0728318594314,65.34184947081592],[22.071552816873293,65.34190970769025],[22.07093421737205,65.34121745410972],[22.07448272237156,65.339968240736]],[[22.016873163155733,65.34086783089761],[22.0164467807809,65.34088775282585],[22.01639908915397,65.34070964929654],[22.016873163155733,65.34086783089761]],[[22.01356546148157,65.34625194577208],[22.01531904072845,65.34635038387259],[22.015557531332025,65.34724090269042],[22.014799946897092,65.34763694793195],[22.014659622669885,65.34872548956346],[22.01375890757148,65.34858721782429],[22.01342777443863,65.34896334117265],[22.01139053560213,65.34941910702018],[22.007978308422064,65.34957833560817],[22.009729634864993,65.34805398013819],[22.01356546148157,65.34625194577208]],[[22.007599428082695,65.34977634047439],[22.00717289292191,65.34979623759972],[22.007125244497963,65.34961813073572],[22.007599428082695,65.34977634047439]]]}},{"type":"Feature","properties":{"cyano_daymap_file_id":3281,"date":"2009-08-04Z","cloud":null,"sub_surfac":null,"surface":null,"no_data":null,"class":1,"color_hex":null,"algae_class":"class_1","source_date":"2009-08-04"},"geometry":{"type":"Polygon","coordinates":[[[22.345537370000002,65.1943284],[22.34305918,65.18542946],[22.364237140000004,65.18438707],[22.36672232,65.19328559],[22.536135010000002,65.18483589],[22.533593989999996,65.17594081],[22.59707183,65.1727244],[22.594511800000003,65.16383055],[22.57336137,65.16490523],[22.57081019,65.15601089],[22.46506458,65.16133752],[22.46255008,65.15244096],[22.37794783,65.15664707],[22.380434459999996,65.16554533999997],[22.359272299999997,65.16658985999999],[22.3617538,65.1754885],[22.319410000000005,65.17756946],[22.324350579999997,65.19536823999998],[22.345537370000002,65.1943284]]]}},{"type":"Feature","properties":{"cyano_daymap_file_id":3281,"date":"2009-08-04Z","cloud":null,"sub_surfac":null,"surface":null,"no_data":null,"class":1,"color_hex":null,"algae_class":"class_1","source_date":"2009-08-04"},"geometry":{"type":"Polygon","coordinates":[[[22.39660943,65.14670209],[22.39411952,65.13780412999999],[22.499788819999996,65.13252848],[22.497266019999998,65.12363259],[22.51838734,65.12256898999999],[22.51585947,65.11367346999998],[22.53697198,65.11260733],[22.53443905,65.10371218],[22.55554276,65.10264352],[22.553004769999998,65.09374872999999],[22.574099679999996,65.09267754],[22.571556659999995,65.08378313],[22.592642759999997,65.0827094],[22.592082420847056,65.08075352046866],[22.5562078378235,65.0819784364121],[22.5236222511317,65.0841381956597],[22.4989570328592,65.0864342959367],[22.479066537223485,65.07943396414845],[22.463591449999992,65.08021069999998],[22.46609801,65.08910733],[22.42390152999999,65.09121627999998],[22.42639609,65.1001137],[22.44750218,65.09906028],[22.450005519999994,65.10795720999998],[22.42889249,65.10901106],[22.43139075,65.11790836000002],[22.363280580818458,65.12128365153808],[22.34899532465544,65.12966513984045],[22.34936471,65.13099472],[22.346487992299117,65.13113624939392],[22.330568914377153,65.14047633849454],[22.330695759999994,65.14093387999999],[22.35183885,65.13989359999998],[22.354314829999996,65.14879240999998],[22.39660943,65.14670209]]]}}]}