{"type":"FeatureCollection","features":[{"type":"Feature","properties":{"class":"municipality"},"geometry":{"type":"MultiPolygon","coordinates":[[[[21.335719604672796,65.67162222320219],[21.4642333133396,65.69056304454172],[21.4689764042772,65.6851082258874],[21.4738809610252,65.6828437592543],[21.478910654582705,65.6790447909967],[21.479193489728402,65.6780872616104],[21.4775817962304,65.6768957902815],[21.472768399371798,65.6776511922175],[21.470743135758,65.6770716098528],[21.468203304787004,65.6743621283289],[21.467875757686198,65.67306159523929],[21.4705270967509,65.6707512129947],[21.4713098909216,65.66865583386239],[21.4743493985067,65.6670220177393],[21.475332755780897,65.665518534629],[21.4822594486476,65.6632898839081],[21.512949977589198,65.68908854577039],[21.5139033497979,65.6883749236592],[21.5302706470489,65.6990800899318],[21.528243782774297,65.6993249842718],[21.5274392334781,65.6997795518568],[21.524197486240205,65.69950877145611],[21.5199615503057,65.7001383056547],[21.518464630463,65.7017755279461],[21.5144748969244,65.703599177329],[21.5142309271599,65.7043838964702],[21.5123623446492,65.7049661659539],[21.5117284809553,65.70548381829119],[21.514646633268605,65.7043845733819],[21.5150179261718,65.70349547601168],[21.5184179602416,65.7020296741536],[21.5201819914869,65.7006623292231],[21.5232593822156,65.7003812874747],[21.544785162599,65.7125022737638],[21.5428497051588,65.7133466038148],[21.5429675261173,65.71362147382348],[21.5366897539651,65.7149830443897],[21.5359988027099,65.7154622891854],[21.5363335109483,65.7161958226687],[21.535043734467898,65.7164659341701],[21.5354594465561,65.7169078746265],[21.534807323879296,65.7173674745471],[21.5299125269204,65.71704073105609],[21.529193379506296,65.71705276226959],[21.52847496461,65.7172779346629],[21.529474819082502,65.71710512744501],[21.534904883833196,65.7174072172423],[21.5357571681139,65.7170651894725],[21.5357617481151,65.7163997863281],[21.53646580519599,65.71619736054559],[21.536369597663995,65.71534641458248],[21.5371064424355,65.7149721166425],[21.539424288813805,65.7146150453851],[21.540288674659198,65.7148248332908],[21.551251650487302,65.7123051709896],[21.5528966850251,65.7115418993109],[21.5528220779557,65.7108071308613],[21.554963485131005,65.7097851041755],[21.557762701000797,65.7092362497797],[21.560325476776697,65.7092793318763],[21.562796631756395,65.70895675354669],[21.5635124569282,65.70847511813771],[21.5632883095549,65.7071877788087],[21.567557414132796,65.7042807458505],[21.567732185219402,65.70302545486479],[21.570135039338197,65.7017789525368],[21.570393921169302,65.7010783254206],[21.5696750561076,65.7000587393048],[21.572000955281197,65.6992102608194],[21.577023621280798,65.69911041155729],[21.576993559614696,65.6979270314383],[21.5824539395028,65.6958827962415],[21.594887991820695,65.68409242363708],[21.6031340602969,65.6802461898553],[21.646208231684998,65.6683622099073],[21.745842807083296,65.687754318263],[21.7471919539947,65.6867981132322],[21.800093780644694,65.69717988455508],[21.7980203147658,65.6980107669024],[21.7845031491445,65.7115361020494],[21.7894312956748,65.7129840175618],[21.791822237979996,65.7128483850033],[21.794551893465197,65.71333500932559],[21.797034060496596,65.71225038380149],[21.8323387059353,65.7276863813909],[21.85934975255209,65.73660966659398],[21.928576351508095,65.75291967911168],[21.8927670500667,65.78259380256839],[21.889326042364598,65.7827794387792],[21.8898288677409,65.8012132789913],[21.8935171750365,65.8014977018564],[21.9118004091458,65.8050042301075],[21.910167195661398,65.80524084119858],[21.901863570158802,65.8077793446921],[21.903262982456603,65.8083083207151],[21.910730394171097,65.80612738360568],[21.913961511373696,65.806789765772],[21.9160369489784,65.8058332176593],[21.9754222408969,65.8169822598514],[21.9707666452625,65.8194477022521],[21.9701276231376,65.81943639237859],[21.969757934719297,65.82116932005019],[21.9656052389585,65.8221034553354],[21.964140765741895,65.8220339890552],[21.961096475170198,65.82359109141689],[21.9572422401993,65.8245854641044],[21.956919453962197,65.82480485305888],[21.9608738560692,65.8262540984716],[21.982258949284905,65.8182744979857],[21.987669615495996,65.81927977152759],[21.987478239706697,65.81978209102098],[21.9888250357328,65.82019783074881],[21.9894381480026,65.821523831783],[21.992835373454895,65.82378573195848],[21.996865315290396,65.82466719820559],[22.000102174803395,65.82635636778309],[22.013011083595195,65.82541387501558],[22.027327679241395,65.8252432615259],[22.029006894331996,65.82595166419199],[22.027938725611897,65.82749612230319],[22.0296664170796,65.8289077911648],[22.0361557396551,65.8291282413375],[22.03719192685759,65.82942972325868],[22.0380542999306,65.8304939237916],[22.037182483703194,65.83259770940398],[22.038503824124795,65.8330860346052],[22.041110107278598,65.83343417074629],[22.041417002979497,65.8338091333756],[22.038858893516796,65.8372983937727],[22.0399566493709,65.838194659804],[22.0379314454906,65.8381747615372],[22.0371998296606,65.8386172767549],[22.041159369579795,65.84137829959839],[22.041851420983193,65.84292196460088],[22.039628032533997,65.8456495907582],[22.037936460471695,65.8466875109002],[22.037023806933895,65.8490898346588],[22.032684229489405,65.8538993682954],[22.0266251450639,65.8583335150554],[22.022529965499597,65.86266840267518],[22.022361094134695,65.86433186963949],[22.0211783895273,65.8644428710266],[22.0210181884681,65.8639631911008],[22.019600180741598,65.8641017779292],[22.01689533391029,65.86919039137018],[22.0112415155025,65.87255264185552],[22.0135471249599,65.8731704344737],[22.107923064384703,65.8449698768325],[22.1148123547497,65.8485149900357],[22.049465395428,65.8794533107134],[22.007222721978298,65.9189636140813],[22.0019353875304,65.92241000824922],[22.002079726019794,65.92380092892108],[21.9996787954279,65.9241376999014],[21.9984924555346,65.92463453759049],[21.968221552283797,65.9444363580554],[21.877575256392,65.9555147827794],[21.868348084993197,65.95730215284608],[21.865751494087103,65.9605530593096],[21.868845985511,65.960964207228],[21.867867110449303,65.9622958650152],[21.8667001464819,65.9636502011243],[21.8644403981776,65.96335229908789],[21.8638625956755,65.9640749165223],[21.863026170237397,65.96396377968549],[21.851289627612,65.9785136256998],[21.8561775293252,65.9899604809214],[21.8818694388133,65.9910675429134],[21.891141631574804,66.0017016340875],[21.904183792713198,65.99793397967458],[21.90936741921629,66.00144916753429],[21.9397789769298,66.0373050184822],[21.976953008268705,66.0559959446863],[22.0136293703421,66.060586026915],[22.008230583841296,66.0732173389712],[22.03626337152649,66.07013388903128],[22.031109857638803,66.084658157566],[22.0752369731055,66.0868844742421],[22.0707176330452,66.1107419882898],[22.023158573970804,66.1084767489971],[22.019765175093,66.1222348233079],[21.9896575247406,66.1499909292725],[21.9693138541253,66.1547301389187],[21.977829529293,66.1604656431384],[21.9911464010627,66.1545775312495],[22.0186204915664,66.1571845854618],[22.025602041348794,66.17362274623329],[22.0245274758744,66.1740364058636],[22.061481738896205,66.1834315481004],[22.031560542394896,66.20273806971629],[22.032294415898,66.2091895612814],[22.026533323426996,66.2400808919396],[22.082437394802795,66.25470118485988],[22.064257672773497,66.26793824771369],[22.066735658005197,66.26846193842759],[22.069024407766,66.2668729694828],[22.146396801063197,66.28328406772708],[22.235164819125,66.21586746503289],[22.3321639696796,66.1408160613996],[22.412222427763496,66.07624992296029],[22.417919584043393,66.0691376874087],[22.4252049166363,66.0644031205579],[22.4261201500315,66.0647297179114],[22.4888737950768,65.99186633735212],[22.5419988865425,65.9562887138297],[22.5386986646834,65.9416945515295],[22.537764972505403,65.9337743235569],[22.5433473916104,65.9265674236356],[22.540809614661292,65.92613780531678],[22.540710382478096,65.92524051917978],[22.542537171285296,65.92442508927408],[22.545049391241903,65.9243586643289],[22.55804323216899,65.90731222288468],[22.577316257088295,65.8751080278079],[22.5758580737733,65.87466723085278],[22.576707119680897,65.87437791295],[22.577513074477796,65.87476611325579],[22.5945675238464,65.8451561656616],[22.620921646535795,65.80538094715318],[22.620469094035304,65.8034982642763],[22.6215561552198,65.80289743083982],[22.622434215880606,65.8030876421507],[22.6312975495707,65.7903427182051],[22.639986277471895,65.78703463672049],[22.645386917472894,65.78236438831038],[22.6575697113765,65.7756053006684],[22.6466010174261,65.7675209826933],[22.629626611492498,65.76057883753],[22.604195119519396,65.74896748549598],[22.636865963714005,65.73790735481191],[22.6519919525198,65.7256029751429],[22.692209173666996,65.73394201467839],[22.7107938778677,65.7308010551863],[22.7169667140691,65.7103161878469],[22.7354728450427,65.7111853927368],[22.7390399327984,65.7110226303001],[22.745418013632495,65.709109227441],[22.747244315396795,65.7065474501637],[22.747715649125997,65.69814462065249],[22.8019485963681,65.6980889054477],[22.834625625970205,65.691171722962],[23.043952659174895,65.41743683403658],[23.1383421263494,65.2880901187065],[23.089750185962696,65.28445681869319],[23.089006707861,65.2686634456045],[23.085865544434196,65.25481330335228],[23.083434648887803,65.24793025256491],[23.07686374182269,65.23429273268009],[23.068049187509,65.22088028001592],[23.062814772555996,65.214278717246],[23.050723183384996,65.20132545108389],[23.036523732882095,65.1887561530205],[23.0286527983404,65.1826346123978],[23.011423917751596,65.1707541953058],[23.002086021599,65.1650103332603],[22.982021613701995,65.1539487475862],[22.971321041627803,65.14864482772902],[22.9486418863903,65.1385205351859],[22.924360538612298,65.1290836625267],[22.8985886497093,65.1203780521599],[22.885184620758892,65.11631308182429],[22.8574198396373,65.1087830198622],[22.8284889099152,65.1020815640313],[22.7985321811466,65.0962403480897],[22.767695334584204,65.0912889661128],[22.736125520193397,65.0872488627787],[22.703969492420804,65.0841417016372],[22.671386243666497,65.08198038309648],[22.6385276832449,65.0807765653101],[22.605549814407997,65.0805345870311],[22.572612357522697,65.08125691168058],[22.5398709130982,65.0829391987179],[22.5236222511317,65.0841381956597],[22.4989570328592,65.0864342959367],[22.4512775467598,65.06965380799399],[22.3200684113133,65.1466372251174],[21.9374845157948,65.3623116230953],[21.9150641694213,65.3981372872711],[21.8965430369557,65.4098674252637],[21.8968804845521,65.4102418579027],[21.896177249983197,65.41091905670498],[21.8947113936792,65.41103211407068],[21.8261066450842,65.4547489334365],[21.734500089379296,65.47982736795579],[21.7006410660238,65.4950666143222],[21.706055212681303,65.49519595083632],[21.7080442931098,65.4961800488123],[21.7067212813019,65.49719399633298],[21.701115315187,65.4978391591672],[21.697079318894,65.4966573130568],[21.6859942841095,65.5015726409177],[21.6864094150001,65.501752532776],[21.6842604961126,65.5023431873278],[21.6727462692944,65.50745750230858],[21.563362891365195,65.5565632445219],[21.5045049055753,65.5841246608306],[21.489871940594995,65.5913153872518],[21.395991675803796,65.61943996494709],[21.386430326032702,65.61782374544981],[21.379988116776097,65.64569702250138],[21.335719604672796,65.67162222320219]]],[[[21.524223731461497,65.71809165137529],[21.5260591189458,65.71809572262879],[21.5277943284596,65.7174652397687],[21.5259091274321,65.7180185513329],[21.5241088871725,65.7179946513131],[21.523232261985896,65.71816634995758],[21.521586824287304,65.7189465378717],[21.520885177375398,65.71956122924028],[21.51798477680749,65.72022260684409],[21.5135557852106,65.72189692742522],[21.5210012337992,65.7196422847861],[21.522288109745,65.7187110624882],[21.524223731461497,65.71809165137529]]],[[[21.511976763955094,65.72527998824748],[21.514221885422295,65.72525312863588],[21.5144367960467,65.72500353718341],[21.513861563113597,65.72404205580189],[21.511724560470203,65.72233044802302],[21.512236667539895,65.72203538624929],[21.5115364764624,65.7223827361514],[21.513748585569093,65.72416388002759],[21.5138216321856,65.7251695376312],[21.5120381408754,65.7251267663969],[21.510283993389898,65.7272442708166],[21.509332846905103,65.7272928736911],[21.508370961821097,65.72800840091789],[21.506599891557496,65.72783895322299],[21.506056605820895,65.72803268556788],[21.5065499009826,65.7284354415375],[21.5053201246879,65.7287828682789],[21.508362808624398,65.72811935378618],[21.5108579931847,65.7269878268874],[21.511976763955094,65.72527998824748]]],[[[21.845237731905595,65.891344196449],[21.846843530175,65.8914889233813],[21.8474079185891,65.8908136650249],[21.8451403786534,65.8907090369999],[21.845237731905595,65.891344196449]]]]}}]}