{"type":"FeatureCollection","properties":{"source":"SMHI SE.SR Ytansamling av alger","date":"2014-07-13","note":"Test: SMHI WFS clipped to Lulea municipal sea area and simplified 20 m."},"features":[{"type":"Feature","properties":{"cyano_daymap_file_id":3699,"date":"2014-07-13Z","cloud":null,"sub_surfac":null,"surface":null,"no_data":null,"class":1,"color_hex":null,"algae_class":"class_1","source_date":"2014-07-13"},"geometry":{"type":"Polygon","coordinates":[[[22.848568079999996,65.65624285999999],[22.852204776378663,65.66818364201137],[22.861863682538754,65.65555278605169],[22.848568079999996,65.65624285999999]]]}}]}