{"type":"FeatureCollection","properties":{"source":"SMHI SE.SR Ytansamling av alger","date":"2014-06-28","note":"Test: SMHI WFS clipped to Lulea municipal sea area and simplified 20 m."},"features":[{"type":"Feature","properties":{"cyano_daymap_file_id":3684,"date":"2014-06-28Z","cloud":null,"sub_surfac":null,"surface":null,"no_data":null,"class":1,"color_hex":null,"algae_class":"class_1","source_date":"2014-06-28"},"geometry":{"type":"Polygon","coordinates":[[[22.02071346,65.34518285],[22.018327840000005,65.33627774000001],[22.0609549,65.33427914],[22.06335472,65.34318344],[22.07594898720841,65.34258743314166],[22.07591245894513,65.34206503739361],[22.078560072280982,65.34067782450352],[22.080595424100174,65.34022116801209],[22.08111799241752,65.34055722235658],[22.07993527720462,65.3409736871048],[22.081503044281206,65.34198185095023],[22.08132441828557,65.34233304805234],[22.148615659999994,65.33914858],[22.146187470000005,65.33024593000002],[22.12488204,65.33125873],[22.12246275,65.3223556],[22.10116259,65.323365],[22.09875219,65.3144614],[22.05616065,65.31647037],[22.051373549999997,65.29866137],[22.050304396119884,65.29871156032718],[21.98054205445255,65.33803875422338],[21.997011629999996,65.33727253],[21.99939015,65.34617805],[22.02071346,65.34518285]],[[22.07448272237156,65.339968240736],[22.07618797446404,65.33988789062664],[22.07628416347532,65.34024405175009],[22.075431527513626,65.34028422986289],[22.0728318594314,65.34184947081592],[22.071552816873293,65.34190970769025],[22.07093421737205,65.34121745410972],[22.07448272237156,65.339968240736]],[[22.016873163155733,65.34086783089761],[22.0164467807809,65.34088775282585],[22.01639908915397,65.34070964929654],[22.016873163155733,65.34086783089761]]]}}]}