{"type":"FeatureCollection","properties":{"source":"SMHI SE.SR Ytansamling av alger","date":"2021-06-09","note":"Test: SMHI WFS clipped to Lulea municipal sea area and simplified 20 m."},"features":[{"type":"Feature","properties":{"cyano_daymap_file_id":4390,"date":"2021-06-09Z","cloud":null,"sub_surfac":null,"surface":null,"no_data":null,"class":1,"color_hex":null,"algae_class":"class_1","source_date":"2021-06-09"},"geometry":{"type":"MultiPolygon","coordinates":[[[[22.018327840000005,65.33627774000001],[22.013785964571415,65.31929813187809],[21.980542732382286,65.3380383720534],[22.018327840000005,65.33627774000001]]],[[[22.051373549999997,65.29866137],[22.051244700618092,65.29818148154199],[22.050304396119884,65.29871156032718],[22.051373549999997,65.29866137]]]]}},{"type":"Feature","properties":{"cyano_daymap_file_id":4390,"date":"2021-06-09Z","cloud":null,"sub_surfac":null,"surface":null,"no_data":null,"class":1,"color_hex":null,"algae_class":"class_1","source_date":"2021-06-09"},"geometry":{"type":"Polygon","coordinates":[[[22.275518839999997,65.25187235],[22.273057659999996,65.24297209],[22.29428501,65.24193909],[22.289354099999994,65.22413922],[22.246925650000005,65.22620056],[22.24447697,65.2172997],[22.202055259999998,65.21934826],[22.209364629999996,65.24605316],[22.251828469999996,65.24400209999999],[22.25428262,65.25290278],[22.275518839999997,65.25187235]]]}}]}