{"type":"FeatureCollection","properties":{"source":"SMHI SE.SR Ytansamling av alger","date":"2013-06-26","note":"Test: SMHI WFS clipped to Lulea municipal sea area and simplified 20 m."},"features":[{"type":"Feature","properties":{"cyano_daymap_file_id":3589,"date":"2013-06-26Z","cloud":null,"sub_surfac":null,"surface":null,"no_data":null,"class":1,"color_hex":null,"algae_class":"class_1","source_date":"2013-06-26"},"geometry":{"type":"Polygon","coordinates":[[[22.077457319999997,65.31546737999999],[22.072656059999996,65.29765919999998],[22.051373549999997,65.29866137],[22.051244700618092,65.29818148154199],[22.0154139687807,65.31838037545428],[22.077457319999997,65.31546737999999]]]}}]}