{"type":"FeatureCollection","properties":{"source":"SMHI SE.SR Ytansamling av alger","date":"2022-06-26","note":"Test: SMHI WFS clipped to Lulea municipal sea area and simplified 20 m."},"features":[{"type":"Feature","properties":{"cyano_daymap_file_id":723529,"date":"2022-06-26Z","cloud":null,"sub_surfac":null,"surface":null,"no_data":null,"class":1,"color_hex":null,"algae_class":"class_1","source_date":"2022-06-26"},"geometry":{"type":"Polygon","coordinates":[[[22.731218990000002,65.3373315],[22.72335075,65.31065876],[22.70208904,65.31175285],[22.69686738,65.29396981],[22.654366269999993,65.29614723999998],[22.65177241,65.28725473],[22.60927762,65.28941933],[22.61185742,65.29831272],[22.5906001,65.29939096999999],[22.59317478,65.30828473],[22.61443913,65.30720604],[22.61960835,65.32499249],[22.640884869999997,65.32390992],[22.643479419999995,65.33280261],[22.664761060000004,65.33171661],[22.667364609999996,65.34060878999999],[22.731218990000002,65.3373315]]]}},{"type":"Feature","properties":{"cyano_daymap_file_id":723529,"date":"2022-06-26Z","cloud":null,"sub_surfac":null,"surface":null,"no_data":null,"class":1,"color_hex":null,"algae_class":"class_1","source_date":"2022-06-26"},"geometry":{"type":"Polygon","coordinates":[[[22.829629879999995,65.30514352999998],[22.826975900000004,65.29625472999999],[22.848218789999994,65.29514317999998],[22.84024766,65.26847774],[22.81902581,65.26958794],[22.813735600000005,65.25180974000001],[22.792525779999995,65.25291606],[22.789890619999994,65.24402640999999],[22.76868584,65.2451293],[22.771314,65.2540194],[22.728884580000003,65.25621713],[22.731500689999997,65.26510805999999],[22.689049460000003,65.26729476],[22.694259459999994,65.28507818999998],[22.715500080000005,65.28398544],[22.71811502,65.29287661],[22.76060445,65.29068127000001],[22.76323538999999,65.29957147999998],[22.805731030000004,65.2973633],[22.808377990000004,65.30625255],[22.829629879999995,65.30514352999998]]]}}]}