{"type":"FeatureCollection","properties":{"source":"SMHI SE.SR Ytansamling av alger","date":"2022-08-16","note":"Test: SMHI WFS clipped to Lulea municipal sea area and simplified 20 m."},"features":[{"type":"Feature","properties":{"cyano_daymap_file_id":723438,"date":"2022-08-16Z","cloud":null,"sub_surfac":null,"surface":null,"no_data":null,"class":1,"color_hex":null,"algae_class":"class_1","source_date":"2022-08-16"},"geometry":{"type":"MultiPolygon","coordinates":[[[[22.597417762536676,65.66001980146515],[22.5971341237034,65.65986942756122],[22.599784697643834,65.65847305126677],[22.605388034788593,65.65819186445663],[22.607007218565386,65.65774958297324],[22.608408500339948,65.65772775256808],[22.601053909999997,65.63276565999999],[22.62258308,65.63168309],[22.619959619999996,65.62279032],[22.598437690000004,65.62387245],[22.596524194595027,65.61736055113498],[22.594796600531687,65.6177518950285],[22.592970645632647,65.61748255429806],[22.591784055205075,65.61790307167274],[22.590010350658712,65.61781156307319],[22.589841140692666,65.61872249329326],[22.588224052041816,65.6191645704468],[22.588054773165346,65.62007549937881],[22.58686798448904,65.62049598030467],[22.583855065606063,65.6206470032387],[22.582837654190474,65.62015652738513],[22.580411682476175,65.62081952807027],[22.5805160319372,65.62117527296496],[22.577933426800033,65.6213046177503],[22.576916098547755,65.62081410133426],[22.57417711329062,65.62040975962132],[22.574190498082235,65.61896521609404],[22.573655849707563,65.61863100775652],[22.57203848046066,65.61907291516523],[22.571191223466013,65.61767144132155],[22.568830949126124,65.6170675877379],[22.568518449452604,65.61600032321682],[22.56760565685238,65.61586549555139],[22.566758753109266,65.6144639934007],[22.56498535572625,65.61437218903345],[22.565637795465292,65.61361763974656],[22.56434682718036,65.61368218759222],[22.5628997410249,65.61321308499426],[22.562431451011374,65.61161216503515],[22.560710278343805,65.61169818879615],[22.557816511255226,65.61075989630864],[22.557712522682994,65.61040413219183],[22.55487097970612,65.6096436632418],[22.552793608319604,65.60810595698885],[22.52867691,65.60931135000001],[22.53645455,65.63599516999999],[22.514917509999997,65.6370656],[22.517506729999997,65.64596052],[22.539051019999995,65.64488964999998],[22.54424984,65.66267841999999],[22.597417762536676,65.66001980146515]]],[[[22.596149877561686,65.61608669667041],[22.595291444962157,65.61646362646896],[22.595395976935464,65.6168193592591],[22.59635107810311,65.61677141092366],[22.596149877561686,65.61608669667041]]]]}},{"type":"Feature","properties":{"cyano_daymap_file_id":723438,"date":"2022-08-16Z","cloud":null,"sub_surfac":null,"surface":null,"no_data":null,"class":1,"color_hex":null,"algae_class":"class_1","source_date":"2022-08-16"},"geometry":{"type":"MultiPolygon","coordinates":[[[[22.159373830810974,65.4829301167246],[22.16010109406211,65.48255000500333],[22.163578527868747,65.48256521187068],[22.162835497589047,65.48276635155487],[22.166288209999998,65.48260300999999],[22.165171454855635,65.47854574736242],[22.163933043671076,65.47912131091317],[22.160554024115974,65.47946219683602],[22.160223470430914,65.4798386360785],[22.159366445028695,65.47987933292693],[22.16045606914763,65.47910610773677],[22.160358117122996,65.47875001854423],[22.15907263177758,65.47881106262652],[22.158546209065847,65.4784753176172],[22.158876770992364,65.4780988819597],[22.159733739002746,65.47805818844745],[22.15939097078324,65.47681187371754],[22.1576281596894,65.47671520551764],[22.154726764370746,65.47721366225572],[22.155057366903215,65.4768372345566],[22.153711175364148,65.47509742940115],[22.154996493408277,65.47503643256728],[22.154898634070733,65.47468033892034],[22.15659443534029,65.47404457232008],[22.14241659,65.47471731000002],[22.141543096586677,65.47152592014137],[22.14006535777732,65.4712351944321],[22.13840060094243,65.47149440322232],[22.137261816182566,65.47208941905511],[22.135927798837773,65.47197220977445],[22.136735810162417,65.47175359399267],[22.13663821407695,65.47139748595924],[22.137923398463645,65.471336635696],[22.139062135993186,65.47074161533003],[22.13896451282047,65.4703855090597],[22.1406291936174,65.4701262947909],[22.140862272633342,65.46939379191055],[22.140005552867724,65.46943437596082],[22.139907922753025,65.46907827036323],[22.1408824926517,65.4691123418974],[22.14044424716036,65.46751117101813],[22.13946862353047,65.46747579402472],[22.138845080522202,65.46678386943431],[22.1403058863933,65.46700565701872],[22.130769079375295,65.43216204087143],[22.130771905139163,65.43253643923],[22.12915815232569,65.43297358075637],[22.126932007208083,65.4343414966246],[22.126076406840813,65.43438199078435],[22.1204856065691,65.43771258553863],[22.11801562133037,65.43819007160353],[22.11493266381673,65.43959826571528],[22.111937370911555,65.43973974258519],[22.110838812614016,65.43888982982018],[22.110498987936854,65.43764337543296],[22.11162784588727,65.43542578270268],[22.11128803798546,65.43417932988294],[22.110335343752055,65.43386360531014],[22.10905191906754,65.43392420378258],[22.108615217422255,65.43232161206956],[22.110793638813877,65.43077589360676],[22.112932411409325,65.43067486800477],[22.112116346452027,65.42927055976025],[22.111163824627518,65.4289548387241],[22.111203319771597,65.42751011631464],[22.107869859392267,65.42640504261222],[22.1057314113882,65.42650599328856],[22.10549766016591,65.42723844870389],[22.103932268782707,65.42785338877873],[22.102124472349455,65.42757797122323],[22.102737553640743,65.42664727359907],[22.1070057189097,65.42482263623135],[22.1086105048389,65.42276294341823],[22.108486077180043,65.42221379531443],[22.1064161,65.42231167],[22.103992920000003,65.4134083],[22.024375873811092,65.41714372042433],[22.024523707758167,65.41769323116338],[22.02328874333583,65.41793119340686],[22.023384560540926,65.418287391502],[22.02428774177108,65.41842558164005],[22.02091453157706,65.41876328817729],[22.021856994441134,65.41726189955676],[22.01848254,65.41742022],[22.018304208131322,65.41675629041899],[22.016966824612837,65.41696370360002],[22.016682789470792,65.4175179426461],[22.014164858359706,65.41781562754635],[22.014021324476957,65.41728131974907],[22.014828725823197,65.41706336213178],[22.016012789887736,65.4150245179115],[22.017715564117495,65.41456476864353],[22.017455754254303,65.41359749647344],[22.01605756015209,65.41357977077665],[22.0168169776374,65.41318370184868],[22.017088412042533,65.41222988134913],[22.01369871,65.39961001999998],[21.94958992,65.40258488],[21.9472221,65.39367848],[21.925856079999996,65.39466366999999],[21.92821676,65.40357047],[21.92166958824246,65.40387143580598],[21.91962490653506,65.404159921229],[21.921096135068712,65.40481349627143],[21.920571395713328,65.4060997868878],[21.921426452183322,65.40606046341271],[21.921520834869195,65.40641673954045],[21.920665766967115,65.40645606365919],[21.919144327939865,65.40724725328165],[21.919663325781695,65.40920678005902],[21.923414422078523,65.41029643510255],[21.926313102450884,65.40980244877713],[21.927595851385163,65.40974341134243],[21.92902034439045,65.41021876851227],[21.930255846868082,65.40998157327687],[21.930350366443594,65.41033784254809],[21.93206071717197,65.41025907757084],[21.93224981056835,65.41097161326941],[21.930681207281612,65.41158478430167],[21.931203354089828,65.41192136228914],[21.929967770047117,65.412158566056],[21.93048991966645,65.41249514648385],[21.928873928356882,65.41293016534418],[21.929443340807055,65.41344488442915],[21.928160415997546,65.41350393924874],[21.928349431783264,65.4142164805364],[21.927494122156176,65.41425584567514],[21.92763587427767,65.41479025237584],[21.928585717461104,65.41510715664919],[21.928299820034216,65.41566124651332],[21.926636350679644,65.41591810819392],[21.92677809619377,65.41645251574852],[21.925922710838822,65.41649187269306],[21.92606444556848,65.41702628101562],[21.924495338810708,65.41763939242055],[21.92458981354009,65.41799566568152],[21.921973529494746,65.41955845341727],[21.921354132985922,65.42048847328367],[21.919737498209628,65.4209234002841],[21.91878461910992,65.42222934768007],[21.91716783416374,65.42266424855073],[21.913742165416465,65.4244443467107],[21.9121955464954,65.42478809792426],[21.916230076517074,65.44001682984049],[21.917849371448,65.43994249113567],[21.920990449624362,65.43871636357524],[21.926555174991382,65.43846059378893],[21.927269373877078,65.43788682120537],[21.928886912117836,65.43745180503112],[21.930599036821597,65.43737303983357],[21.931549750044322,65.43768991705865],[21.931739068834094,65.43840245092855],[21.930216165349723,65.43919376575407],[21.93071836937878,65.43951713498889],[21.93564964458258,65.43929038223008],[21.936019488574875,65.43820541959494],[21.93732050919981,65.43785542393958],[21.93530943,65.43029056],[21.957309816775805,65.42927421888037],[21.95804126003761,65.42817387839571],[21.959610179551568,65.42756041994332],[21.959848029710177,65.4268281530967],[21.96075119324169,65.42696672383265],[21.961892155415285,65.42637301957798],[21.962367697470956,65.42490847978841],[21.96517214915262,65.42405749477713],[21.96536229024531,65.42314709983381],[21.967501111343484,65.4230481357489],[21.96906950295484,65.42243458391556],[21.970209818419487,65.42021794394546],[21.972633382378106,65.41956474894],[21.973726182871875,65.41879284242226],[21.974581556211056,65.41875321447021],[21.974486399461266,65.41839697914091],[21.975435557521255,65.41835299956401],[21.973338029999997,65.41050221],[21.994714769999998,65.40951018999999],[21.99869572397183,65.42435388562212],[22.002197549117017,65.42324168059675],[22.00276862369443,65.42375610648438],[21.99910490183462,65.42587957813039],[21.99992502213414,65.428937542675],[22.00211103172184,65.42937689428081],[22.003346732874896,65.42913909843686],[22.004297996714005,65.42945551194916],[22.00558149327507,65.42939580394098],[22.006532792871845,65.42971220301767],[22.00677190245104,65.43060272874264],[22.004350632689068,65.43287932855175],[22.004637519312784,65.4339479639063],[22.002213470369227,65.4346016776201],[22.002452487164092,65.43549221101583],[22.00170937387086,65.43559081579748],[22.00202677644738,65.43677430781194],[22.00278714080787,65.43673895682582],[22.00378649730473,65.43723347727922],[22.004974724186063,65.43681755875313],[22.00711447908782,65.43671802405571],[22.007210159573926,65.43707423363658],[22.004977201229504,65.43844041328194],[22.004788360286714,65.43935084533909],[22.002886586549394,65.43998026285124],[22.00426818,65.44513178],[22.005747640866367,65.44453580733682],[22.00694939835831,65.44500692741],[22.02567174,65.44413511],[22.030473550000004,65.46194475],[22.05188964,65.46094424],[22.05671301,65.47875283000002],[22.099568449999992,65.47674111],[22.101997219999998,65.48564449999999],[22.159373830810974,65.4829301167246]],[[22.04779933340676,65.44582038486338],[22.045993895398794,65.44590484423306],[22.04522900126838,65.44467823536307],[22.04598884573349,65.4442820156005],[22.04584448783832,65.44374774628704],[22.047144168582676,65.44339683351399],[22.047073500000003,65.44313542],[22.050745393590294,65.44296337079324],[22.052024034145635,65.44255686519288],[22.05330804030557,65.44249674625071],[22.05307160153997,65.44285437465199],[22.06847345,65.44213271],[22.070887779999996,65.45103673999999],[22.049480659999997,65.45203985999999],[22.04779933340676,65.44582038486338]],[[22.159672537205097,65.48257035411753],[22.159623558321208,65.48239230930895],[22.16005211230778,65.4823719603616],[22.159672537205097,65.48257035411753]],[[22.15434722084535,65.47741204233463],[22.153918742729164,65.47743237436313],[22.15382088723046,65.4770762799886],[22.15434722084535,65.47741204233463]],[[22.138709569366117,65.46787247626617],[22.13737576275769,65.46775527771962],[22.137326969002483,65.46757722386896],[22.138611963918272,65.46751636958555],[22.138709569366117,65.46787247626617]],[[22.132698517023353,65.45859780400912],[22.132747259094742,65.45877585987313],[22.132319065648662,65.45879612787408],[22.132698517023353,65.45859780400912]],[[22.131413943085814,65.45865860389205],[22.131744664644255,65.45828222600984],[22.13227032644266,65.45861807184401],[22.131413943085814,65.45865860389205]],[[22.05964247505544,65.45788993229239],[22.059690718855073,65.45806801644433],[22.059262468998895,65.45808807779089],[22.05964247505544,65.45788993229239]],[[22.056173990317813,65.45949512386726],[22.053604320777488,65.45961541551621],[22.053031433182188,65.45910119996348],[22.051698420056248,65.45898323719848],[22.051602037791795,65.45862706276466],[22.054358839543667,65.45759632826329],[22.053834185927258,65.457260201679],[22.052597651857766,65.45749841893378],[22.05202483260584,65.45698419889048],[22.052784919612982,65.4565879426433],[22.054117814292255,65.45670589696029],[22.053785983743982,65.45708211525415],[22.054738876532813,65.45739819480764],[22.056451843241728,65.45731799376884],[22.056307185086748,65.45678373745145],[22.057115423224822,65.45656554551611],[22.057971876403087,65.45652543423502],[22.058116566787753,65.45705968864873],[22.058973034269776,65.45701957155111],[22.059594231980288,65.45771184811765],[22.056173990317813,65.45949512386726]],[[22.045315231165834,65.44178875705595],[22.04474787639719,65.44289733403122],[22.042703980835157,65.4433535876329],[22.04293961554615,65.44262121180614],[22.045315231165834,65.44178875705595]],[[22.005782797723796,65.43659964318124],[22.005354848888857,65.4366195487509],[22.005307021893422,65.43644144325202],[22.005782797723796,65.43659964318124]],[[22.004305241593475,65.43432407775504],[22.00435305711434,65.43450218368679],[22.003925141200206,65.43452208488684],[22.004305241593475,65.43432407775504]],[[22.002816405489448,65.42393421325346],[22.002864188001215,65.42411232000015],[22.002436440207596,65.42413221536913],[22.002816405489448,65.42393421325346]],[[21.97310417628309,65.40187142839747],[21.972676763585373,65.40189123617407],[21.972629234728906,65.40171311739624],[21.97310417628309,65.40187142839747]],[[21.966883046507068,65.41748681380568],[21.967310718493803,65.41746701998146],[21.96735824576563,65.41764514040742],[21.966883046507068,65.41748681380568]],[[21.96906893802252,65.4175659524027],[21.96935398673448,65.41701179347288],[21.970209310002367,65.41697219079536],[21.97134995060338,65.41800129703047],[21.970399497730856,65.41768466800569],[21.970209561422962,65.41859506741753],[21.96935418525617,65.41863467060082],[21.96859388291323,65.41903050882942],[21.9691166637471,65.41936694938468],[21.9678335576909,65.41942634344129],[21.967976165170512,65.4199607039169],[21.967120740407477,65.42000029489662],[21.96731087081371,65.42071277651524],[21.966788085013274,65.42037632975529],[21.965504923221744,65.42043570453295],[21.964934583930244,65.42154400954729],[21.964079101994948,65.421583583821],[21.96422164718674,65.42211794842235],[21.963033409718523,65.42253354617229],[21.962130389150758,65.42239498772653],[21.96056183320336,65.42300846897263],[21.95908859272985,65.42235529857138],[21.958946150527034,65.42182092814028],[21.96008693647206,65.42122723917043],[21.959991965673773,65.420870992943],[21.96084743182857,65.42083144200046],[21.96113268723752,65.42027729666906],[21.962368353889335,65.42003983680534],[21.962273357313915,65.4196835922539],[21.96422186836955,65.41887218839406],[21.964507032912554,65.41831803753189],[21.965504957213653,65.41881282522733],[21.96745330244774,65.41800138119248],[21.96735824576563,65.41764514040742],[21.96906893802252,65.4175659524027]],[[21.961702374587134,65.42403764901408],[21.962415417226666,65.42346372105374],[21.9626529602212,65.42435433154758],[21.961702374587134,65.42403764901408]],[[21.960894303304798,65.42425532851017],[21.961322091096758,65.42423555056554],[21.961369592537,65.42441367310568],[21.960894303304798,65.42425532851017]],[[21.961369592537,65.42441367310568],[21.962272679581478,65.42455223546727],[21.96141709468986,65.42459179562353],[21.961369592537,65.42441367310568]],[[21.96075181184347,65.42372096027047],[21.960324031922916,65.42374073652296],[21.9602765390554,65.42356261356994],[21.96075181184347,65.42372096027047]],[[21.960704000512997,65.4251657193459],[21.960276196988488,65.42518549568742],[21.96018120628887,65.42482924979134],[21.960704000512997,65.4251657193459]],[[21.96065682109847,65.42336471466605],[21.960229046900338,65.42338449059469],[21.96018155545771,65.42320636759719],[21.96065682109847,65.42336471466605]],[[21.960561506947737,65.42463135095419],[21.96013371200785,65.42465112680992],[21.960086218439322,65.42447300380627],[21.960561506947737,65.42463135095419]],[[21.95965842564841,65.42449277829367],[21.959230632145054,65.42451255157467],[21.9591356585911,65.42415630485291],[21.95965842564841,65.42449277829367]],[[21.931725514461107,65.41225793833763],[21.931297894975824,65.41227763075204],[21.931250624178396,65.41209949653165],[21.931725514461107,65.41225793833763]],[[21.93015682317871,65.41287110473914],[21.930251353997214,65.41322737394819],[21.929823717379797,65.4132470623448],[21.93015682317871,65.41287110473914]],[[21.92930617338041,65.40966467788203],[21.928878593944276,65.4096843630558],[21.928831345212526,65.40950622785948],[21.92930617338041,65.40966467788203]],[[21.928403767926554,65.40952591166636],[21.92797618993216,65.40954559426748],[21.927928947626075,65.40936745872688],[21.928403767926554,65.40952591166636]],[[21.923472361815808,65.40398295439691],[21.922617376705528,65.40402228879803],[21.922570182775722,65.40384415110236],[21.923472361815808,65.40398295439691]],[[21.921901173204212,65.40621893778074],[21.922328702528365,65.40619927286828],[21.922375899941088,65.40637741059922],[21.921901173204212,65.40621893778074]],[[21.922375899941088,65.40637741059922],[21.922850632394006,65.40653588186815],[21.92242309806145,65.40655554830815],[21.922375899941088,65.40637741059922]],[[21.922115203824394,65.42009286599583],[21.92216243001775,65.4202710034779],[21.92173467126654,65.42029067009295],[21.922115203824394,65.42009286599583]],[[21.92140135487325,65.42066661104366],[21.92144857746897,65.42084474878163],[21.921020808716612,65.42086441346689],[21.92140135487325,65.42066661104366]],[[21.916331991891848,65.43748785731036],[21.91590394696239,65.43750751009489],[21.915856725746607,65.43732937065964],[21.916331991891848,65.43748785731036]]],[[[22.12779631,65.42130075000001],[22.123000345107272,65.42152751750272],[22.118406646470856,65.42374286785369],[22.115510280934515,65.42424052265271],[22.115228273468745,65.42479492694343],[22.113945306159813,65.4248555625929],[22.11404238483726,65.42521169046563],[22.11242878743225,65.4256486515486],[22.112622913619475,65.42636090947975],[22.113147669069022,65.42669683079731],[22.11400304286234,65.42665641216101],[22.114576369616163,65.4271703921174],[22.115061886778363,65.42895102756198],[22.11639361559664,65.42906844341641],[22.116490746376993,65.42942456918954],[22.119008524298735,65.42912517764101],[22.120865190717925,65.4295784513338],[22.120962384501542,65.429934573611],[22.122245580635578,65.42987387604487],[22.122148369699964,65.42951775476143],[22.124043900712746,65.42852627022255],[22.12489931384639,65.42848578941268],[22.125560222622926,65.42773306643862],[22.126843298180006,65.42767233093683],[22.127552766945392,65.42709765881148],[22.12926424280953,65.42666397977372],[22.12779631,65.42130075000001]]],[[[22.058737743011626,65.45775196894556],[22.058309497440693,65.45777202754802],[22.058357731914754,65.45795011221588],[22.058737743011626,65.45775196894556]]]]}},{"type":"Feature","properties":{"cyano_daymap_file_id":723438,"date":"2022-08-16Z","cloud":null,"sub_surfac":null,"surface":null,"no_data":null,"class":1,"color_hex":null,"algae_class":"class_1","source_date":"2022-08-16"},"geometry":{"type":"MultiPolygon","coordinates":[[[[21.98786492545015,65.36474332410602],[21.989219990824694,65.3634356676513],[21.99087950924189,65.36317815355578],[21.991163567490627,65.36262396249597],[21.993392516153744,65.3628809046245],[21.99533592062236,65.36206914726492],[21.998227890846362,65.36157384286163],[21.99851177764927,65.3610196395843],[22.001451203587507,65.36070238468116],[22.001546472934237,65.3610586021952],[22.002826639458565,65.36099894961062],[22.002921928728046,65.36135516606001],[22.001689382300857,65.3615929282981],[22.001832298083674,65.36212725419921],[22.00381667847385,65.36273287499597],[21.99939015,65.34617805],[22.02071346,65.34518285],[22.015944,65.32737256],[21.997980377194708,65.32820823128917],[21.9374845157948,65.3623116230953],[21.934413407295562,65.36721904176783],[21.98786492545015,65.36474332410602]],[[22.016873163155733,65.34086783089761],[22.0164467807809,65.34088775282585],[22.01639908915397,65.34070964929654],[22.016873163155733,65.34086783089761]]],[[[22.004152529999995,65.36398893],[22.00404850772496,65.36359989589144],[22.00306696294481,65.36351235054524],[22.00320619790547,65.36403276132906],[22.004152529999995,65.36398893]]]]}}]}