{"type":"FeatureCollection","properties":{"source":"SMHI SE.SR Ytansamling av alger","date":"2022-08-07","note":"Test: SMHI WFS clipped to Lulea municipal sea area and simplified 20 m."},"features":[{"type":"Feature","properties":{"cyano_daymap_file_id":723429,"date":"2022-08-07Z","cloud":null,"sub_surfac":null,"surface":null,"no_data":null,"class":1,"color_hex":null,"algae_class":"class_1","source_date":"2022-08-07"},"geometry":{"type":"MultiPolygon","coordinates":[[[[22.713990669999994,65.64510420999999],[22.706027530000004,65.61843148],[22.662997559999997,65.62061695999999],[22.66036163,65.61172502],[22.70337716,65.60954043],[22.69543802,65.58286691],[22.654719734119926,65.58493436484848],[22.65515690618363,65.58709243822717],[22.65402482874259,65.5876912844015],[22.654182622619526,65.58822481234542],[22.65341692685904,65.58826358040943],[22.65403682668479,65.59035870667088],[22.65782390487101,65.59020647360126],[22.658473375696207,65.58945154312497],[22.659333352415164,65.5894079721796],[22.660342428711015,65.59134242607973],[22.659157651574052,65.59176347117398],[22.65893818638413,65.59249661945864],[22.657805969612067,65.5930954953415],[22.655708331316166,65.5933822370093],[22.655813577190223,65.59373792065847],[22.65504812640571,65.59377667924561],[22.656784568357427,65.59964547446602],[22.65786650610063,65.60067373090884],[22.65708153311518,65.60064915060342],[22.65772769,65.60283302],[22.652903601385162,65.60307694420923],[22.65311822056337,65.6038022071627],[22.647790195935794,65.60497425420513],[22.647623076254135,65.60588522714701],[22.64643791733257,65.60630615734911],[22.644717432564526,65.60639312757365],[22.643752041073586,65.60608091238983],[22.641548881675124,65.60601173654173],[22.641759112617667,65.6067231261606],[22.64353220240711,65.60681403578923],[22.64181167233497,65.60690097350015],[22.641056512803242,65.60730013039728],[22.639933487460684,65.60645434757387],[22.639020688643203,65.60631994989593],[22.639345732131194,65.60594252857489],[22.641013656674357,65.6056777717223],[22.63951314334487,65.60503156178564],[22.639733083866233,65.604298443185],[22.641778433378594,65.60383410482507],[22.64236618588395,65.60434591441272],[22.643226366896535,65.60430244571127],[22.643551325116615,65.60392501625094],[22.646614473081485,65.60395067703857],[22.6469393774634,65.60357324086739],[22.648282191762092,65.60368584232481],[22.64861985065713,65.60329354688642],[22.636224159999998,65.60392032],[22.63473064100214,65.59886035331408],[22.632944636899584,65.59904568937147],[22.633049599233175,65.59940139172502],[22.633909635549077,65.5993579773694],[22.63320704866846,65.59993494506018],[22.63229451370522,65.59980050419597],[22.631539405085533,65.60019961314218],[22.63024930054457,65.60026471318312],[22.62778442181918,65.59930606942144],[22.628969579052523,65.59888528510203],[22.62865487638756,65.59781816747376],[22.63162262033045,65.5960439171348],[22.630930359138393,65.59517635755958],[22.61210112,65.59611162000002],[22.612739285808786,65.5982789415032],[22.614464538252417,65.59853338566816],[22.615219867620212,65.59813435955242],[22.61501044587092,65.59742292498306],[22.617160457908703,65.5973146366473],[22.617317566332275,65.59784820994304],[22.615859329078944,65.59882413703981],[22.61692886252059,65.59949225167283],[22.6151563495467,65.59940102504018],[22.616173521655234,65.59989128642603],[22.614558053399552,65.60033362777382],[22.614662770637214,65.60068934534888],[22.615522886480512,65.60064603451448],[22.615941833211256,65.60206890092964],[22.614326227451308,65.60251124121493],[22.61418845022364,65.60320055459299],[22.61733815,65.61389748],[22.597980874275756,65.61487070118578],[22.59761206212295,65.61544466498106],[22.595291444962157,65.61646362646896],[22.595395976935464,65.6168193592591],[22.596687007852164,65.6167545464565],[22.596843837752285,65.61728814384884],[22.594796600531687,65.6177518950285],[22.592970645632647,65.61748255429806],[22.591784055205075,65.61790307167274],[22.590010350658712,65.61781156307319],[22.589841140692666,65.61872249329326],[22.588224052041816,65.6191645704468],[22.588054773165346,65.62007549937881],[22.58686798448904,65.62049598030467],[22.583855065606063,65.6206470032387],[22.582837654190474,65.62015652738513],[22.580411682476175,65.62081952807027],[22.5805160319372,65.62117527296496],[22.577933426800033,65.6213046177503],[22.575649623027527,65.62062713834133],[22.57952276,65.63384519999998],[22.66563548,65.62950884],[22.668275389999998,65.63840064999998],[22.68980584,65.63730852],[22.692454979999997,65.64619982],[22.713990669999994,65.64510420999999]],[[22.663019902270655,65.60185673823845],[22.66226489717128,65.60225601211707],[22.660974302800383,65.60232139812152],[22.660008555827908,65.60200930307404],[22.661141097490297,65.60141040735746],[22.66243164616786,65.6013450204019],[22.663019902270655,65.60185673823845]],[[22.65690973020659,65.60776195487149],[22.655724642431732,65.60818295694936],[22.65395142456605,65.60809219123077],[22.653793490075774,65.60755866440017],[22.65621629385231,65.60689452281842],[22.65690973020659,65.60776195487149]],[[22.651661029794393,65.60477846791214],[22.651230940317106,65.60480022679317],[22.651178321324416,65.60462238333022],[22.651661029794393,65.60477846791214]],[[22.643250211708505,65.60881382215169],[22.64163467591552,65.6092564527677],[22.641371862609606,65.60836721571775],[22.642557198321686,65.6079463233083],[22.642452064390632,65.60759062927346],[22.643742495411384,65.60752542202755],[22.643250211708505,65.60881382215169]],[[22.64040643521629,65.60805497959142],[22.639976280217127,65.60807670721094],[22.63992373018444,65.60789885913464],[22.64040643521629,65.60805497959142]],[[22.632064180422148,65.601978129444],[22.63034392397879,65.60206493420955],[22.6302389856769,65.60170922973028],[22.632064180422148,65.601978129444]],[[22.616443446987738,65.6067365282593],[22.616013289693413,65.60675818791154],[22.61596090671445,65.60658032984043],[22.616443446987738,65.6067365282593]],[[22.616046577791217,65.60242461727417],[22.61615132553035,65.60278033351497],[22.61572123335475,65.60280199167455],[22.615186404200685,65.60246793166898],[22.616046577791217,65.60242461727417]],[[22.614580441095118,65.59744457901442],[22.613720429175604,65.59748788344127],[22.61366808437081,65.59731002420023],[22.614580441095118,65.59744457901442]]],[[[22.61502930584046,65.60193435604515],[22.614599226523204,65.60195601089018],[22.614651588966094,65.60213386963538],[22.61502930584046,65.60193435604515]]]]}},{"type":"Feature","properties":{"cyano_daymap_file_id":723429,"date":"2022-08-07Z","cloud":null,"sub_surfac":null,"surface":null,"no_data":null,"class":1,"color_hex":null,"algae_class":"class_1","source_date":"2022-08-07"},"geometry":{"type":"MultiPolygon","coordinates":[[[[22.359832037634185,65.54544720352698],[22.359406545269284,65.54548189938836],[22.359835944631445,65.54546097540435],[22.359832037634185,65.54544720352698]]],[[[22.357778349999997,65.5455474],[22.357825398139724,65.54571322286569],[22.35837860885848,65.54551811423156],[22.357778349999997,65.5455474]]]]}},{"type":"Feature","properties":{"cyano_daymap_file_id":723429,"date":"2022-08-07Z","cloud":null,"sub_surfac":null,"surface":null,"no_data":null,"class":1,"color_hex":null,"algae_class":"class_1","source_date":"2022-08-07"},"geometry":{"type":"MultiPolygon","coordinates":[[[[22.73043794,65.55400149],[22.727787149999997,65.54511088],[22.77068596,65.5429084],[22.765361670000004,65.52512879],[22.78679374,65.52402393],[22.784127439999992,65.51513447999999],[22.74127561,65.51734029],[22.743927599999996,65.52623064],[22.724661535940893,65.52721823376929],[22.72414423065468,65.52870289860714],[22.7233393108427,65.52892463027622],[22.723551021374004,65.52963589015461],[22.721994020388603,65.53025715931396],[22.72113611949093,65.53030106432816],[22.720601346368777,65.5299673827749],[22.718885554780424,65.5300551720295],[22.719526115593393,65.53074449307798],[22.71899135331409,65.53041080571714],[22.71813344127118,65.53045469381405],[22.717434195390563,65.53103202956981],[22.715718320967113,65.53111978375455],[22.714590023058165,65.53171904273671],[22.70810238586991,65.53187008108463],[22.70531718744808,65.53129025777879],[22.703337268895524,65.53048875852859],[22.70160754126477,65.53028072103524],[22.708978359999996,65.55509865],[22.73043794,65.55400149]]],[[[22.73597761,65.49955937999998],[22.714563019999996,65.50065686],[22.717203869999995,65.50954779999999],[22.652926739999998,65.5128235],[22.65030736,65.50393122],[22.628884859999996,65.50501664],[22.63411127,65.52280202],[22.655548089999996,65.52171571],[22.660796720000004,65.53949994],[22.682245909999995,65.53840971999999],[22.67698294,65.52062638],[22.689045267852194,65.5200116103643],[22.691978327800086,65.51861268150816],[22.69519777834376,65.5177263993753],[22.69509236581196,65.51737074509857],[22.696055318767627,65.51768264525752],[22.69718346286178,65.51708352625786],[22.69980873584811,65.51713004161023],[22.703133244615483,65.51659924517286],[22.703027729533257,65.5162435975033],[22.709029994155653,65.5159369110409],[22.71026336841574,65.51569334089656],[22.710157760679802,65.51533769917454],[22.714233566967643,65.5144071850881],[22.71723442826739,65.51425365201231],[22.71776882407224,65.51458734934845],[22.719054910368083,65.51452152664488],[22.719213498873142,65.51505497802208],[22.72140988184607,65.5151230628415],[22.721192691199565,65.51585627685604],[22.722103003144117,65.515990192339],[22.72220877669668,65.51634582398215],[22.72515689683407,65.51601431629281],[22.725051084766577,65.51565868711629],[22.725585608981973,65.51599235547965],[22.726871740651383,65.5159264657949],[22.726173061586135,65.51650383594509],[22.72831664937899,65.5163940050279],[22.729724654382938,65.51793235672442],[22.74127561,65.51734029],[22.73597761,65.49955937999998]],[[22.71991229725738,65.51447763880502],[22.71948360421022,65.51449958332869],[22.719430740099536,65.51432176632993],[22.71991229725738,65.51447763880502]]]]}},{"type":"Feature","properties":{"cyano_daymap_file_id":723429,"date":"2022-08-07Z","cloud":null,"sub_surfac":null,"surface":null,"no_data":null,"class":1,"color_hex":null,"algae_class":"class_1","source_date":"2022-08-07"},"geometry":{"type":"MultiPolygon","coordinates":[[[[22.51128110985344,65.62455892194647],[22.512928557503233,65.62454540795207],[22.51303200123974,65.62490120819659],[22.512170878226122,65.62494394754067],[22.51158833940248,65.6256155771284],[22.514917509999997,65.6370656],[22.55798964,65.63492171],[22.54759443,65.59934491],[22.504580170000004,65.60148529],[22.502000709999997,65.59259005],[22.52169996067106,65.59160989799891],[22.521967041387445,65.59107058479037],[22.52325701457247,65.59100640776289],[22.52439182431262,65.59040853118228],[22.525251780536323,65.59036573421862],[22.525904823127537,65.58961135000693],[22.528054634501462,65.5895043277829],[22.52832936777785,65.58894923580205],[22.530049165075887,65.58886359346906],[22.530582624975423,65.58919796738797],[22.531820714423052,65.58895582499456],[22.53209536164735,65.5884007270566],[22.53032384951364,65.58830849836664],[22.530220344790354,65.58795271058007],[22.529308732707968,65.58781764055144],[22.530598522874254,65.58775340287926],[22.53070203180991,65.58810919036473],[22.53161366097612,65.58824425183873],[22.53333339866821,65.58815857283395],[22.53183654406263,65.58751126104664],[22.533126311525972,65.58744700208757],[22.534089706154468,65.5877599414418],[22.534882113527114,65.58898376107393],[22.53402222206097,65.58902661203281],[22.533799390398055,65.58975960552432],[22.532887696947537,65.58962455784824],[22.53304302191258,65.5901582360863],[22.532131318005195,65.59002318396499],[22.532716603452645,65.5905354428849],[22.531426681750826,65.59059969991391],[22.531577634587812,65.59111842641872],[22.54500051999999,65.59045055999998],[22.543034606306357,65.58370441826307],[22.542081363053885,65.5837519872365],[22.541925898949955,65.58321831968723],[22.54111802667543,65.58343909811059],[22.541703331288797,65.58395132211045],[22.540843619555258,65.58399420995916],[22.54025833069012,65.58348198247874],[22.541770441875276,65.58268465190852],[22.541133353747153,65.58199453831685],[22.539895683757244,65.58223675254985],[22.539621261562118,65.58279186233422],[22.53870978670181,65.58265684747938],[22.538606194505036,65.58230106631538],[22.53688686457345,65.58238680104046],[22.537042219421497,65.58292047486177],[22.535649134444043,65.58262898118988],[22.534463149182397,65.5830490437704],[22.533878007146967,65.58253679016227],[22.53511575030535,65.58229462435077],[22.534114677150473,65.58196938130136],[22.52091685,65.58262696000001],[22.51833406,65.57373203],[22.533276625280703,65.57298757629707],[22.53233707398494,65.57124385292217],[22.53051502148579,65.57097372103135],[22.526270146270264,65.57136566982024],[22.52241954985574,65.5701136468025],[22.52719729549642,65.57005619770989],[22.52967171373307,65.56957197596323],[22.529568307700167,65.56921618675851],[22.531716418130888,65.56910912977166],[22.531612986396336,65.56875334222394],[22.532472213588807,65.5687105116565],[22.534309870406812,65.56753605818282],[22.53522078884939,65.56767110513074],[22.536354330408845,65.56707315184985],[22.537213492797548,65.56703029503814],[22.53794786718526,65.56623246210918],[22.53723052,65.56376710000002],[22.540096098391974,65.56345746570801],[22.538978296504546,65.56261088334834],[22.539837306599818,65.56256801319398],[22.541725973897407,65.56157136787549],[22.54296265314488,65.56132914875181],[22.54306620424396,65.56168492732246],[22.54435466027232,65.56162058607497],[22.54493951110754,65.56213280212303],[22.54569490327845,65.56173412212425],[22.54741283588924,65.56164830161953],[22.54768689425063,65.56109318146271],[22.550796835110617,65.56129871643675],[22.553817805336507,65.55970386303726],[22.553936175237716,65.55861507841126],[22.554846873246653,65.55875000952967],[22.55555016180476,65.55817339846118],[22.55727434282576,65.55778256299541],[22.55352123,65.54490573],[22.574980249999992,65.54383060999999],[22.572383669999997,65.53493675],[22.57148833011469,65.5351759825951],[22.571644053350635,65.53570961700686],[22.5698760276525,65.53561781523928],[22.569550785515524,65.53599508926654],[22.56659938034339,65.5363235505191],[22.564284395593162,65.53734197972845],[22.564062775870816,65.53807500516798],[22.562553873422836,65.53887252541058],[22.560889344016637,65.5391363842979],[22.559003003103957,65.54013324486093],[22.551966852150887,65.54138777474243],[22.551108563514568,65.54143070637515],[22.551382355151276,65.54087558229138],[22.550524082202767,65.54091851044883],[22.55030204905349,65.54165151993912],[22.548962828288182,65.54153801429567],[22.54783066027507,65.54213604793476],[22.547934185817176,65.54249182340567],[22.546646685202308,65.54255618540489],[22.545085240594595,65.54317565118579],[22.544981750627645,65.54281987340309],[22.543265048278904,65.54290565382655],[22.542628957653697,65.54221553651817],[22.54312518075515,65.54092742510068],[22.54430914175899,65.54050731533168],[22.54442787029605,65.53941853459999],[22.550739073441935,65.53567394524705],[22.54921084330543,65.53009103927693],[22.547847802131955,65.5302238107679],[22.546354012668836,65.52957661141785],[22.546679519297104,65.52919938460015],[22.545511330275623,65.52817494845794],[22.546642964347814,65.5275769376488],[22.54676156821534,65.52648815641712],[22.545748628032445,65.52599738675868],[22.54612581271479,65.52579805044486],[22.546931880704342,65.52557726370544],[22.547609096331154,65.52458084680586],[22.543175319999996,65.50932815],[22.54265355369233,65.50935409330017],[22.54296745281781,65.51043521160565],[22.53883585040492,65.5111831919992],[22.538526104101607,65.51011583840103],[22.536863136132173,65.51037941699758],[22.537938244965982,65.5095885482044],[22.45743472,65.51359135],[22.45233075,65.49579869],[22.495176229999995,65.49367486999999],[22.4926128,65.48477930999998],[22.42836318,65.48795921],[22.423284999999996,65.47016531],[22.359061159999996,65.47331547],[22.35654639,65.46441714],[22.335141810000003,65.46546073000002],[22.332636080000004,65.45656191],[22.354033499999996,65.45551874],[22.351130569091183,65.44522747718231],[22.348087641317022,65.44553882056788],[22.34675415415578,65.44542346861655],[22.34617589570674,65.44491042359623],[22.346931090446965,65.44451273887213],[22.347335095236023,65.44286925059652],[22.34866845369163,65.44298459870633],[22.3492228513677,65.44187501950537],[22.35017184777332,65.44182868700753],[22.349392344873586,65.4390652491372],[22.34693654287847,65.43837821631837],[22.343620635581924,65.4379842454802],[22.322904851960228,65.43899252342403],[22.319137269852856,65.4397322616385],[22.31601527055901,65.44096646643122],[22.314903631304453,65.44318540690979],[22.315403114797466,65.44496525040108],[22.3169862723882,65.44597079902574],[22.31789186091302,65.44610720534504],[22.318041779176156,65.44664115486209],[22.320180866382216,65.44653718810997],[22.323047791660617,65.44748027537322],[22.323197824479074,65.44801421861878],[22.32234214940752,65.44805582646632],[22.323647963454277,65.44961604704962],[22.319491336993952,65.45180265565176],[22.316973889103274,65.45210538903812],[22.314656237931203,65.45312001856324],[22.313372449474194,65.45318235861625],[22.313044428750477,65.45355910620201],[22.310285289604153,65.45419291889611],[22.31873816,65.48429963],[22.36157783,65.48221375],[22.366269712124858,65.49877790566391],[22.36831772089,65.49867786528549],[22.36804040213351,65.4992326913315],[22.3664209400334,65.49931179857751],[22.367485731169744,65.50034234222935],[22.366728978033823,65.5003992916674],[22.367536166109478,65.50052030428849],[22.367208378960882,65.50089716708106],[22.370208978155244,65.50075057047732],[22.367092465826147,65.50168254393456],[22.369040901185244,65.50856127313756],[22.37018390670484,65.50885709206074],[22.39057768,65.50785944],[22.3931091,65.51675704],[22.38648983278188,65.51708087518425],[22.387318853333962,65.51813703847836],[22.386032080611507,65.51820002647439],[22.386612825360487,65.51871289362877],[22.384417556663948,65.51863990325278],[22.384140394703227,65.51919475723841],[22.38285356061584,65.51925771880119],[22.382400312869144,65.52072333266113],[22.380204882640957,65.52065028274622],[22.37901908684743,65.52106912559061],[22.377303163529287,65.52115301524455],[22.378086034226364,65.52237774627562],[22.3763700213021,65.52246162623648],[22.376521664812827,65.5229955000606],[22.377379690043202,65.52295356146641],[22.377960377744287,65.52346646241011],[22.374477659158817,65.5234562428633],[22.37478088959187,65.52452399471578],[22.37349342466374,65.52425222271515],[22.374189539999996,65.5267042],[22.36485402465985,65.52715959789053],[22.36566996828764,65.5276752684961],[22.367386365368237,65.52759150611139],[22.36705825791079,65.52796837175242],[22.364054509460495,65.52811493716241],[22.363953559052888,65.52775901152646],[22.362615778716023,65.5276438427278],[22.36238852990267,65.52837662568079],[22.3598138232717,65.52850217799515],[22.359157356553705,65.52925587821291],[22.35925824855757,65.52961180762834],[22.36011652469311,65.5295699644743],[22.35988919162921,65.5303027445069],[22.35731428051576,65.53042825631293],[22.35655683157519,65.53082601542833],[22.357566467068644,65.53131808322694],[22.357818672597798,65.53220790953016],[22.35600107345125,65.53193563491516],[22.354915220935684,65.53271022968976],[22.355546129624216,65.53340118501679],[22.354316900530222,65.53333556943157],[22.35525561,65.53664913],[22.46254638,65.53138377000002],[22.465105089999994,65.54027988],[22.486564679999997,65.5392173],[22.48913251,65.54811292],[22.44619702,65.55023592],[22.44875238,65.55913235],[22.38927267778068,65.5620520117231],[22.388672334386868,65.56263748660788],[22.387813024990628,65.56267950205405],[22.38667618953749,65.56327637485064],[22.38692976210486,65.5641661388804],[22.385166154481176,65.56528762484565],[22.389386359999996,65.58009071999999],[22.36791067106235,65.58113881065209],[22.370420609999996,65.59003786],[22.41342917,65.58793562],[22.41852835,65.60572964],[22.44760781302973,65.6042995759255],[22.448785817931196,65.60353498220572],[22.450455650286077,65.60327230378034],[22.450707611883054,65.60414713463132],[22.455045357725986,65.60393381382522],[22.45577260440629,65.60355170446492],[22.457923914042095,65.6034456622352],[22.4588491707405,65.60374675066204],[22.46155813,65.60361352999999],[22.461704923273278,65.60412225837366],[22.46275938102666,65.60356810485095],[22.46367122789275,65.60370357283448],[22.46478845354744,65.60455071652994],[22.462309465219043,65.60503392372945],[22.462133445396002,65.60560734932982],[22.46412508,65.61250958],[22.44260392,65.61356959],[22.44772915,65.63136237],[22.471397598579046,65.63019470158753],[22.474568250352842,65.62933175346207],[22.47441384404991,65.62879800623033],[22.475602879958632,65.62837838328356],[22.476206796145906,65.62744627455578],[22.47772340043144,65.62664953849271],[22.47858464810091,65.62660699344048],[22.478481667806562,65.62625116512366],[22.481116864530357,65.62630141604109],[22.4816505020459,65.6266359603966],[22.481875068871673,65.62590302634204],[22.480531738247368,65.6257889563239],[22.481135421105456,65.62485683031363],[22.481996602633885,65.62481426655336],[22.481893584190754,65.62445844093496],[22.48313381652614,65.62421667491618],[22.483409840843578,65.62366165150648],[22.484701545833016,65.62359778533953],[22.48432250138177,65.62379698714781],[22.484959183597617,65.62448734357001],[22.48420106771633,65.6248857477972],[22.48483777517366,65.62557610447831],[22.486129571082166,65.625512225244],[22.48597495470573,65.6249784918865],[22.48678458767823,65.6247579898907],[22.489461852418856,65.62462554556889],[22.48822043,65.62034209],[22.50974494,65.61927556999999],[22.51128110985344,65.62455892194647]],[[22.50716157999999,65.61038045999997],[22.52867691,65.60931135000001],[22.531267500000002,65.61820602000002],[22.50974494,65.61927556999999],[22.50716157999999,65.61038045999997]],[[22.51059736,65.54704688],[22.53206027,65.54597781],[22.534230389687984,65.55344739194622],[22.534364096991304,65.55273463837594],[22.536303992506507,65.55191595850766],[22.538879972464333,65.5517873896093],[22.53941275516201,65.55212173925034],[22.540700749557065,65.55205743378238],[22.539635168152,65.55138874185552],[22.542262822114218,65.55143800683958],[22.541626535724255,65.5507478872822],[22.542485149806886,65.55070500612582],[22.542692140274173,65.5514165649524],[22.545164501557238,65.55093211097338],[22.544512928047926,65.55168656315759],[22.542847391304324,65.55195023380492],[22.542521563340397,65.55232745567982],[22.540049019120126,65.55281186834561],[22.53870926005882,65.55269827741566],[22.539035148145054,65.55232106313697],[22.537747135773127,65.552385354614],[22.53505194605271,65.55360268263553],[22.534286598758932,65.55364086434494],[22.534644420000003,65.55487249000001],[22.513174319999997,65.55594198999998],[22.51059736,65.54704688]],[[22.54566073934763,65.54964399104426],[22.5469485927788,65.54957963384322],[22.547274323888438,65.549202403428],[22.548132875881326,65.54915949086394],[22.548029315684357,65.54880371587097],[22.550123859952038,65.54851852839916],[22.54871750547919,65.54967169453712],[22.547858937786312,65.54971461057737],[22.548014282312955,65.55024827317445],[22.546297103054624,65.55033409285183],[22.545164501557238,65.55093211097338],[22.54566073934763,65.54964399104426]],[[22.551944514888007,65.54878843854924],[22.552699422061814,65.5483897285573],[22.552803043976983,65.54874549972533],[22.551944514888007,65.54878843854924]],[[22.553025055136352,65.54801248676577],[22.55388355653752,65.54796954209415],[22.553557936526836,65.54834678559989],[22.552699422061814,65.5483897285573],[22.553025055136352,65.54801248676577]],[[22.55245533097555,65.55652340256513],[22.552025938423608,65.55654487290177],[22.551974113672653,65.55636698719445],[22.55245533097555,65.55652340256513]],[[22.550523337379225,65.55138617702683],[22.5500940274944,65.55140764104272],[22.550042228241676,65.55122975441904],[22.550523337379225,65.55138617702683]],[[22.546540859975085,65.5526680914635],[22.547777073460647,65.55242583775305],[22.547673502462402,65.5520700626213],[22.548480357986804,65.55184925958854],[22.54906505796654,65.55236146120995],[22.54755488357539,65.5531588448431],[22.547762035892067,65.5538703950971],[22.54695511233225,65.55409119499375],[22.547058683217486,65.55444697062134],[22.544156654528848,65.55495290635342],[22.543897826088102,65.5540634611844],[22.54626685518651,65.55322320898145],[22.546540859975085,65.5526680914635]],[[22.54725742168643,65.56111463908623],[22.546827948342116,65.56113609549942],[22.54677614804743,65.56095820776112],[22.54725742168643,65.56111463908623]],[[22.545968999313292,65.56117900469471],[22.54553952362888,65.56120045747683],[22.54548773197228,65.56102256921004],[22.545968999313292,65.56117900469471]],[[22.544784144055445,65.56159913657167],[22.545213627058665,65.561577685858],[22.54526541817565,65.56175557422446],[22.544784144055445,65.56159913657167]],[[22.542433404137487,65.55052711635547],[22.542862707133484,65.55050567413858],[22.542914455679778,65.5506835637329],[22.542433404137487,65.55052711635547]],[[22.540442073664376,65.5511679811675],[22.54124896533203,65.5509472163186],[22.5413524433034,65.55130299678791],[22.540442073664376,65.5511679811675]],[[22.540206521642922,65.58330409256537],[22.540154713376594,65.58312620262647],[22.540584555989827,65.58310476140056],[22.540206521642922,65.58330409256537]],[[22.53920584741726,65.55141017509781],[22.539154122427792,65.55123228399604],[22.53958344028537,65.55121085092972],[22.53920584741726,65.55141017509781]],[[22.53783460388958,65.58414427926178],[22.537404741385732,65.5841657128868],[22.537352950191934,65.58398782181676],[22.53783460388958,65.58414427926178]],[[22.535617876383256,65.58551810577704],[22.536047762988044,65.58549667697797],[22.536099548885023,65.58567456854867],[22.535617876383256,65.58551810577704]],[[22.536099548885023,65.58567456854867],[22.536581227158074,65.58583102973087],[22.536151335562614,65.58585246009395],[22.536099548885023,65.58567456854867]],[[22.5359384235074,65.51168892322141],[22.535509751565026,65.51171033937558],[22.535458146629665,65.51153244581856],[22.5359384235074,65.51168892322141]],[[22.53580446566909,65.58316265651965],[22.535374617353973,65.58318408424132],[22.535322842383597,65.58300619231412],[22.53580446566909,65.58316265651965]],[[22.535156695217147,65.58842865824973],[22.535208482060444,65.58860655011742],[22.534778543271248,65.58862797706266],[22.535156695217147,65.58842865824973]],[[22.53106020834322,65.58484285920069],[22.53149008832317,65.58482144339969],[22.531541841462516,65.58499933685819],[22.53106020834322,65.58484285920069]],[[22.531541841462516,65.58499933685819],[22.532453364543883,65.58513439434984],[22.531593595381942,65.58517723029121],[22.531541841462516,65.58499933685819]],[[22.534602773794585,65.5850272832901],[22.53518798899793,65.58553953336433],[22.53389832215915,65.58560380885542],[22.532453364543883,65.58513439434984],[22.534602773794585,65.5850272832901]],[[22.535013846582594,65.56695953555462],[22.534584264762266,65.56698095833612],[22.534532534024848,65.56680306570252],[22.535013846582594,65.56695953555462]],[[22.52901183007855,65.51329810744473],[22.529988514169276,65.51216653529491],[22.532080348103797,65.5118816251328],[22.531326144326226,65.51228022504408],[22.53185799343913,65.5126146107119],[22.534807207607216,65.51228684963306],[22.534104633114108,65.51286335693818],[22.53436263534034,65.5137528270921],[22.53227067917485,65.5140377700817],[22.52901183007855,65.51329810744473]],[[22.534136834822057,65.5834262525663],[22.534670230665295,65.58376061273493],[22.53381051126192,65.58380346075293],[22.533328887504307,65.58364699021325],[22.534136834822057,65.5834262525663]],[[22.5338826021666,65.58704837190027],[22.53345268779221,65.58706979483692],[22.533400916632477,65.58689190221186],[22.5338826021666,65.58704837190027]],[[22.53207434600928,65.56584279895607],[22.531060099559568,65.56535194411185],[22.53186750716594,65.56513122403885],[22.531970925029885,65.56548701154829],[22.532830043825,65.56544418004823],[22.53207434600928,65.56584279895607]],[[22.531406620014216,65.58753267827582],[22.5313548617244,65.58735478482151],[22.531784782886625,65.58733336776834],[22.531406620014216,65.58753267827582]],[[22.530984534505347,65.51410198500906],[22.530555818064624,65.5141233875692],[22.53050424110671,65.51394549203478],[22.530984534505347,65.51410198500906]],[[22.529138683277264,65.56923759452314],[22.5290869843109,65.56905969970683],[22.529516605852017,65.56903829211801],[22.529138683277264,65.56923759452314]],[[22.528941092913183,65.51005318117527],[22.52914732570918,65.51076476609498],[22.52818689145759,65.51045176539812],[22.52647224955191,65.51053733433103],[22.528941092913183,65.51005318117527]],[[22.52868600607294,65.56168038157415],[22.528256504983325,65.56170178558718],[22.528204830072145,65.56152389023121],[22.52868600607294,65.56168038157415]],[[22.528500608342725,65.58803835424173],[22.528070672280744,65.58805976212719],[22.528018935521214,65.58788186731594],[22.528500608342725,65.58803835424173]],[[22.527775331084257,65.56154529285797],[22.5273458313182,65.56156669427422],[22.527294162945143,65.56138879854134],[22.527775331084257,65.56154529285797]],[[22.52593778192926,65.56271966591574],[22.527003498378292,65.56338845292217],[22.52336064463488,65.56284802626466],[22.52593778192926,65.56271966591574]],[[22.525940791662915,65.5672312635516],[22.52576955530655,65.5681421421079],[22.52291722979045,65.56882558681922],[22.521799738931296,65.56797887450034],[22.52245235824027,65.56722450949874],[22.525940791662915,65.5672312635516]],[[22.52524530145032,65.60534508878966],[22.52567552597478,65.60532368601184],[22.52577905189715,65.60567947671065],[22.52524530145032,65.60534508878966]],[[22.52491859050428,65.60572228175725],[22.525348821591127,65.60570087984046],[22.525400582832752,65.60587877532771],[22.52491859050428,65.60572228175725]],[[22.52454011409654,65.6059215783003],[22.524970348855046,65.60590017742052],[22.525022107986604,65.60607807305836],[22.52454011409654,65.6059215783003]],[[22.52420684495385,65.62127812589064],[22.52398351134834,65.6220111100794],[22.523553008966328,65.62203251085033],[22.52339764916649,65.62149882317911],[22.52420684495385,65.62127812589064]],[[22.52377382655049,65.56427120405172],[22.522914728473207,65.56431398396052],[22.52281143984981,65.56395818896335],[22.523618877497963,65.5637375125719],[22.52377382655049,65.56427120405172]],[[22.52360479712968,65.6222104066899],[22.523433229138885,65.62312128611963],[22.52191825738773,65.62391846254977],[22.519335029522548,65.62404681582406],[22.51907622058479,65.62315732783469],[22.519937270712223,65.62311455002602],[22.520969978259743,65.62216088998322],[22.52360479712968,65.6222104066899]],[[22.52351742700104,65.62041004796383],[22.523569211024096,65.62058794385615],[22.522708251793873,65.62063074136721],[22.52351742700104,65.62041004796383]],[[22.52226913422779,65.60711733894162],[22.52269939101697,65.60709594428438],[22.52275113748637,65.60727384082548],[22.52226913422779,65.60711733894162]],[[22.52275113748637,65.60727384082548],[22.523284897449646,65.60760823743342],[22.522854632767203,65.60762963383159],[22.52275113748637,65.60727384082548]],[[22.522485178267743,65.5643353720989],[22.522055627284445,65.56435675902657],[22.522003988345368,65.56417886118936],[22.522485178267743,65.5643353720989]],[[22.52092186522393,65.56495460748546],[22.521351427183202,65.56493322366302],[22.521403063471574,65.56511112175004],[22.52092186522393,65.56495460748546]],[[22.521403063471574,65.56511112175004],[22.521884267481237,65.5652676344272],[22.521454700537706,65.56528901981166],[22.521403063471574,65.56511112175004]],[[22.51492611922986,65.62390484218365],[22.517027073870892,65.62362004814237],[22.517302363091982,65.62306497050588],[22.518542182033908,65.62282291919253],[22.518302190079012,65.6250004660651],[22.517321030835564,65.6261320083464],[22.51489277185871,65.6267939838012],[22.514685818394767,65.62608238643763],[22.513290624245887,65.62579070836381],[22.51346256157531,65.62487983670327],[22.51492611922986,65.62390484218365]],[[22.484804598605123,65.62395360870738],[22.485235171171972,65.62393231720611],[22.4852867016213,65.62411022867701],[22.484804598605123,65.62395360870738]],[[22.482651724103146,65.62406004799918],[22.482600211810304,65.62388213545204],[22.483030785369795,65.62386085019742],[22.482651724103146,65.62406004799918]],[[22.48098091198714,65.62432309079747],[22.481411494450192,65.62430181004989],[22.481462999608688,65.62447972307201],[22.48098091198714,65.62432309079747]],[[22.481032414249018,65.62450100399472],[22.481083917288448,65.62467891716678],[22.480653328254537,65.62470019705026],[22.481032414249018,65.62450100399472]],[[22.480704829174833,65.62487811037221],[22.480274236466656,65.62489938921642],[22.480222738443107,65.62472147571938],[22.480704829174833,65.62487811037221]],[[22.480583240936227,65.62596686966987],[22.480152630069128,65.62598814835025],[22.48010113027728,65.62581023482922],[22.480583240936227,65.62596686966987]],[[22.42508567176835,65.49354773374556],[22.427758213362797,65.49377698487152],[22.428012370087128,65.4946666741478],[22.425746275529974,65.4958609387134],[22.423225944024377,65.49616547320429],[22.42292113256595,65.49509783458484],[22.42508567176835,65.49354773374556]],[[22.379052055161207,65.48444045417534],[22.379858329172414,65.48422055645862],[22.383008436838665,65.48460759747458],[22.38106850292554,65.48542431106405],[22.381169488879586,65.48578022494071],[22.379455889082575,65.48586411577071],[22.378019263653627,65.48539314675638],[22.379203487194495,65.48497432745746],[22.379052055161207,65.48444045417534]],[[22.372478076793406,65.49955710906669],[22.372906709021795,65.49953615564453],[22.372957178986432,65.49971411554438],[22.372478076793406,65.49955710906669]],[[22.372099908032975,65.49975602152422],[22.372528543888983,65.49973506913831],[22.372579011743117,65.49991302918552],[22.372099908032975,65.49975602152422]],[[22.369200326364655,65.50025857721826],[22.369427183704612,65.49952578789812],[22.370284452282583,65.49948389710184],[22.370385357024283,65.49983981898738],[22.37167127141846,65.49977697270208],[22.37177219640869,65.50013289345912],[22.370158524482726,65.50057260949747],[22.369200326364655,65.50025857721826]],[[22.37018355057411,65.49912797511833],[22.369326293472408,65.49916986522769],[22.369275849493615,65.4989919038558],[22.37018355057411,65.49912797511833]],[[22.36960358413358,65.49861503710301],[22.368746342729313,65.49865692376599],[22.36869590389389,65.49847896214897],[22.36960358413358,65.49861503710301]],[[22.367636863442673,65.49474176253943],[22.367208304709923,65.49476270028205],[22.367157885416614,65.49458473795515],[22.367636863442673,65.49474176253943]],[[22.36604871499145,65.49373679575602],[22.36519162663786,65.49377866072733],[22.36514122336157,65.49360069756723],[22.36604871499145,65.49373679575602]],[[22.364990018077123,65.49306680794028],[22.36584708348877,65.49302494434183],[22.365897490228217,65.49320290723205],[22.364990018077123,65.49306680794028]],[[22.360066072558308,65.5293920001222],[22.360495206610672,65.52937107690222],[22.360545661622105,65.5295490410826],[22.360066072558308,65.5293920001222]],[[22.35597533396527,65.5333802739203],[22.35602576751517,65.53355823981933],[22.35559656029639,65.53357915108745],[22.35597533396527,65.5333802739203]]],[[[22.36692503037142,65.50109143212443],[22.367258813305437,65.50107512923853],[22.3669054050608,65.50102214719966],[22.36692503037142,65.50109143212443]]],[[[22.352734769999998,65.52775079],[22.35357325265791,65.53071055887631],[22.354360598671022,65.53075259833795],[22.355496811634094,65.53015597434356],[22.354765156436194,65.52910908501593],[22.357339952232394,65.5289836177435],[22.35675953688574,65.52847063495211],[22.35799646561224,65.52822992494815],[22.357845164219505,65.52769602917185],[22.352734769999998,65.52775079]],[[22.355951712088945,65.5286904248097],[22.355093456812448,65.52873224412791],[22.355043040873774,65.52855427774102],[22.355951712088945,65.5286904248097]],[[22.354007705028817,65.52950683139404],[22.35357856247,65.52952773629538],[22.353528155003776,65.52934976931988],[22.354007705028817,65.52950683139404]]],[[[22.54612581271479,65.52579805044486],[22.547035314736465,65.52593304069718],[22.546983597331508,65.52575515221403],[22.54612581271479,65.52579805044486]]],[[[22.551863276908847,65.54103200253891],[22.55143413872907,65.54105346860757],[22.551485923086098,65.54123135489826],[22.551863276908847,65.54103200253891]]],[[[22.536508811423307,65.58258612316804],[22.536560593487764,65.58276401461788],[22.536990433691656,65.58274258361345],[22.536508811423307,65.58258612316804]]],[[[22.531310085556935,65.51372479084884],[22.53125850441321,65.51354689561465],[22.53082979735275,65.51356829885611],[22.531310085556935,65.51372479084884]]],[[[22.529920809142105,65.51343320592963],[22.53034951488502,65.51341180527922],[22.53029794102842,65.5132339096433],[22.529920809142105,65.51343320592963]]],[[[22.53040108951692,65.51358970088978],[22.530778219852632,65.51339040342104],[22.53034951488502,65.51341180527922],[22.53040108951692,65.51358970088978]]],[[[22.483994972897754,65.62417410006343],[22.484098018751308,65.62452992398076],[22.484528601563422,65.62450863438255],[22.483994972897754,65.62417410006343]]]]}},{"type":"Feature","properties":{"cyano_daymap_file_id":723429,"date":"2022-08-07Z","cloud":null,"sub_surfac":null,"surface":null,"no_data":null,"class":1,"color_hex":null,"algae_class":"class_1","source_date":"2022-08-07"},"geometry":{"type":"MultiPolygon","coordinates":[[[[22.215857655709122,65.50729650994573],[22.216409589893978,65.50677690813775],[22.214074510000003,65.49836268],[22.23551181,65.49733591999998],[22.23303629,65.48843516],[22.254464559999995,65.48740581],[22.25198372,65.47850539999999],[22.265170439702874,65.47786912721409],[22.269668816885478,65.47532221364568],[22.27347405975772,65.47495823993196],[22.27380290770117,65.4745815702395],[22.275466426480367,65.47432088174298],[22.278464595550215,65.4741761305459],[22.278992446203365,65.47451144305555],[22.28113399803078,65.47440800539583],[22.283982721489743,65.47372915391655],[22.284480806646133,65.47550911325443],[22.285815594461795,65.47562500255165],[22.28731419082638,65.47680066845138],[22.29482032,65.47643849],[22.290073693344205,65.45947656998742],[22.28662078915599,65.45989096474715],[22.285475796101412,65.45579706573942],[22.286282015589595,65.45557766816249],[22.286082906811505,65.4548656856914],[22.287366856124834,65.45480357616012],[22.28812324008699,65.45440617409177],[22.28797387792462,65.45387218938602],[22.288498262079948,65.45384681626392],[22.284858339999996,65.44083966999999],[22.2634696,65.44187294],[22.25851408,65.42407233],[22.23713775,65.42510175],[22.239607440000004,65.43400251],[22.238346595649098,65.4340630496691],[22.238054566038514,65.43499294308418],[22.23933767924683,65.4349312503605],[22.239206447391712,65.43601990428553],[22.23797268652301,65.43625961159175],[22.237742579839107,65.43699223450515],[22.23721603530475,65.43665676493248],[22.23593283161478,65.43671844050478],[22.23583404598485,65.43636240855609],[22.2349785845833,65.43640351890429],[22.234452087248822,65.43606803921726],[22.232790546414673,65.43632825649307],[22.232988037666125,65.43704032510134],[22.2313264201056,65.43730052700936],[22.230191236586236,65.43789620763192],[22.228809256382995,65.43760178681947],[22.22671979622415,65.43788247496002],[22.2269664737176,65.4387725724437],[22.225584481260842,65.43847812221574],[22.223017822804792,65.4386012670549],[22.22268865985997,65.43897782925856],[22.221833088210722,65.43901886615454],[22.221306702372694,65.43868333950299],[22.219294613800802,65.43890305018348],[22.22068652,65.44393045],[22.212039832561846,65.44435859544615],[22.211199371061742,65.44602229150195],[22.20849935000792,65.44723383962769],[22.20859781379367,65.44758989259137],[22.207363217899108,65.44782935776144],[22.206374692882875,65.4489589498509],[22.204662833152412,65.44904084081195],[22.204761253014574,65.44939689670538],[22.203196959573493,65.4500128553823],[22.201137274944273,65.45163096179023],[22.20253591237579,65.4566918663639],[22.207965278885997,65.45627853075696],[22.207866784217302,65.45592247770739],[22.210484489915142,65.4559775985923],[22.21124209791677,65.45558056997685],[22.212954360130727,65.45549860043334],[22.21315148687907,65.45621069847698],[22.210878629669278,65.45740180198183],[22.211799496334788,65.45916156257623],[22.21089397019704,65.45902451913582],[22.210810763809953,65.46029118566567],[22.21166705119905,65.46025020423218],[22.21237547498355,65.45967514401666],[22.212474048006897,65.46003119334337],[22.214861248913003,65.46081882611674],[22.216573839906808,65.46073681228889],[22.216475207935975,65.46038076622126],[22.219521509236657,65.46041521978098],[22.220279102161154,65.46001814597624],[22.221991620281024,65.45993607141048],[22.222518458627498,65.46027159116143],[22.221662191077346,65.46031263394383],[22.22185959839847,65.46102471782362],[22.222715888857067,65.46098367369623],[22.223720273986675,65.4614766853854],[22.222451719918116,65.46188425257647],[22.225620869999997,65.46173251],[22.22809082,65.47063345],[22.175336883600853,65.47314425868908],[22.17518134386134,65.47425743508045],[22.176993120358436,65.47453193777677],[22.175855103339018,65.47512723697838],[22.17591741611945,65.476928016428],[22.176872480704766,65.47724330338319],[22.17520773270668,65.47750291772742],[22.17550218690576,65.47857115037593],[22.17464523175781,65.47861193321168],[22.173984545300595,65.47936486852025],[22.172748129339592,65.47960406823901],[22.172895317198176,65.48013818740615],[22.171560744275666,65.48002129828726],[22.171328451549588,65.48075384072673],[22.170752783221907,65.48024009983406],[22.16908778104147,65.48049964920776],[22.168561196159093,65.4801639406868],[22.168548400625404,65.47854119494963],[22.16464302043509,65.47854645973739],[22.163933043671076,65.47912131091317],[22.160554024115974,65.47946219683602],[22.160223470430914,65.4798386360785],[22.159366445028695,65.47987933292693],[22.16045606914763,65.47910610773677],[22.160358117122996,65.47875001854423],[22.15907263177758,65.47881106262652],[22.158546209065847,65.4784753176172],[22.158876770992364,65.4780988819597],[22.159733739002746,65.47805818844745],[22.15939097078324,65.47681187371754],[22.1576281596894,65.47671520551764],[22.154726764370746,65.47721366225572],[22.155057366903215,65.4768372345566],[22.153711175364148,65.47509742940115],[22.154996493408277,65.47503643256728],[22.154898634070733,65.47468033892034],[22.156619708214123,65.47403509736017],[22.120993430000002,65.47573072],[22.123429380000005,65.48463369],[22.159372776314182,65.48293066786833],[22.16010109406211,65.48255000500333],[22.163578527868747,65.48256521187068],[22.162834376934278,65.4827666549182],[22.166288209999998,65.48260300999999],[22.17119433,65.50040712],[22.14975147,65.5014248],[22.15220011,65.51032718],[22.215857655709122,65.50729650994573]],[[22.287826638509813,65.46885283252908],[22.288732885239654,65.46898940727651],[22.289868018678497,65.46839328698465],[22.291630664018452,65.46848841344271],[22.291879897000204,65.4693783788355],[22.29107330675148,65.46959780997835],[22.291172995225054,65.46995379659822],[22.289888313791774,65.4700159457697],[22.288374700469923,65.47081077213869],[22.28452048571667,65.47099711713777],[22.28437108263097,65.4704631293155],[22.28716947646138,65.46960622697816],[22.287826638509813,65.46885283252908]],[[22.284988744207357,65.4742217415549],[22.285038557331305,65.47439973718541],[22.28461025232735,65.47442043816609],[22.284988744207357,65.4742217415549]],[[22.21476263985184,65.4604627787053],[22.215618925374535,65.46042177487695],[22.2156682352624,65.46059979825853],[22.21476263985184,65.4604627787053]],[[22.21402588147628,65.45310229906548],[22.214635498235925,65.45217118218463],[22.215590094048324,65.45248622897226],[22.21402588147628,65.45310229906548]],[[22.17584187455306,65.47350449602577],[22.175989084097466,65.47403861199477],[22.17556068155475,65.47405900466963],[22.17584187455306,65.47350449602577]],[[22.170569515967447,65.48115068185184],[22.170140991875247,65.4811710603399],[22.170091944920582,65.4809930195882],[22.170569515967447,65.48115068185184]],[[22.16780223435926,65.48056076816816],[22.167373717324967,65.48058113873844],[22.167324690536535,65.48040309689107],[22.16780223435926,65.48056076816816]],[[22.159672537205097,65.48257035411753],[22.159623558321208,65.48239230930895],[22.16005211230778,65.4823719603616],[22.159672537205097,65.48257035411753]],[[22.15434722084535,65.47741204233463],[22.153918742729164,65.47743237436313],[22.15382088723046,65.4770762799886],[22.15434722084535,65.47741204233463]]],[[[22.221612841099386,65.46013461291479],[22.221184709076393,65.46015513232771],[22.22123405619087,65.46033315352487],[22.221612841099386,65.46013461291479]]]]}},{"type":"Feature","properties":{"cyano_daymap_file_id":723429,"date":"2022-08-07Z","cloud":null,"sub_surfac":null,"surface":null,"no_data":null,"class":1,"color_hex":null,"algae_class":"class_1","source_date":"2022-08-07"},"geometry":{"type":"MultiPolygon","coordinates":[[[[22.120993430000002,65.47573072],[22.11612703,65.4579246],[22.137535849999995,65.45691202],[22.132662429999996,65.4391065],[22.08987159999999,65.44112698999999],[22.09471638,65.45893417000002],[22.073303919999997,65.45994071],[22.070887779999996,65.45103673999999],[22.02807174,65.45303996],[22.030473550000004,65.46194475],[22.05188964,65.46094424],[22.05430042,65.46984857],[22.0971415,65.46783767],[22.099568449999992,65.47674111],[22.120993430000002,65.47573072]],[[22.05964247505544,65.45788993229239],[22.059690718855073,65.45806801644433],[22.059262468998895,65.45808807779089],[22.05964247505544,65.45788993229239]],[[22.056173990317813,65.45949512386726],[22.053604320777488,65.45961541551621],[22.053031433182188,65.45910119996348],[22.051698420056248,65.45898323719848],[22.051602037791795,65.45862706276466],[22.054358839543667,65.45759632826329],[22.053834185927258,65.457260201679],[22.052597651857766,65.45749841893378],[22.05202483260584,65.45698419889048],[22.052784919612982,65.4565879426433],[22.054117814292255,65.45670589696029],[22.053785983743982,65.45708211525415],[22.054738876532813,65.45739819480764],[22.056451843241728,65.45731799376884],[22.056307185086748,65.45678373745145],[22.057115423224822,65.45656554551611],[22.057971876403087,65.45652543423502],[22.058116566787753,65.45705968864873],[22.058973034269776,65.45701957155111],[22.059594231980288,65.45771184811765],[22.056173990317813,65.45949512386726]]],[[[22.058737743011626,65.45775196894556],[22.058309497440693,65.45777202754802],[22.058357731914754,65.45795011221588],[22.058737743011626,65.45775196894556]]]]}},{"type":"Feature","properties":{"cyano_daymap_file_id":723429,"date":"2022-08-07Z","cloud":null,"sub_surfac":null,"surface":null,"no_data":null,"class":1,"color_hex":null,"algae_class":"class_1","source_date":"2022-08-07"},"geometry":{"type":"MultiPolygon","coordinates":[[[[21.925856079999996,65.39466366999999],[21.92821676,65.40357047],[21.94958992,65.40258488],[21.95195950999999,65.41149122999998],[22.016089729999997,65.40851515],[22.01369871,65.39961001999998],[21.9709613,65.40159627000001],[21.96621315999999,65.38378422],[21.92349717,65.3857568],[21.92329362833069,65.38498767838236],[21.916983064499096,65.39507152230682],[21.925856079999996,65.39466366999999]],[[21.97310417628309,65.40187142839747],[21.972676763585373,65.40189123617407],[21.972629234728906,65.40171311739624],[21.97310417628309,65.40187142839747]]],[[[21.942491779999997,65.3758655],[21.938714118653465,65.36161845785912],[21.9374845157948,65.3623116230953],[21.92860161394669,65.37650588500644],[21.942491779999997,65.3758655]]]]}},{"type":"Feature","properties":{"cyano_daymap_file_id":723429,"date":"2022-08-07Z","cloud":null,"sub_surfac":null,"surface":null,"no_data":null,"class":1,"color_hex":null,"algae_class":"class_1","source_date":"2022-08-07"},"geometry":{"type":"MultiPolygon","coordinates":[[[[22.151613990000005,65.4291893],[22.20031135219504,65.4268653689194],[22.200129623601573,65.42634929297398],[22.200935690684556,65.42613035284923],[22.206543547100498,65.42604234928656],[22.20644520899656,65.42568629368765],[22.207300374843413,65.42564534804804],[22.207958824693286,65.42489228878925],[22.20881396179816,65.42485133485069],[22.2102782667846,65.42387928101364],[22.211511716806843,65.42363980325703],[22.21131493047515,65.42292769954925],[22.212597529463153,65.42286623933207],[22.21249912359471,65.42251018834264],[22.214505154413626,65.42159046345337],[22.213298869999996,65.41722691999999],[22.256039109999996,65.41517193000001],[22.251094729999995,65.39737096],[22.208382989999997,65.39942427],[22.20592781,65.39052284999998],[22.248625309999998,65.38847039],[22.23630590999999,65.34396662999998],[22.25761639,65.34293799],[22.247765659999995,65.30733558999998],[22.226483479999995,65.30836256],[22.221583260000003,65.29056017],[22.200313390000005,65.2915833],[22.19787307,65.28268160000002],[22.176608429999998,65.28370131999998],[22.174176989999996,65.27479915],[22.15291759,65.27581546000002],[22.15049501,65.26691282],[22.12924085,65.26792573000002],[22.126827119999998,65.25902260999999],[22.120147219512056,65.25933899638856],[22.069956432610777,65.28763309835097],[22.070258119999995,65.28875502999999],[22.067757371470492,65.28887277726349],[22.05124618187666,65.29818064651063],[22.05616065,65.31647037],[22.077457319999997,65.31546737999999],[22.08226575,65.33327533999999],[22.103574799999997,65.33226853],[22.10840461,65.35007543999998],[22.06575633,65.35208768],[22.0609549,65.33427914],[22.039642269999998,65.33527994],[22.03725133,65.32637517],[22.015944,65.32737256],[22.018327840000005,65.33627774000001],[21.997011629999996,65.33727253],[21.99939015,65.34617805],[21.97806506,65.34717025],[21.98043825,65.35607612],[22.023100869999993,65.35408790999999],[22.02549006,65.36299292],[22.00320586295387,65.36403150939904],[22.004585551598606,65.36434322167894],[22.004540082863443,65.36578797311935],[22.00292819895679,65.36622374606965],[22.00302351251496,65.36657996219337],[22.002169888158022,65.36661973464471],[22.000796131249746,65.36794602766433],[21.999231688120467,65.36855987185537],[21.997951143717057,65.36861949751275],[21.996432506435646,65.3677885599883],[21.986662614907296,65.3684233428736],[21.98393291158053,65.36917746098044],[21.98518997,65.3738877],[21.98946855879614,65.37368827505364],[21.99060350644846,65.37346954755552],[21.990508330916178,65.37311332228033],[21.99264296678924,65.37301404181513],[21.992927082602673,65.3724598469533],[21.994587128402426,65.37220228694112],[22.000371244767145,65.36958876968997],[22.002837083256182,65.36911324954946],[22.004544488535906,65.36903369073207],[22.006442626359114,65.36966653948528],[22.008102355902572,65.36940883354751],[22.009003764064566,65.36954713239112],[22.00909917449412,65.36990334371416],[22.009857470920576,65.36950732040194],[22.01199172556143,65.36940776937577],[22.01208717584942,65.36976397842061],[22.015928840436366,65.36958470785268],[22.016639267508957,65.36901054848741],[22.021525598127756,65.36950369035233],[22.023898825096133,65.37029447459267],[22.02551410614297,65.37148132397627],[22.024660363924585,65.37152122506595],[22.024964750735446,65.37203379818982],[22.027881039999997,65.37189786999998],[22.032668369999996,65.38970759],[22.054025469999996,65.38870735],[22.05638979364019,65.39746661776977],[22.07779138,65.39660805],[22.080203799999996,65.40551195],[22.101571550000003,65.40450487],[22.103992920000003,65.4134083],[22.146737240000004,65.41138426000003],[22.151613990000005,65.4291893]],[[22.141867799999996,65.39357899],[22.16322296,65.39256329],[22.1656639,65.40146554],[22.14430161,65.40248166],[22.141867799999996,65.39357899]],[[22.202884199765148,65.38923946107619],[22.205151690143115,65.38804853033211],[22.206810488245154,65.38778864450458],[22.20713928019411,65.38741212048154],[22.208420157261646,65.3873507128027],[22.20874892074754,65.38697418554757],[22.209602822261992,65.38693323934476],[22.210177089734895,65.38744684633245],[22.213165776496403,65.3873034848001],[22.2120322737455,65.38789901234632],[22.20956868855284,65.38837793363703],[22.209289024504372,65.38893249031092],[22.20805716899995,65.38917193418318],[22.20782656159308,65.38990451658081],[22.204606839721908,65.39078035388113],[22.203900020497205,65.39135536211055],[22.20304596451131,65.39139627751563],[22.201897547058262,65.39036900585192],[22.202884199765148,65.38923946107619]],[[22.176419298173514,65.38581520703616],[22.1759923347363,65.38583558681715],[22.175894592576633,65.38547950535192],[22.176419298173514,65.38581520703616]],[[22.175747984825122,65.38494538297901],[22.17617493402916,65.384925004031],[22.176223805394514,65.38510304467871],[22.175747984825122,65.38494538297901]],[[22.17536990056162,65.38514380170507],[22.17579685334392,65.38512342379333],[22.17584572259442,65.3853014645843],[22.17536990056162,65.38514380170507]],[[22.08058934321055,65.39450634427851],[22.089916396841762,65.38901712670229],[22.092430646218578,65.3887182129522],[22.093566950242135,65.38812355882085],[22.094896508007736,65.38824118562982],[22.095089824619603,65.38895347427652],[22.093623064011915,65.3899244326321],[22.08940025138695,65.39030391782828],[22.08778834554401,65.39074059898344],[22.085136320980705,65.39212801652933],[22.08357968134586,65.39436553775704],[22.08035512219761,65.3952387655108],[22.08058934321055,65.39450634427851]],[[22.016873163155733,65.34086783089761],[22.0164467807809,65.34088775282585],[22.01639908915397,65.34070964929654],[22.016873163155733,65.34086783089761]],[[22.01356546148157,65.34625194577208],[22.01531904072845,65.34635038387259],[22.015557531332025,65.34724090269042],[22.014799946897092,65.34763694793195],[22.014659622669885,65.34872548956346],[22.01375890757148,65.34858721782429],[22.01342777443863,65.34896334117265],[22.01139053560213,65.34941910702018],[22.007978308422064,65.34957833560817],[22.009729634864993,65.34805398013819],[22.01356546148157,65.34625194577208]],[[22.011944001489056,65.36922966481966],[22.01237084742727,65.3692097511681],[22.012418574346565,65.36938785556146],[22.011944001489056,65.36922966481966]],[[22.007599428082695,65.34977634047439],[22.00717289292191,65.34979623759972],[22.007125244497963,65.34961813073572],[22.007599428082695,65.34977634047439]]],[[[21.98281322,65.36498194],[21.983453409129048,65.36738074960888],[21.984005465854043,65.36656326838089],[21.987861470158393,65.36474665850938],[21.98281322,65.36498194]]]]}}]}