{"type":"FeatureCollection","properties":{"source":"SMHI SE.SR Ytansamling av alger","date":"2016-06-24","note":"Test: SMHI WFS clipped to Lulea municipal sea area and simplified 20 m."},"features":[{"type":"Feature","properties":{"cyano_daymap_file_id":3870,"date":"2016-06-24Z","cloud":null,"sub_surfac":null,"surface":null,"no_data":null,"class":1,"color_hex":null,"algae_class":"class_1","source_date":"2016-06-24"},"geometry":{"type":"Polygon","coordinates":[[[22.69686738,65.29396981],[22.69165349,65.27618650999999],[22.71288708999999,65.27509419999998],[22.715500080000005,65.28398544],[22.736738749999997,65.28288970999999],[22.73936071,65.29178044000001],[22.781846229999996,65.28957912],[22.77921023,65.28068928999998],[22.75797547,65.28179099],[22.752723380000003,65.26401023],[22.7951629,65.26180564],[22.792525779999995,65.25291606],[22.771314,65.2540194],[22.76868584,65.2451293],[22.72627041,65.24732613999998],[22.72365819,65.23843509],[22.66004149,65.24170667000001],[22.657452190000004,65.23281422000001],[22.63624975999999,65.23389834999999],[22.633669379999994,65.22500539999997],[22.676058339999994,65.22283504],[22.6786527,65.23172711],[22.69985127,65.23063703],[22.6946505,65.2128537],[22.800544459999998,65.20736307999998],[22.803178769999995,65.21625255],[22.845536639999995,65.21403459],[22.85083904,65.23181152],[22.89321694,65.22957985000001],[22.895885059999994,65.23846730999999],[22.938268979999993,65.23622283999998],[22.94095305,65.24510931],[22.91975511,65.24623349],[22.922434189999993,65.25512035999999],[22.943639120000004,65.25399572],[22.946327189999998,65.26288206],[23.05235671,65.25721193],[23.05508172,65.2660959],[23.088092956107296,65.26431361861748],[23.083434648887803,65.24793025256493],[23.08043185064679,65.2410880822697],[23.072734007836395,65.22755481896989],[23.062814772555992,65.214278717246],[23.05703780408209,65.2077578360096],[23.0438821336382,65.1949890305416],[23.0286527983404,65.1826346123978],[23.008964892860096,65.16924161693562],[23.00408529,65.16950378],[23.00286781062142,65.16549122191232],[22.994761417192038,65.16097225052232],[22.916868009999998,65.16512856],[22.919536190000002,65.17401558],[22.898393949999996,65.17513611999999],[22.89573272,65.16624864],[22.83231502,65.16959109],[22.82967658,65.16070219],[22.78740221,65.16291476],[22.79002676,65.17180456],[22.7688797,65.17290684],[22.766262099999995,65.16401658999999],[22.72397608,65.16621136],[22.72137431,65.15732015999998],[22.700235350000003,65.15841264000001],[22.705426909999996,65.17619586999999],[22.663115399999995,65.17837369999998],[22.660532569999997,65.16948123999998],[22.639380899999995,65.17056525999999],[22.64195677,65.17945816],[22.578469409999997,65.18269372],[22.581026279999993,65.19158786999998],[22.453958599999996,65.19798129],[22.45144361,65.18908455],[22.409086680000005,65.19119102],[22.406587519999995,65.18229335999999],[22.364237140000004,65.18438707],[22.36920936,65.20218404],[22.326823619999995,65.20426754],[22.324350579999997,65.19536823999998],[22.281971479999996,65.19743897999999],[22.279514269999996,65.18853878],[22.25832898,65.18956926000001],[22.260779190000004,65.19846988],[22.22505364644804,65.20019999252963],[22.181965743923975,65.22448997845393],[22.18326931,65.22927017],[22.204489909999996,65.22824995],[22.202055259999998,65.21934826],[22.223267030000002,65.21832547000001],[22.22570869,65.22722675],[22.246925650000005,65.22620056],[22.24937615,65.23510136],[22.185698739999992,65.23817221999998],[22.188129979999996,65.24707421],[22.145655250000004,65.24910735],[22.15291759,65.27581546000002],[22.19543457,65.27377983999999],[22.19787307,65.28268160000002],[22.325422529999997,65.27650042999998],[22.327905150000003,65.28539961000001],[22.37042097,65.28331445000002],[22.37291954,65.29221272],[22.394181709999998,65.29116523],[22.3916761,65.28226738],[22.434180729999998,65.28016428],[22.436700430000002,65.28906127],[22.45795698,65.2880048],[22.45543024,65.27910825],[22.47667787,65.27804921999999],[22.47414598,65.26915304],[22.49538469,65.26809146],[22.4979236,65.27698721],[22.54040939,65.27485423],[22.54296426,65.28374906],[22.564211340000004,65.28267765],[22.56677515,65.29157198],[22.588027339999993,65.29049715],[22.5854565,65.28160326000001],[22.606699749999997,65.28052587999998],[22.60927762,65.28941933],[22.65177241,65.28725473],[22.64918048,65.27836216],[22.67041796,65.27727583],[22.67561779,65.29506001999998],[22.69686738,65.29396981]]]}}]}