{"type":"FeatureCollection","properties":{"source":"SMHI SE.SR Ytansamling av alger","date":"2015-09-03","note":"Test: SMHI WFS clipped to Lulea municipal sea area and simplified 20 m."},"features":[{"type":"Feature","properties":{"cyano_daymap_file_id":3844,"date":"2015-09-03Z","cloud":null,"sub_surfac":null,"surface":null,"no_data":null,"class":1,"color_hex":null,"algae_class":"class_1","source_date":"2015-09-03"},"geometry":{"type":"Polygon","coordinates":[[[22.962497669999998,65.31619865],[22.95709948,65.29842673],[22.97833741,65.29729682],[22.97293324,65.27952554],[22.951709330000003,65.28065453],[22.949017259999998,65.27176833000001],[22.92779833,65.27289388],[22.922434189999993,65.25512035999999],[22.943639120000004,65.25399572],[22.94095305,65.24510931],[22.91975511,65.24623349],[22.917078019999998,65.23734656],[22.895885059999994,65.23846730999999],[22.903901339999997,65.26512927],[22.882685429999995,65.26624841],[22.877353239999998,65.24847293],[22.834943459999998,65.25070045],[22.837594569999997,65.25958912999998],[22.858807450000004,65.2584764],[22.864129599999995,65.27625265999998],[22.800443029999997,65.27958460999999],[22.80308605,65.28847399000001],[22.781846229999996,65.28957912],[22.784484200000005,65.29846889],[22.805731030000004,65.2973633],[22.81102692,65.31514173000001],[22.76850316,65.31735171],[22.771139989999998,65.32624173],[22.79240988999999,65.32513777999999],[22.795055740000002,65.33402728],[22.731218990000002,65.3373315],[22.733845659999997,65.34622227],[22.818985569999995,65.34180886999998],[22.816330710000003,65.33291989],[22.837603699999995,65.33180952],[22.850933139999995,65.37625147999998],[22.8722394,65.37513584],[22.874918339999997,65.38402357999999],[22.89622967,65.38290449],[22.89891768,65.39179169999998],[22.920234070000003,65.39066916],[22.917539,65.38178241],[22.938846309999995,65.38065733],[22.936146189999995,65.37177096999999],[22.957444419999998,65.37064334999998],[22.965572039999994,65.39730084999998],[22.986889439999995,65.39616886],[22.98145488,65.37839819],[23.002756119999997,65.37726413],[23.00003483,65.36837915000001],[22.978740640000005,65.36951275000001],[22.976028419999995,65.36062724],[22.954739259999997,65.36175738],[22.949334989999997,65.34398523],[22.928057899999995,65.34511146999999],[22.925365829999997,65.33622482999999],[22.94663588,65.33509906],[22.94124369,65.31732648999999],[22.962497669999998,65.31619865]],[[22.91998771,65.31845135],[22.91730165,65.30956451],[22.938550609999997,65.30844011],[22.94124369,65.31732648999999],[22.91998771,65.31845135]],[[22.845559760000004,65.28625477],[22.90925548,65.28290357],[22.911935539999995,65.29179061999999],[22.848218789999994,65.29514317999998],[22.845559760000004,65.28625477]],[[22.832285839999997,65.31403225999999],[22.853542769999994,65.31291979999999],[22.856207750000003,65.32180801],[22.834943780000003,65.32292092],[22.832285839999997,65.31403225999999]]]}},{"type":"Feature","properties":{"cyano_daymap_file_id":3844,"date":"2015-09-03Z","cloud":null,"sub_surfac":null,"surface":null,"no_data":null,"class":1,"color_hex":null,"algae_class":"class_1","source_date":"2015-09-03"},"geometry":{"type":"Polygon","coordinates":[[[22.525120039999997,65.22148396],[22.567514099999997,65.21934426],[22.57007158,65.22823859000002],[22.59127276,65.22716384],[22.58870828,65.21826994],[22.652279370000002,65.21502913],[22.64969585,65.20613648],[22.607331,65.20829912],[22.604763349999995,65.19940553999999],[22.625939750000004,65.19832614],[22.615660319999996,65.16275291],[22.552209049999995,65.16597693],[22.557303159999996,65.18376629],[22.51496497999999,65.18590251999998],[22.51243093,65.177007],[22.533593989999996,65.17594081],[22.531054839999996,65.16704566],[22.488740780000004,65.16917421],[22.496322019999997,65.19586205],[22.475141249999997,65.19692316],[22.477665099999996,65.20581942],[22.45647546,65.20687798000002],[22.453958599999996,65.19798129],[22.432774079999994,65.19903644999998],[22.437795679999997,65.21683060999999],[22.458994189999995,65.2157746],[22.46151479,65.22467116],[22.503920179999998,65.22254933999999],[22.50138558,65.21365364],[22.522578449999997,65.21258868999999],[22.525120039999997,65.22148396]],[[22.604763349999995,65.19940553999999],[22.56240484,65.2015554],[22.559853049999997,65.19266087999999],[22.602197609999997,65.19051189],[22.604763349999995,65.19940553999999]],[[22.520038739999997,65.20369336],[22.54122273,65.20262587],[22.543769430000005,65.21152077],[22.522578449999997,65.21258868999999],[22.520038739999997,65.20369336]]]}},{"type":"Feature","properties":{"cyano_daymap_file_id":3844,"date":"2015-09-03Z","cloud":null,"sub_surfac":null,"surface":null,"no_data":null,"class":1,"color_hex":null,"algae_class":"class_1","source_date":"2015-09-03"},"geometry":{"type":"MultiPolygon","coordinates":[[[[22.30069774,65.18750532],[22.364237140000004,65.18438707],[22.359272299999997,65.16658985999999],[22.338108300000002,65.16763141],[22.335635620000005,65.15873229000002],[22.35679265,65.15769117],[22.35183885,65.13989359999998],[22.330695759999994,65.14093387999999],[22.330568914377153,65.14047633849454],[22.293536710147805,65.16159396726786],[22.30069774,65.18750532]]],[[[22.433890849999997,65.1268056],[22.43139075,65.11790836000002],[22.41026893,65.11895967],[22.404201682132882,65.09727430035288],[22.346497830151996,65.13113047729938],[22.433890849999997,65.1268056]]]]}},{"type":"Feature","properties":{"cyano_daymap_file_id":3844,"date":"2015-09-03Z","cloud":null,"sub_surfac":null,"surface":null,"no_data":null,"class":1,"color_hex":null,"algae_class":"class_1","source_date":"2015-09-03"},"geometry":{"type":"Polygon","coordinates":[[[22.97413237,65.49617373],[22.97140584,65.48728827000001],[22.991348302130884,65.48622703094514],[23.007891848960487,65.4645931985418],[23.005974579999997,65.45836402],[23.012939084232983,65.457992978945],[23.023370938196074,65.44435134679577],[23.02186224,65.43945702],[23.02733729751823,65.43916457797825],[23.038833327731286,65.42413133308257],[23.03772769,65.4205486],[22.99505655,65.42282435],[22.99778299,65.43170937],[22.97643727,65.43284321],[22.981882090000003,65.45061397000002],[22.91779014,65.45400025],[22.920494290000004,65.46288691],[22.899119130000003,65.46401012000001],[22.90181819,65.47289717],[22.923200460000004,65.4717735],[22.93133118,65.49843286],[22.97413237,65.49617373]]]}},{"type":"Feature","properties":{"cyano_daymap_file_id":3844,"date":"2015-09-03Z","cloud":null,"sub_surfac":null,"surface":null,"no_data":null,"class":1,"color_hex":null,"algae_class":"class_1","source_date":"2015-09-03"},"geometry":{"type":"MultiPolygon","coordinates":[[[[22.44831683189009,65.38772875680955],[22.450269610154535,65.38728517736048],[22.449914499053296,65.38603965760214],[22.452170262936423,65.38484513593204],[22.452018046405325,65.38431134404163],[22.45058583361852,65.38384102039078],[22.45048438131659,65.38348515782046],[22.451815101659147,65.38359962117346],[22.452486225834914,65.38140097765354],[22.455168088863285,65.38018525658296],[22.45602129740762,65.38014292081903],[22.45629563024744,65.37958796412475],[22.457148817207454,65.3795456221933],[22.457697412936216,65.37843570491584],[22.458550559767236,65.37839335545348],[22.458723286868818,65.3774825387128],[22.460652946703714,65.37666493321038],[22.461348433108448,65.37573804075478],[22.45946251,65.36913138],[22.480782640000005,65.36807103000001],[22.48587588,65.38586284],[22.528538780000005,65.3837314],[22.52341718,65.36594133],[22.50210086,65.36700768],[22.499550009999993,65.35811212],[22.47919920196324,65.3591271326821],[22.4837230711574,65.36053971876365],[22.486039049766745,65.36258974287412],[22.48629364472657,65.36347932920626],[22.485046640616165,65.36516558670527],[22.482743139837645,65.36618264947998],[22.480611375277018,65.36628884541854],[22.480509598711187,65.36593300645745],[22.47631641011461,65.36487863236191],[22.475209490672537,65.36403146937495],[22.474650217217803,65.36207432904092],[22.469026643856367,65.36054962466822],[22.464337593603094,65.36078277991295],[22.46353578995639,65.36100308272886],[22.46363731385797,65.36135893575306],[22.459800659729733,65.3615495742339],[22.45819691365721,65.36199012867333],[22.457922783341637,65.3625450867367],[22.45659311314398,65.36243066658167],[22.456694549803604,65.36278652518567],[22.454238013517088,65.36326937272254],[22.455314162574275,65.36249416442381],[22.45217785376022,65.36210849078475],[22.451447447476664,65.36106205715896],[22.45001653858769,65.36059171472552],[22.44885998723483,65.35956641530449],[22.450088147626655,65.35932504154975],[22.450615758833234,65.35965975577454],[22.45146831060187,65.35961745254883],[22.451814077047743,65.35779583197493],[22.453316315077544,65.35699948548542],[22.45534606790535,65.35653782262858],[22.45604640956497,65.35596170474302],[22.454565016721066,65.35531347364211],[22.454362273766016,65.35460175216342],[22.450547452686234,65.35334753974917],[22.447138032701364,65.35351669472213],[22.4455851725258,65.35413504552008],[22.446091448312075,65.35591438423529],[22.445542773857166,65.35702425998409],[22.444740919527675,65.35724446317117],[22.44512473272264,65.36011254381792],[22.44628116511071,65.36113787316746],[22.446635697368723,65.3623834073874],[22.445833691388557,65.36260361795674],[22.445609937554533,65.36333649002756],[22.44611642941064,65.3651158264592],[22.444989254508677,65.3657130389194],[22.444136492570536,65.36575530759477],[22.44423777622439,65.36611117616073],[22.445567586473945,65.36622570404025],[22.444288419187224,65.36628911040657],[22.441332889702366,65.36805956076256],[22.440357348295713,65.36919054718388],[22.440885043213456,65.36952529466828],[22.438803417764632,65.36980883897958],[22.43941084549346,65.37194407370146],[22.438715636763625,65.37219143800547],[22.443205359999997,65.38798226999998],[22.44831683189009,65.38772875680955]],[[22.514629610566544,65.37632062841669],[22.51638669554108,65.37641318785433],[22.516420610387026,65.37803566798422],[22.514594931849405,65.37920978115446],[22.51198459979437,65.37915985889735],[22.51307706548041,65.3769396722934],[22.514629610566544,65.37632062841669]],[[22.45476575912714,65.36360407101685],[22.45433942223343,65.36362523320132],[22.45428871749621,65.36344730297435],[22.45476575912714,65.36360407101685]],[[22.453212500255244,65.36422250464176],[22.452786151826235,65.36424366254462],[22.452684761235986,65.36388780083283],[22.453212500255244,65.36422250464176]],[[22.45118212147686,65.3646841451505],[22.450755763589182,65.36470529739881],[22.450705080571694,65.36452736574138],[22.45118212147686,65.3646841451505]],[[22.449852368192055,65.36456966629252],[22.449426010865622,65.36459081476808],[22.449375337109604,65.3644128825678],[22.449852368192055,65.36456966629252]],[[22.447771237158506,65.36485332953595],[22.44819760035012,65.3648321856879],[22.44824826711748,65.3650101183565],[22.447771237158506,65.36485332953595]],[[22.44739553430725,65.36505240519779],[22.447821901091142,65.36503126237714],[22.447872565781342,65.36520919519361],[22.44739553430725,65.36505240519779]],[[22.44701982578648,65.36525147998],[22.447446196162677,65.36523033818683],[22.447496858775622,65.3654082711511],[22.44701982578648,65.36525147998]],[[22.446644111596054,65.36545055388254],[22.44707048556459,65.36542941311686],[22.447121146100233,65.36560734622896],[22.446644111596054,65.36545055388254]],[[22.4462683917359,65.36564962690545],[22.446694769296812,65.36562848716726],[22.446745427755033,65.36580642042719],[22.4462683917359,65.36564962690545]]],[[[22.475696999999993,65.35027896999999],[22.45439104,65.35133846],[22.451858149999993,65.34244189999998],[22.47315703,65.34138285],[22.46808278,65.32359042],[22.489365639999995,65.32252923],[22.4868243,65.31363336],[22.4655485,65.31469411000002],[22.463016099999997,65.30579772999998],[22.48428485,65.30473742],[22.47921164,65.28694535],[22.54296426,65.28374906],[22.54552104,65.29264382],[22.56677515,65.29157198],[22.57190851,65.30936043999998],[22.59317478,65.30828473],[22.595751379999996,65.31717842999998],[22.617022779999996,65.31609928999998],[22.61960835,65.32499249],[22.577049529999996,65.32714864999998],[22.57962292,65.33604266000002],[22.643479419999995,65.33280261],[22.646075919999994,65.34169522999998],[22.624785289999995,65.34277867999998],[22.627376649999995,65.35167167999998],[22.606077029999998,65.35275258],[22.608663259999993,65.36164595999999],[22.62996996,65.36056462],[22.632565200000002,65.36945749],[22.65387704,65.36837271],[22.651274719999996,65.35948027999999],[22.672577540000002,65.35839295],[22.6699701,65.3495009],[22.691263900000003,65.34841102],[22.688651349999997,65.33951934999999],[22.667364609999996,65.34060878999999],[22.664761060000004,65.33171661],[22.68604075,65.33062761000001],[22.68343209,65.32173581],[22.704702789999995,65.32064426999999],[22.70208904,65.31175285],[22.74461049999999,65.30956168999997],[22.741984629999997,65.30067109999997],[22.69947724,65.30286136000001],[22.69686738,65.29396981],[22.654366269999993,65.29614723999998],[22.64918048,65.27836216],[22.69165349,65.27618650999999],[22.694259459999994,65.28507818999998],[22.715500080000005,65.28398544],[22.71288708999999,65.27509419999998],[22.755348449999996,65.27290064],[22.742242619999995,65.22844793],[22.763435370000003,65.22734891],[22.76081307,65.21845861],[22.739627289999998,65.21955718],[22.737013910000005,65.21066637999999],[22.779369560000003,65.20846715],[22.77674417,65.19957717],[22.71322871,65.20287020999999],[22.710626180000002,65.19397883],[22.68945746,65.19507012],[22.697249919999997,65.2217454],[22.676058339999994,65.22283504],[22.6786527,65.23172711],[22.657452190000004,65.23281422000001],[22.654864819999993,65.22392170999998],[22.633669379999994,65.22500539999997],[22.63624975999999,65.23389834999999],[22.593839139999996,65.23605767],[22.601549759999997,65.26273878999999],[22.55908944,65.26488881],[22.55397517,65.24709971000001],[22.490312519999996,65.25029976],[22.49284766,65.25919564],[22.471615979999996,65.26025678],[22.464037269999995,65.23356765999999],[22.442824749999996,65.23462453],[22.4453421,65.2435214],[22.4241207,65.24457571],[22.4266329,65.25347295],[22.44786132,65.25241819999998],[22.45795698,65.2880048],[22.415442009999996,65.29011473999999],[22.41795654,65.2990121],[22.396689189999993,65.30006300999999],[22.399198540000004,65.30896073000001],[22.38149593269886,65.30983299418747],[22.381813806993783,65.31037266617808],[22.380261860454087,65.31099033317037],[22.37936066675952,65.31085425654499],[22.379723732921835,65.30992031614929],[22.37792227,65.31000908],[22.37911132630522,65.31423258179522],[22.380737860830923,65.3142145810455],[22.380187180077424,65.31532423847412],[22.38081319337952,65.31601513811201],[22.37960635011581,65.31599089546258],[22.38293247,65.3278052],[22.34034606,65.32989461],[22.33536413,65.31209679],[22.314082259999996,65.31313615999998],[22.32153675,65.33983407],[22.40673785,65.33565353000002],[22.409254709999995,65.34455100999999],[22.43055737,65.34349795],[22.434421815241425,65.35708961308181],[22.436064201041024,65.35713307854796],[22.436165335349372,65.35748895407187],[22.437870351395013,65.3574045074264],[22.437993124669028,65.35631577106723],[22.439322411917967,65.35643035948425],[22.43957535534327,65.35732004158564],[22.441179144888302,65.35687968516282],[22.441402978431928,65.35614681886807],[22.4399219281756,65.35549844009361],[22.439842270118728,65.35369795783497],[22.438188074860708,65.35396036129508],[22.438310827239142,65.35287162489448],[22.436302758082018,65.35188844705972],[22.434742799147866,65.34943952545223],[22.43331282623815,65.34896901460608],[22.433962933525223,65.34821505741637],[22.43604291632454,65.34793159690477],[22.437472879030793,65.34840208190414],[22.438700633243712,65.34816080526295],[22.439278436831387,65.34867349995912],[22.442362364638544,65.34888152539843],[22.44316398831399,65.34866133725876],[22.443265179195958,65.34901720742512],[22.448935439706577,65.35072084773614],[22.449787705213016,65.35067855697396],[22.453551423143303,65.35175486227786],[22.454403713147368,65.35171254511351],[22.45540805382211,65.35220401341721],[22.4571633500659,65.35229728237806],[22.461404489013436,65.3535301462407],[22.465493743582293,65.35422910888393],[22.478129769956464,65.3587932006644],[22.475696999999993,65.35027896999999]],[[22.561649439999997,65.27378325999999],[22.6041238,65.27163237],[22.60927762,65.28941933],[22.630525979999998,65.28833852],[22.633112799999996,65.29723147],[22.5906001,65.29939096999999],[22.588027339999993,65.29049715],[22.56677515,65.29157198],[22.561649439999997,65.27378325999999]],[[22.665225859999996,65.25949137999999],[22.707666939999996,65.25731153],[22.710276050000004,65.2662029],[22.667820939999995,65.26838363999998],[22.665225859999996,65.25949137999999]],[[22.63570156,65.30612435],[22.65696206,65.30503968],[22.66215945,65.32282436],[22.640884869999997,65.32390992],[22.63570156,65.30612435]],[[22.47414598,65.26915304],[22.49538469,65.26809146],[22.4979236,65.27698721],[22.47667787,65.27804921999999],[22.47414598,65.26915304]],[[22.435566273413126,65.34777476543478],[22.435039098858542,65.34743999397655],[22.435465192385884,65.34741888896421],[22.435566273413126,65.34777476543478]],[[22.435790201489986,65.34704190652776],[22.436642373445178,65.34699969119623],[22.43631737717486,65.347376675342],[22.435465192385884,65.34741888896421],[22.435790201489986,65.34704190652776]],[[22.380462197155733,65.31170217865933],[22.38003662771678,65.3117231225157],[22.379986545243934,65.3115451610093],[22.380462197155733,65.31170217865933]]]]}}]}