{"type":"FeatureCollection","properties":{"source":"SMHI SE.SR Ytansamling av alger","date":"2015-06-22","note":"Test: SMHI WFS clipped to Lulea municipal sea area and simplified 20 m."},"features":[{"type":"Feature","properties":{"cyano_daymap_file_id":3771,"date":"2015-06-22Z","cloud":null,"sub_surfac":null,"surface":null,"no_data":null,"class":1,"color_hex":null,"algae_class":"class_1","source_date":"2015-06-22"},"geometry":{"type":"Polygon","coordinates":[[[22.18326931,65.22927017],[22.204489909999996,65.22824995],[22.20692636,65.23715159],[22.22815216,65.23612796],[22.23304458,65.25393022999998],[22.25428262,65.25290278],[22.2567386,65.26180341],[22.277981849999996,65.26077254999998],[22.2804467,65.2696727],[22.301695149999993,65.26863843999999],[22.299223259999998,65.25973871],[22.36293643,65.25661926999999],[22.3604453,65.24772076],[22.40289743,65.24562704999998],[22.40790965,65.26342231],[22.45038241,65.26131493999999],[22.452905389999998,65.27021162999999],[22.43166291,65.27126723],[22.436700430000002,65.28906127],[22.45795698,65.2880048],[22.460485599999995,65.2969013],[22.439222009999998,65.29795819],[22.44174547,65.30685506],[22.48428485,65.30473742],[22.4868243,65.31363336],[22.55064032,65.31043316],[22.55320282,65.31932773],[22.531925669999996,65.32039789],[22.53448303,65.32929284],[22.555767229999997,65.32822224],[22.55833356,65.33711668],[22.57962292,65.33604266000002],[22.582198229999996,65.34493659999998],[22.603492720000002,65.34385914000002],[22.606077029999998,65.35275258],[22.648674349999993,65.35058778999999],[22.651274719999996,65.35948027999999],[22.672577540000002,65.35839295],[22.67779827,65.37617686],[22.69911328,65.37508564],[22.693878409999993,65.35730261999998],[22.75776927,65.35401367999998],[22.760406929999995,65.36290386999998],[22.781707009999998,65.36180112],[22.7790623,65.35291137],[22.80035335,65.35180608],[22.803005119999998,65.36069536999999],[22.86688754,65.35736016999999],[22.8722394,65.37513584],[22.91484594,65.37289559],[22.920234070000003,65.39066916],[22.941548449999996,65.38954362000001],[22.94425262,65.39842984],[22.901607699999996,65.40067884],[22.906993769999996,65.41845291999998],[22.928331399999994,65.41732899999998],[22.93373973,65.43510189],[22.91238791,65.43622672],[22.920494290000004,65.46288691],[22.94186741,65.46176069],[22.94729603,65.47953289],[22.990064639999996,65.47726959],[22.987335080000005,65.46838445],[23.005740498181684,65.46740649865629],[23.007891848960487,65.4645931985418],[23.005974579999997,65.45836402],[23.012939892379567,65.45799192213973],[23.0439526591749,65.41743683403658],[23.1383421263494,65.2880901187065],[23.089750185962696,65.28445681869319],[23.089709002936797,65.2756147460627],[23.0877229961228,65.2617264628135],[23.083434648887803,65.24793025256493],[23.08043185064679,65.2410880822697],[23.072734007836395,65.22755481896989],[23.062814772555992,65.214278717246],[23.05703780408209,65.2077578360096],[23.0438821336382,65.1949890305416],[23.0286527983404,65.1826346123978],[23.011423917751596,65.1707541953058],[23.002086021599,65.1650103332603],[22.982021613701992,65.1539487475862],[22.960190125166896,65.1434996447016],[22.936695353363596,65.13371361195249],[22.924360538612298,65.1290836625267],[22.8985886497093,65.1203780521599],[22.885184620758892,65.11631308182429],[22.8574198396373,65.1087830198622],[22.8430911307973,65.1053259673164],[22.813630577896,65.099051531591],[22.783216068086205,65.09365218440139],[22.767695334584204,65.0912889661128],[22.736125520193397,65.0872488627787],[22.703969492420804,65.0841417016372],[22.687722653553607,65.08294181426642],[22.6549815048834,65.0812580646165],[22.622043315924994,65.0805348656589],[22.5890680589074,65.08077551930198],[22.5562078378235,65.0819784364121],[22.5236222511317,65.0841381956597],[22.4989570328592,65.0864342959367],[22.4512775467598,65.06965380799399],[22.3200684113133,65.1466372251174],[22.181965743923975,65.22448997845393],[22.18326931,65.22927017]]]}},{"type":"Feature","properties":{"cyano_daymap_file_id":3771,"date":"2015-06-22Z","cloud":null,"sub_surfac":null,"surface":null,"no_data":null,"class":1,"color_hex":null,"algae_class":"class_1","source_date":"2015-06-22"},"geometry":{"type":"MultiPolygon","coordinates":[[[[22.69478451,65.72731513],[22.667017755091575,65.7287185748319],[22.692209173667,65.73394201467839],[22.696548981514113,65.73320855341348],[22.69478451,65.72731513]]],[[[22.62996321,65.73058675],[22.60835211,65.73167119],[22.61098488,65.74056407],[22.567742090000003,65.7427247],[22.565338294734893,65.7345560118734],[22.562335434383975,65.7336226748675],[22.561693836071846,65.73293269266568],[22.560292286104715,65.73264151052474],[22.558681585753423,65.7316388000274],[22.558524707969195,65.73110516340084],[22.561013773587398,65.73062028214365],[22.561132197959306,65.72953149051578],[22.563188818312454,65.72906809935967],[22.56308418284598,65.72871234522918],[22.563663304010955,65.72886398100974],[22.56250774,65.72493709],[22.543624174892972,65.72587496572521],[22.542261231931622,65.7264994851299],[22.5409645624073,65.72656389103078],[22.540371421375482,65.72603651777042],[22.51928623,65.72708374],[22.52449135,65.74487313],[22.546117709999997,65.74380044],[22.553962170000002,65.77048271],[22.575608499999998,65.76940563999999],[22.580862729999996,65.7871926],[22.60891232359635,65.78579058008589],[22.608337551130614,65.78529311485353],[22.60703812632062,65.78535811125934],[22.607143644335807,65.7857138263883],[22.604491996078742,65.78566592971127],[22.60509456920348,65.78473332258106],[22.606668838502728,65.7841131074877],[22.607651647758654,65.78298097096128],[22.607440627804774,65.78226954118593],[22.60830680729453,65.78222621022549],[22.61048313742226,65.7806733386681],[22.613514542555198,65.78052160049161],[22.61330338513976,65.77981018021458],[22.61406388460139,65.77941110730448],[22.613799934564113,65.77852183290297],[22.614507597413734,65.7779449033125],[22.613272094590865,65.77674328214462],[22.612592392255284,65.77658260151057],[22.59988628,65.77721858],[22.59725284,65.76832551],[22.61889518,65.76724233],[22.616256419999996,65.75834964],[22.623902416988766,65.75796532049512],[22.604195119519396,65.74896748549598],[22.63256855005572,65.73936216743876],[22.62996321,65.73058675]],[[22.56259963069066,65.72855599710205],[22.56303186630199,65.7285344681253],[22.56308418284598,65.72871234522918],[22.56259963069066,65.72855599710205]],[[22.547015625973657,65.72626323624235],[22.5470678268517,65.72644111999561],[22.54663561024568,65.72646260344298],[22.547015625973657,65.72626323624235]],[[22.546859028085507,65.72572958482857],[22.546911226590566,65.72590746865879],[22.546479018744552,65.72592895157425],[22.546859028085507,65.72572958482857]]],[[[22.616181691117145,65.7854272308633],[22.61358798084585,65.78521087408409],[22.61341244240967,65.78556564790743],[22.616181691117145,65.7854272308633]]],[[[22.62417873,65.78502751000002],[22.623242810261036,65.78220023973998],[22.61988387629444,65.78272957717223],[22.61836284779817,65.78352777758371],[22.618679852906325,65.78459489471813],[22.616341235552913,65.78541925625665],[22.62417873,65.78502751000002]]]]}}]}