{"type":"FeatureCollection","properties":{"source":"SMHI SE.SR Ytansamling av alger","date":"2015-06-18","note":"Test: SMHI WFS clipped to Lulea municipal sea area and simplified 20 m."},"features":[{"type":"Feature","properties":{"cyano_daymap_file_id":3767,"date":"2015-06-18Z","cloud":null,"sub_surfac":null,"surface":null,"no_data":null,"class":1,"color_hex":null,"algae_class":"class_1","source_date":"2015-06-18"},"geometry":{"type":"Polygon","coordinates":[[[23.09546959,65.327135],[23.074213740000005,65.32828167999999],[23.07147448,65.31939821],[23.050223599999995,65.32054144000001],[23.04476524,65.30277335],[23.00228545,65.305049],[22.99957333,65.29616392999999],[22.95709948,65.29842673],[22.951709330000003,65.28065453],[22.930483399999996,65.28178054],[22.92779833,65.27289388],[22.864129599999995,65.27625265999998],[22.86679366,65.28514068],[22.845559760000004,65.28625477],[22.84290272,65.27736629],[22.77921023,65.28068928999998],[22.784484200000005,65.29846889],[22.76323538999999,65.29957147999998],[22.765868289999997,65.30846163],[22.808377990000004,65.30625255],[22.81367782,65.32403085],[22.834943780000003,65.32292092],[22.842929499999997,65.34958649999999],[22.8642146,65.34847223],[22.869562469999998,65.36624804],[22.890859679999995,65.36512986],[22.89354367,65.37401721],[22.91484594,65.37289559],[22.917539,65.38178241],[22.874918339999997,65.38402357999999],[22.877599269999994,65.39291123999999],[22.83495645,65.39514134000001],[22.832289669999994,65.38625276999998],[22.768331719999995,65.38957407],[22.76304655,65.37179401],[22.69911328,65.37508564],[22.70173365,65.38397705],[22.723053789999998,65.38288239],[22.72831458,65.40066412],[22.792305650000003,65.39735945],[22.79761687,65.41513821],[22.861632590000003,65.41180383],[22.864312459999997,65.42069174999999],[22.928331399999994,65.41732899999998],[22.93373973,65.43510189],[22.97643727,65.43284321],[22.981882090000003,65.45061397000002],[23.020138184439414,65.44857878687817],[23.0439526591749,65.41743683403658],[23.099752231537902,65.34097182561952],[23.09546959,65.327135]],[[22.896050689999992,65.31068592999999],[22.91730165,65.30956451],[22.91998771,65.31845135],[22.89872972,65.31957322],[22.896050689999992,65.31068592999999]]]}},{"type":"Feature","properties":{"cyano_daymap_file_id":3767,"date":"2015-06-18Z","cloud":null,"sub_surfac":null,"surface":null,"no_data":null,"class":1,"color_hex":null,"algae_class":"class_1","source_date":"2015-06-18"},"geometry":{"type":"MultiPolygon","coordinates":[[[[22.25832898,65.18956926000001],[22.260779190000004,65.19846988],[22.281971479999996,65.19743897999999],[22.28443053,65.20633912],[22.30562799,65.20530482],[22.31056558,65.22310408000001],[22.331775219999997,65.22206596],[22.33425379,65.23096508],[22.355468599999995,65.22992355],[22.3604453,65.24772076],[22.381672289999997,65.24667538999998],[22.38417045,65.25557347999998],[22.40540261,65.25452471],[22.40790965,65.26342231],[22.42914697,65.26237012],[22.43166291,65.27126723],[22.452905389999998,65.27021162999999],[22.45795698,65.2880048],[22.500464409999996,65.28588290999998],[22.50300710999999,65.29477854],[22.52426503,65.29371267000002],[22.516621499999996,65.26702689],[22.49538469,65.26809146],[22.49284766,65.25919564],[22.471615979999996,65.26025678],[22.469087859999995,65.25136047],[22.5115353,65.24923606],[22.51407745,65.25813150999998],[22.53530535,65.25706439],[22.54040939,65.27485423],[22.6041238,65.27163237],[22.601549759999997,65.26273878999999],[22.580320559999997,65.26381528999998],[22.57263097,65.23713286],[22.55142089,65.23820507],[22.546318019999994,65.2204156],[22.482718419999998,65.22361174000001],[22.477665099999996,65.20581942],[22.45647546,65.20687798000002],[22.453958599999996,65.19798129],[22.432774079999994,65.19903644999998],[22.430266080000003,65.19013927],[22.387905429999996,65.19223979],[22.38541326,65.1833417],[22.364237140000004,65.18438707],[22.359272299999997,65.16658985999999],[22.338108300000002,65.16763141],[22.33316478,65.14983311],[22.31261042248325,65.15084152454006],[22.242554408465477,65.19033427064099],[22.25832898,65.18956926000001]],[[22.469087859999995,65.25136047],[22.4266329,65.25347295],[22.4241207,65.24457571],[22.4453421,65.2435214],[22.442824749999996,65.23462453],[22.464037269999995,65.23356765999999],[22.469087859999995,65.25136047]],[[22.37169824,65.21108243],[22.35049929,65.21212609],[22.34801741,65.20322728],[22.4115877,65.20008862],[22.4165953,65.21788364000001],[22.437795679999997,65.21683060999999],[22.440309279999994,65.22572759999998],[22.37668156,65.22887903],[22.37169824,65.21108243]]],[[[22.391631469999997,65.12890609999998],[22.386660889999998,65.11110986],[22.407777609999997,65.11006193999998],[22.412762089999994,65.12785732999998],[22.45501777,65.1257509],[22.45251072,65.11685409],[22.43139075,65.11790836000002],[22.42639609,65.1001137],[22.44750218,65.09906028],[22.445000689999997,65.09016328999999],[22.46609801,65.08910733],[22.463591449999992,65.08021069999998],[22.442501059999998,65.08126623],[22.440943216688314,65.07571719710083],[22.34649898424566,65.13112980016606],[22.391631469999997,65.12890609999998]]],[[[22.456628690062868,65.07153710840308],[22.4512775467598,65.06965380799399],[22.44726939194503,65.07200548459751],[22.456628690062868,65.07153710840308]]],[[[22.700629409999998,65.08618821],[22.71658455463963,65.08536066535376],[22.699948252831213,65.08384471865867],[22.700629409999998,65.08618821]]],[[[22.76647565,65.09179399],[22.72430435,65.09398757],[22.729496719999993,65.11176993999999],[22.75059716,65.11067374],[22.75581107,65.12845494999999],[22.77692343,65.1273549],[22.782158939999995,65.14513496],[22.80328322,65.14403106000002],[22.80591082,65.15292054],[22.848167400000005,65.15070294],[22.850810830000004,65.15959146],[22.87194312,65.15847775999998],[22.87459545,65.16736576],[22.89573272,65.16624864],[22.898393949999996,65.17513611999999],[22.961814719999992,65.17176561],[22.964498760000005,65.18065166],[22.98564199,65.17952177],[22.982951000000003,65.17063618],[23.008964892860096,65.16924161693562],[23.002086021599,65.1650103332603],[22.982021613701992,65.1539487475862],[22.960190125166896,65.1434996447016],[22.936695353363596,65.13371361195249],[22.924360538612298,65.1290836625267],[22.8985886497093,65.1203780521599],[22.885184620758892,65.11631308182429],[22.8574198396373,65.1087830198622],[22.8430911307973,65.1053259673164],[22.813630577896,65.099051531591],[22.783216068086205,65.09365218440139],[22.766274218720294,65.09110710077559],[22.76647565,65.09179399]]],[[[22.76364644,65.15512628],[22.774120740000004,65.19068713],[22.81644072,65.18847781000001],[22.819078079999997,65.19736696],[22.840242099999994,65.19625738999999],[22.842888389999995,65.20514601999999],[22.88522445,65.20291706999998],[22.887886629999997,65.21180473999999],[22.909058670000004,65.21068535000002],[22.9117298,65.21957249000002],[22.97525488,65.21619514],[22.977948900000005,65.22508084],[23.041476869999997,65.22167536999997],[23.044193799999995,65.23055962],[23.02301285,65.23169820999999],[23.025724830000005,65.24058284000002],[23.06809864,65.23830177],[23.07355655,65.25606898],[23.085759402199205,65.25540930771194],[23.083434648887803,65.24793025256493],[23.08043185064679,65.2410880822697],[23.072734007836395,65.22755481896989],[23.062814772555992,65.214278717246],[23.05703780408209,65.2077578360096],[23.0438821336382,65.1949890305416],[23.0286527983404,65.1826346123978],[23.021359908631613,65.17760569765782],[23.00678321,65.17838891],[23.014888999999997,65.20504386999998],[22.99372693,65.20617811],[22.991029949999998,65.19729273],[22.927552610000003,65.20067625],[22.92487849,65.19178943],[22.903722350000002,65.19291087],[22.901057169999998,65.18402353],[22.879906009999992,65.18514154999998],[22.87459545,65.16736576],[22.81117186,65.17069930999999],[22.80591082,65.15292054],[22.76364644,65.15512628]]]]}},{"type":"Feature","properties":{"cyano_daymap_file_id":3767,"date":"2015-06-18Z","cloud":null,"sub_surfac":null,"surface":null,"no_data":null,"class":1,"color_hex":null,"algae_class":"class_1","source_date":"2015-06-18"},"geometry":{"type":"MultiPolygon","coordinates":[[[[22.39077011762035,65.84165380339242],[22.390311577062707,65.84006629534004],[22.39092314237387,65.83913445222858],[22.39434580504925,65.83878798673132],[22.395802852541365,65.83925859942391],[22.395882907231233,65.84105910062509],[22.395146959196502,65.84144164854484],[22.39868195,65.8412703],[22.39611016,65.83237319],[22.41781639,65.83131796],[22.420395559999996,65.84021462999999],[22.4421072,65.83915589],[22.439520659999996,65.83025966],[22.4829233,65.82813387000002],[22.48032398,65.81923846],[22.48663166154338,65.81892770417323],[22.485387749462724,65.81882300079079],[22.48512775712537,65.81793346622666],[22.486273179603252,65.81733576985395],[22.485857181296137,65.81591251685909],[22.487766014850617,65.81491634433314],[22.489067289439127,65.81485234648407],[22.489969250589386,65.81643215776305],[22.491582820127878,65.81743556701824],[22.49250246070793,65.81757078454625],[22.492553740718336,65.81863594552986],[22.5055891144926,65.8179937415241],[22.504804923070374,65.81750635154194],[22.5069738432571,65.81739943888977],[22.50751192455021,65.81773384840209],[22.508761123385135,65.81749178405616],[22.50927652386699,65.81781207668564],[22.52370398,65.81710128999998],[22.518856418428985,65.8005879803332],[22.518271319606008,65.80041910048126],[22.516537373160162,65.80050474984533],[22.51534123094673,65.80092476410816],[22.515064220141696,65.8014798555499],[22.51376369837562,65.80154406768631],[22.512254593551674,65.80089668386563],[22.51186001046369,65.79963870707482],[22.496807559999997,65.80038126999999],[22.49941028,65.80927637],[22.488925154687696,65.80979212956191],[22.48917218988521,65.81069651794631],[22.487055737833412,65.81098107933929],[22.486396303114102,65.81173535974668],[22.484453560574888,65.81110902601036],[22.483669986232673,65.8100506294176],[22.477726649999997,65.81034298000002],[22.475131289999997,65.80144744],[22.47333639301457,65.80153546246189],[22.472751028706476,65.80266090472898],[22.4718838910196,65.80270347475313],[22.47283621057492,65.80446131464686],[22.471742899161217,65.80523682057877],[22.47210603160798,65.80648220906966],[22.469207398352953,65.80860950222288],[22.469952285223727,65.80965570502579],[22.471894572957655,65.81028222780154],[22.47258772708975,65.81115050368186],[22.473558947904426,65.81146375063716],[22.47279530719761,65.8118621524698],[22.472951000564045,65.81239588879505],[22.472083535633868,65.81243846314602],[22.472064948368793,65.81388304846644],[22.4708155600533,65.81412481426983],[22.471023120011584,65.81483646566687],[22.468401670811566,65.81640873047255],[22.468175370263037,65.81714166185175],[22.46671831534015,65.81667173987965],[22.465850694039926,65.8167142803227],[22.46722284763588,65.81538379482174],[22.465836702575412,65.81364718958352],[22.464431733110303,65.81335515844867],[22.463356878978697,65.81268602117385],[22.46248938523645,65.81272854126723],[22.462333906183154,65.81219479218872],[22.460184462631258,65.81085647794579],[22.459265223386573,65.81072106179998],[22.460080850024525,65.8105006432894],[22.459925437022147,65.80996689111555],[22.46079284287146,65.80992438645272],[22.459770031108615,65.80943313871464],[22.461886680563637,65.80914895387052],[22.462164918733286,65.80859394719279],[22.46336230366382,65.80817433791013],[22.463329575875832,65.80655183265347],[22.46085054374477,65.80559061581184],[22.459601443289753,65.8058322870001],[22.459705026716207,65.80618812226489],[22.45705139606997,65.8061376807217],[22.455141982209597,65.80713347461858],[22.452158080641823,65.80746002491603],[22.45162093155489,65.80712541130606],[22.451465718239348,65.80659164857968],[22.455336369504458,65.80477804770133],[22.457122618069718,65.80487100757264],[22.457019076660362,65.80451517014622],[22.45831991767115,65.80445143869179],[22.460746947389133,65.80523478145082],[22.461614192341475,65.80519227368514],[22.46151058736725,65.80483643992669],[22.462481434143797,65.80514976102049],[22.464701349128706,65.805221373536],[22.464008630891538,65.80435305759852],[22.464875839706636,65.80431053164476],[22.464772193963142,65.8039547004991],[22.4655875602868,65.80373425509177],[22.465276611389825,65.80266676300865],[22.463650520103556,65.80201046152087],[22.431772819999992,65.80357059999999],[22.42919414,65.79467410999999],[22.472537899999995,65.79255183999999],[22.468656205388076,65.77922190734019],[22.46769501611945,65.7792691035811],[22.468575264319153,65.7789439516775],[22.467357019999998,65.77476044],[22.51066354,65.77262769],[22.50806139,65.76373278],[22.48641645,65.76480024],[22.481232709999997,65.74700934],[22.416330029999997,65.75019077],[22.41376307,65.74129391],[22.348864829999997,65.74444653999998],[22.35140983,65.7533447],[22.340266071299556,65.75388283938653],[22.339071449890593,65.75503726672969],[22.338205648546722,65.7550790640172],[22.330974033058776,65.75862314129202],[22.332305480000002,65.76328843],[22.35395675,65.7622428],[22.359056410000004,65.78003881000001],[22.40238251,65.77793663999998],[22.404949939999998,65.78683368],[22.40361123344176,65.78689873593092],[22.403383036764293,65.78782595522742],[22.40468319480664,65.78776268771918],[22.404837303721255,65.7882965086034],[22.40690149282099,65.78783515683706],[22.405755466561086,65.78843226299315],[22.407107034843968,65.7885469143768],[22.40736397994041,65.78943661074086],[22.410192193204285,65.78857713649538],[22.411058977861508,65.78853492056277],[22.410831237624894,65.78926778059646],[22.41343164807856,65.78914110657323],[22.41289539148274,65.78880634803933],[22.41404126506593,65.7882091897099],[22.415341410965905,65.78814583144808],[22.41567190122914,65.7877688378439],[22.41536324956644,65.78670122203845],[22.41628140687399,65.78683691310478],[22.41638430095351,65.787192784391],[22.418117749718878,65.78710827837794],[22.417963374507558,65.78657447350803],[22.422296853529932,65.78636312804082],[22.423266526500257,65.78667671000284],[22.424081722000764,65.78645648811798],[22.42428772486926,65.78716821800407],[22.42298765468286,65.78723165180591],[22.42362700407241,65.7879222393144],[22.422708771492292,65.78778659320922],[22.42281175880593,65.7881424592513],[22.42469976816544,65.78859167657573],[22.42506034713561,65.78983720151261],[22.42348125263196,65.7904555860867],[22.42358426342009,65.79081145137856],[22.41848614085375,65.79142097308767],[22.41794977024116,65.79108623343537],[22.416216053437605,65.7911707401375],[22.415679717320323,65.790835992167],[22.414812864422544,65.79087823502527],[22.41545209255348,65.79156885797823],[22.41246943764029,65.7918946199829],[22.41267517224514,65.79260636814531],[22.411808253920213,65.79264859455952],[22.412447448822853,65.79333923042648],[22.411095606345402,65.79322462903207],[22.410485773477525,65.79415653620626],[22.409185310178525,65.79421985614327],[22.40890606054841,65.79477477584037],[22.407605561405376,65.79483808265512],[22.40732627156778,65.79539299984876],[22.405261491470277,65.79585436308035],[22.405364276715062,65.79621024284889],[22.40421785196818,65.79680734130308],[22.40253507195049,65.79706963713616],[22.402204275717608,65.79744660522047],[22.40317413671608,65.79776031311664],[22.40052143241605,65.79770887945136],[22.39932347158234,65.79812800099926],[22.3995289030509,65.79883976980939],[22.39774324506451,65.79874612997718],[22.396927432292088,65.7989662170065],[22.397030117402995,65.79932210335488],[22.395729353833193,65.79938531146465],[22.39517016000601,65.80049510775889],[22.39213488318732,65.80064254065071],[22.392237510159564,65.80099843078477],[22.38790127525977,65.80120894856613],[22.387060468131864,65.801008726556],[22.38840652,65.8056815],[22.41009065,65.80462758],[22.41362615317712,65.81684650581136],[22.414368225633194,65.81670326677074],[22.41421371490434,65.81616945943088],[22.415360741177192,65.81557228004502],[22.416228423894566,65.81553002603603],[22.416073883076795,65.81499622086979],[22.41982372368046,65.8142722212173],[22.419316824516706,65.81556003217825],[22.420721426710596,65.81585248214634],[22.41941989845657,65.81591589966482],[22.41875834275234,65.81666990795523],[22.417456767387925,65.81673330918869],[22.416743610884513,65.81730937496569],[22.41549351141779,65.81755069466826],[22.416288028115062,65.81877511261602],[22.414182043332293,65.81876769785252],[22.41523918,65.82242123],[22.371839510000004,65.82452775],[22.37696638,65.8423229],[22.39077011762035,65.84165380339242]],[[22.399817029999998,65.76903953],[22.443120650000004,65.766926],[22.445700809999998,65.77582222999999],[22.40238251,65.77793663999998],[22.399817029999998,65.76903953]],[[22.51616363899216,65.80972724069653],[22.516874338167366,65.80915073504785],[22.517725574947036,65.81055247352853],[22.51619971832093,65.81134970130333],[22.51489870178241,65.81141392797193],[22.51392699433572,65.81110094895392],[22.51453341755422,65.8101686626484],[22.51616363899216,65.80972724069653]],[[22.51482671726371,65.80816900443486],[22.516127570187017,65.80810477998504],[22.516231945105922,65.80846056899553],[22.515364698851418,65.80850338722857],[22.51482671726371,65.80816900443486]],[[22.503086606580467,65.81614728779643],[22.503138723164476,65.81632518746494],[22.502704954977883,65.81634656140591],[22.503086606580467,65.81614728779643]],[[22.49540010710306,65.8154430585863],[22.495243926490023,65.81490934995162],[22.49324868656331,65.81410522955198],[22.4987139157053,65.8147384950798],[22.502062747967233,65.81565633387955],[22.50265284133761,65.8161686615605],[22.500536102158414,65.81645341273403],[22.499564370209328,65.8161403424968],[22.49734344237046,65.81606924715847],[22.49540010710306,65.8154430585863]],[[22.497980642287327,65.77164323606992],[22.49803261564778,65.77182113886786],[22.497599590378712,65.77184249101549],[22.497980642287327,65.77164323606992]],[[22.497651561595433,65.77202039396457],[22.49721853260461,65.77204174506609],[22.49716656432065,65.77186384194057],[22.497651561595433,65.77202039396457]],[[22.47537730366453,65.77095150845622],[22.476036088465676,65.7701972820774],[22.475292190967707,65.7691510993548],[22.47286819801811,65.76836795835607],[22.473682382882178,65.76814748124337],[22.473526995238593,65.76761374270464],[22.47467052067134,65.76701615198816],[22.474740878526667,65.76574947914649],[22.476905599583286,65.76564303482596],[22.476750163441544,65.76510930005169],[22.479295921923022,65.76480361911037],[22.479192268155384,65.76444779786235],[22.480975779825318,65.76454050522383],[22.485165258400297,65.7668607566767],[22.485372757025143,65.76757238909983],[22.48445495308729,65.76743711065964],[22.485043538609492,65.76794952111293],[22.48331164092485,65.76803477270242],[22.482912434769645,65.76967857327406],[22.480418091942465,65.77016222890501],[22.47996682628389,65.77162811381031],[22.477213084596467,65.77122216745842],[22.47667639850044,65.77088763755773],[22.47537730366453,65.77095150845622]],[[22.47341933953891,65.77176958702456],[22.47347114392173,65.77194749984257],[22.473038092137212,65.77196878246279],[22.47341933953891,65.77176958702456]],[[22.47318459636721,65.80263961788013],[22.473236473733042,65.80281753007105],[22.472802903131154,65.80283881709606],[22.47318459636721,65.80263961788013]],[[22.472449646377534,65.7714563242748],[22.47288269014835,65.77143504340512],[22.472934490024862,65.7716129564496],[22.472449646377534,65.7714563242748]],[[22.468862852102582,65.77271528551836],[22.468688652352938,65.77362612910052],[22.46705983870155,65.77406702996015],[22.46721513933292,65.77460077594665],[22.464997865957937,65.77452917423774],[22.463853788023847,65.77512669777258],[22.463957281901227,65.77548253101553],[22.46265791795552,65.77554629612574],[22.462884078920673,65.77481337431948],[22.464131658172217,65.7745716911149],[22.46415079028513,65.77312710151357],[22.46491345263092,65.77272875250958],[22.464376891345744,65.77239417807988],[22.465243025571496,65.77235166052893],[22.46513952906718,65.77199582818575],[22.465953895474463,65.77177539058852],[22.465417341469255,65.77144081975074],[22.46411818531396,65.77150459527543],[22.464673833685836,65.77039458139274],[22.46597293232647,65.77033080169475],[22.46668373250712,65.76975452903355],[22.467931031853094,65.7695128174707],[22.468467576376046,65.76984737955094],[22.46976663620275,65.76978356789469],[22.470129073617013,65.77102896783093],[22.471479976682794,65.77114305512572],[22.47158355647681,65.77149888234592],[22.4725014433207,65.7716342374952],[22.47076924864055,65.77171934945],[22.47102818648225,65.77260891869092],[22.468862852102582,65.77271528551836]],[[22.468716743563355,65.77976030876971],[22.46882032685383,65.78011613783684],[22.468387133365944,65.78013740862855],[22.468716743563355,65.77976030876971]],[[22.46860918619785,65.81712038558776],[22.46866106701694,65.81729829930335],[22.468227248137193,65.81731957574348],[22.46860918619785,65.81712038558776]],[[22.46843892325541,65.78031532330012],[22.468005726045334,65.78033659304442],[22.467953939091515,65.78015867819695],[22.46843892325541,65.78031532330012]],[[22.464978784920017,65.77597376344761],[22.46503054126417,65.77615167960403],[22.46416427908533,65.7761941971987],[22.464978784920017,65.77597376344761]],[[22.461720677001928,65.77685547316447],[22.464371288842838,65.77690586297828],[22.463815503034866,65.7780158771083],[22.46294917586943,65.778058388433],[22.461856638234337,65.77883381593749],[22.460557099296242,65.77889756485025],[22.459968732870475,65.77838505770244],[22.460783344204447,65.77816464533902],[22.46067988115647,65.77780880963934],[22.461927625749897,65.7775671428589],[22.461720677001928,65.77685547316447]],[[22.462361055453055,65.81832898241045],[22.462412896038497,65.81850689864068],[22.46154520437655,65.81854941529267],[22.462361055453055,65.81832898241045]],[[22.461422364413846,65.81963817179914],[22.461474201681806,65.81981608838059],[22.46104033326045,65.81983734487461],[22.461422364413846,65.81963817179914]],[[22.461025172805023,65.80467977697722],[22.460539764126743,65.80452311242601],[22.461406985542915,65.80448060606733],[22.461025172805023,65.80467977697722]],[[22.458540741835957,65.82032069365171],[22.46076196291027,65.8203923507917],[22.46086563275879,65.82074818443128],[22.458955316001386,65.82174403484427],[22.456785791115767,65.82185027095747],[22.45520555578521,65.82246899506505],[22.452550245270285,65.82241849157558],[22.452291343604625,65.82152889058196],[22.458540741835957,65.82032069365171]],[[22.439399008920866,65.82865537687597],[22.438148586825626,65.8288968852415],[22.438045191542873,65.82854103353188],[22.439399008920866,65.82865537687597]],[[22.42571207069942,65.78601603168508],[22.425763580431397,65.78619396354452],[22.425330242307165,65.78621511339021],[22.42571207069942,65.78601603168508]],[[22.425651232903007,65.80857476476316],[22.425702796428773,65.80875269611919],[22.42526907891291,65.80877384947227],[22.425651232903007,65.80857476476316]],[[22.424493740257123,65.78787994749003],[22.42454524606036,65.78805787979894],[22.424111875420472,65.78807902649807],[22.424493740257123,65.78787994749003]],[[22.42376171936519,65.80812557380538],[22.4238648189457,65.80848143804299],[22.422512130953354,65.80836694604292],[22.42376171936519,65.80812557380538]],[[22.420815909243768,65.81314120220985],[22.420867450359655,65.81331913541582],[22.41999985125283,65.81336141498929],[22.420815909243768,65.81314120220985]],[[22.416127960596516,65.82582021883294],[22.416488751618424,65.82706576194533],[22.414370098307923,65.82734933634929],[22.413700269888725,65.82503617283255],[22.4163042751696,65.82490941507247],[22.41689289925142,65.82542208815364],[22.416127960596516,65.82582021883294]],[[22.413607881536265,65.78823030668237],[22.413556450770702,65.7880523699537],[22.41398983136125,65.7880312531559],[22.413607881536265,65.78823030668237]],[[22.413593528929333,65.79274207346259],[22.41364497119683,65.79292001006648],[22.413211508107885,65.79294112668383],[22.413593528929333,65.79274207346259]],[[22.41336583077972,65.79347493686984],[22.413417273233815,65.79365287354864],[22.412983797601452,65.79367398964038],[22.41336583077972,65.79347493686984]],[[22.41288091935597,65.79331811590849],[22.412932358087854,65.79349605278692],[22.412498884614273,65.79351716747956],[22.41288091935597,65.79331811590849]],[[22.41168336601418,65.79373733056919],[22.4117347974878,65.79391526792172],[22.411301315788187,65.79393637929049],[22.41168336601418,65.79373733056919]],[[22.407109398119527,65.82355238536923],[22.407160869567317,65.8237303238717],[22.406726881509627,65.82375142713342],[22.407109398119527,65.82355238536923]],[[22.406208998243123,65.79761266460841],[22.40518771223726,65.79712103640405],[22.406973279112414,65.79721458997575],[22.40707609450563,65.79757046829829],[22.406208998243123,65.79761266460841]],[[22.406189962349252,65.8234166514401],[22.406241427117557,65.82359459031701],[22.40580744044202,65.82361569095166],[22.406189962349252,65.8234166514401]],[[22.40442636222498,65.78687298574738],[22.404477727180456,65.78705092619154],[22.40404435370351,65.78707201588728],[22.40442636222498,65.78687298574738]],[[22.39452991667912,65.76931054136178],[22.394148083050226,65.76950954501866],[22.394045580264095,65.76915365494995],[22.39452991667912,65.76931054136178]],[[22.393714993926054,65.76953060260456],[22.393766243551383,65.76970854777576],[22.393333150714035,65.76972960431259],[22.393714993926054,65.76953060260456]],[[22.39276947991344,65.76777220414917],[22.393202540467936,65.76775114952707],[22.393253782312577,65.76792909494655],[22.39276947991344,65.76777220414917]],[[22.393253782312577,65.76792909494655],[22.393738090580896,65.76808598414792],[22.393305024935195,65.76810704034119],[22.393253782312577,65.76792909494655]],[[22.390790530794295,65.77310104960674],[22.38867598292732,65.77338422781159],[22.38928616147273,65.77245240451705],[22.391018726772057,65.77236821510628],[22.390790530794295,65.77310104960674]],[[22.381331669794427,65.74631496119797],[22.38138277876835,65.74649291190082],[22.38095006289771,65.7465139295953],[22.381331669794427,65.74631496119797]],[[22.37957366186116,65.74477644796796],[22.380108543039714,65.74511133697413],[22.38097392868579,65.74506930558508],[22.380847851584267,65.74615802781753],[22.37911700378548,65.74624208498739],[22.37878647191555,65.74661899973891],[22.377921030096623,65.74666101924285],[22.377641560496663,65.74721588380939],[22.37509622718244,65.74751986199378],[22.374789830036327,65.74645214237766],[22.37957366186116,65.74477644796796]],[[22.35972462346363,65.76125582376926],[22.360157607078182,65.76123486379231],[22.360259605037037,65.7615907814916],[22.35972462346363,65.76125582376926]],[[22.358043665187658,65.76151761117603],[22.359877612761487,65.76178970080097],[22.358196621600204,65.76205149021261],[22.358043665187658,65.76151761117603]],[[22.350836093203892,65.75013861869071],[22.351268899187797,65.75011768568662],[22.35131981016305,65.7502956483739],[22.350836093203892,65.75013861869071]],[[22.35131981016305,65.7502956483739],[22.3525673125043,65.75005487934055],[22.35266915281511,65.75041080365253],[22.351854448436562,65.75063063892935],[22.35131981016305,65.7502956483739]]],[[[22.48847228105978,65.81883702374883],[22.4883725022058,65.81849579235467],[22.486807352540005,65.81891904853639],[22.48847228105978,65.81883702374883]]],[[[22.383280509999995,65.78788673],[22.3859712108195,65.79722740670992],[22.387868782132248,65.79651919489707],[22.38837694179234,65.79523147632722],[22.3909499892843,65.79348261348325],[22.390260081873148,65.79261393604008],[22.389393119231915,65.79265603547077],[22.39053971502154,65.79205904679287],[22.390437154249238,65.79170315487197],[22.38990113702736,65.79136831318478],[22.388218554704068,65.79163044916571],[22.387682567491723,65.79129559939135],[22.388498222638454,65.7910755633247],[22.387631308255443,65.79111765227445],[22.387044085681786,65.79060485289097],[22.387962243819654,65.7907407144518],[22.389388424906258,65.78958884985288],[22.391937709631048,65.78928459451349],[22.393745741530704,65.78793369088179],[22.394612536897185,65.78789156832735],[22.395022956248386,65.78931512266601],[22.398005554372283,65.78898970241919],[22.39910045655249,65.78821470993947],[22.398410427505464,65.78734607053919],[22.39922184437749,65.78711204316392],[22.383280509999995,65.78788673]]],[[[22.42109977520038,65.7867824120235],[22.42153312702474,65.78676127406726],[22.421481645112145,65.78658334050901],[22.42109977520038,65.7867824120235]]],[[[22.42055032198367,65.79095943665571],[22.42011689864881,65.79098057251284],[22.420168381699963,65.79115850652025],[22.42055032198367,65.79095943665571]]]]}}]}