{"type":"FeatureCollection","properties":{"source":"SMHI SE.SR Ytansamling av alger","date":"2015-08-16","note":"Test: SMHI WFS clipped to Lulea municipal sea area and simplified 20 m."},"features":[{"type":"Feature","properties":{"cyano_daymap_file_id":3826,"date":"2015-08-16Z","cloud":null,"sub_surfac":null,"surface":null,"no_data":null,"class":1,"color_hex":null,"algae_class":"class_1","source_date":"2015-08-16"},"geometry":{"type":"MultiPolygon","coordinates":[[[[22.50716157999999,65.61038045999997],[22.485644299999993,65.61144653999999],[22.489462353410126,65.62462552078482],[22.491245110342053,65.6250786900241],[22.49377701678557,65.62477290442436],[22.494310782490427,65.62510740296128],[22.496894264527885,65.6249794732724],[22.497428074237693,65.62531396040114],[22.49866819465064,65.62507206851062],[22.498823072370765,65.6256057863076],[22.499150400065936,65.62522864339537],[22.499684243752824,65.62556312224548],[22.50049377374514,65.62534254812138],[22.50064869089894,65.6258762636601],[22.49989078146391,65.62627474421645],[22.50009733164844,65.62698636578263],[22.50106183761453,65.62729950398344],[22.49933938210387,65.62738484398692],[22.49949429022537,65.62791856079748],[22.49647990223183,65.62806786273526],[22.497926667850894,65.62853760216643],[22.496733953357413,65.62894345401037],[22.501369165501313,65.62871376810016],[22.500131480628838,65.62860884844919],[22.500458824488838,65.62823170254943],[22.501371730401342,65.62836693316316],[22.501470964048824,65.6287087237373],[22.51233025,65.62817062],[22.511587813454355,65.62561618351255],[22.51149974209348,65.62714285733625],[22.509071235724303,65.62780474209428],[22.507624316016823,65.62733511048232],[22.507107440343997,65.62555608667878],[22.50857127738852,65.6245811506715],[22.511280526084498,65.62455892673513],[22.50974494,65.61927556999999],[22.512167481512023,65.6191551833325],[22.510412956241076,65.61889531763242],[22.512565265742968,65.61878849005313],[22.512250888825065,65.61915103845887],[22.531267500000002,65.61820602000002],[22.533860049999998,65.62710063],[22.55538789,65.62602759999999],[22.552788109999998,65.61713344],[22.56861853738305,65.61634214852485],[22.568518449452604,65.61600032321682],[22.56760565685238,65.61586549555139],[22.566758753109266,65.6144639934007],[22.56498535572625,65.61437218903345],[22.565637795465292,65.61361763974656],[22.56434682718036,65.61368218759222],[22.5628997410249,65.61321308499426],[22.562431451011374,65.61161216503515],[22.560710278343805,65.61169818879615],[22.557816511255226,65.61075989630864],[22.557712522682994,65.61040413219183],[22.55487097970612,65.6096436632418],[22.552799135332087,65.60810862543838],[22.550190289999996,65.60823921],[22.54759443,65.59934491],[22.560403654593497,65.59870473439014],[22.561490020912245,65.59794270839734],[22.565308572717033,65.59757124930609],[22.565582580226465,65.59701609719956],[22.568454756067702,65.59606696604145],[22.568051518434917,65.59468714223613],[22.567590540171658,65.59493032580217],[22.567966965994504,65.59439781539608],[22.563549159911386,65.57961118510647],[22.561830106757352,65.5796972000873],[22.55794779495556,65.58133521493896],[22.55848144787647,65.58166948864984],[22.557621844838877,65.5817124706002],[22.557777619745785,65.58224611887574],[22.55643626626422,65.58213270104191],[22.555850717506335,65.58162053644777],[22.554991110847865,65.58166350350776],[22.554353701306912,65.5809734487833],[22.55321999436396,65.58157153848992],[22.551930577776965,65.58163596492714],[22.55079678592273,65.58223403736169],[22.550900544345456,65.58258980850101],[22.54746193157273,65.58276153700803],[22.5468615360698,65.58369389323947],[22.54567568978661,65.58411404218165],[22.54481598057479,65.58415695254527],[22.54509030385258,65.58360183435106],[22.543034606306357,65.58370441826307],[22.54500051999999,65.59045055999998],[22.531577634587812,65.59111842641872],[22.531685522370072,65.59148916640157],[22.530017317015826,65.59175272291637],[22.52850432598132,65.59254994507776],[22.52833306511172,65.59346082686194],[22.527042985384746,65.59352504817207],[22.527146473402873,65.59388083830432],[22.52552980110996,65.59432224259113],[22.52482490528829,65.5948987304672],[22.52272634963481,65.59518360836005],[22.521591298447827,65.59578147491092],[22.522124798579508,65.59611587820497],[22.521264646154062,65.59615865940127],[22.52012951931545,65.59675651576923],[22.51760066407064,65.59706271049039],[22.517290555108858,65.59599531675178],[22.518529095530912,65.59575327841266],[22.517565580325655,65.59544024133935],[22.516275370459866,65.59550437230389],[22.516292048032618,65.59405980144153],[22.515173635476806,65.5932130494588],[22.516463735036808,65.59314892898426],[22.51716877363014,65.59257247856448],[22.51883716995994,65.59230906156301],[22.520004305162907,65.59169426669735],[22.502000709999997,65.59259005],[22.50716157999999,65.61038045999997]],[[22.516378720765527,65.59586017117337],[22.517238873009784,65.59581741770656],[22.517290555108858,65.59599531675178],[22.516378720765527,65.59586017117337]],[[22.559732023931687,65.59640627999683],[22.561400204349795,65.59614239665484],[22.561504174611624,65.5964981584037],[22.560266020900475,65.5967405439596],[22.559732023931687,65.59640627999683]],[[22.55918524531154,65.58109285546702],[22.55923717868626,65.58127073762157],[22.558807384891956,65.5812922312721],[22.55918524531154,65.58109285546702]],[[22.558207430308276,65.58222462797656],[22.558259359726577,65.58240251050734],[22.557829546279866,65.58242400158309],[22.558207430308276,65.58222462797656]],[[22.5538573896798,65.5822615981304],[22.55342757417789,65.58228307673828],[22.553375678051253,65.58210519221454],[22.5538573896798,65.5822615981304]],[[22.54448980497614,65.58453418223272],[22.544059942646598,65.58455563473792],[22.54400810505137,65.58437774641287],[22.54448980497614,65.58453418223272]],[[22.52524530145032,65.60534508878966],[22.52567552597478,65.60532368601184],[22.52577905189715,65.60567947671065],[22.52524530145032,65.60534508878966]],[[22.52491859050428,65.60572228175725],[22.525348821591127,65.60570087984046],[22.525400582832752,65.60587877532771],[22.52491859050428,65.60572228175725]],[[22.52454011409654,65.6059215783003],[22.524970348855046,65.60590017742052],[22.525022107986604,65.60607807305836],[22.52454011409654,65.6059215783003]],[[22.5244983107626,65.5952759213428],[22.524068251173208,65.59529731911837],[22.524016524417906,65.59511942283548],[22.5244983107626,65.5952759213428]],[[22.52226913422779,65.60711733894162],[22.52269939101697,65.60709594428438],[22.52275113748637,65.60727384082548],[22.52226913422779,65.60711733894162]],[[22.52275113748637,65.60727384082548],[22.523284897449646,65.60760823743342],[22.522854632767203,65.60762963383159],[22.52275113748637,65.60727384082548]],[[22.51474360073213,65.59323442052559],[22.514313565208532,65.59325579038003],[22.514261910017197,65.59307789005055],[22.51474360073213,65.59323442052559]],[[22.514331651053674,65.5963228341466],[22.5139015640893,65.59634420335004],[22.513849904320956,65.59616630292452],[22.514331651053674,65.5963228341466]],[[22.51138961666932,65.59520572152078],[22.511441257320634,65.59538362297654],[22.51101118301549,65.59540498385098],[22.51138961666932,65.59520572152078]],[[22.5109079082689,65.59504918056297],[22.510959545252856,65.59522708221965],[22.510529473057705,65.595248441706],[22.5109079082689,65.59504918056297]],[[22.50880917649117,65.59533386752638],[22.50870593218848,65.59497806243198],[22.510426205645707,65.59489263801612],[22.50880917649117,65.59533386752638]],[[22.508846757621768,65.62402608646785],[22.508898449915012,65.62420398828633],[22.508467896252665,65.62422534675912],[22.508846757621768,65.62402608646785]],[[22.507467332017857,65.59522002109905],[22.507037256483567,65.59524137070974],[22.5069856462763,65.59506346744782],[22.507467332017857,65.59522002109905]],[[22.506280601557815,65.62270964332323],[22.506332273131193,65.62288754622297],[22.505901738733584,65.62290889721952],[22.506280601557815,65.62270964332323]],[[22.50633192103869,65.59581777698052],[22.50590183450306,65.59583912348006],[22.50585023062758,65.59566121976758],[22.50633192103869,65.59581777698052]],[[22.503542442925937,65.62230401802455],[22.50359409478654,65.62248192205409],[22.503163564396523,65.6225032652392],[22.503542442925937,65.62230401802455]],[[22.50116513209084,65.62765531381123],[22.50326655078968,65.62737070570422],[22.502181331699607,65.62814634931914],[22.5008894524613,65.62821036606348],[22.50116513209084,65.62765531381123]],[[22.502629741867395,65.62216879842343],[22.50268138715731,65.62234670282947],[22.502250858103547,65.62236804341082],[22.502629741867395,65.62216879842343]],[[22.50030389430749,65.62769798694403],[22.500355536921525,65.62787589217113],[22.499924913963294,65.62789722709151],[22.50030389430749,65.62769798694403]],[[22.499994946088268,65.62211891716204],[22.500046573225465,65.62229682264673],[22.49875497838277,65.62236081836812],[22.499994946088268,65.62211891716204]],[[22.49860012536913,65.62182710025861],[22.498703359932357,65.6221829123569],[22.49736015777924,65.62206899006193],[22.49677481446819,65.62155659518068],[22.49860012536913,65.62182710025861]],[[22.49734249858434,65.62351356874706],[22.49739411090583,65.62369147528322],[22.496532997006234,65.6237341257704],[22.49734249858434,65.62351356874706]],[[22.496842652544455,65.62480156656221],[22.49727322726077,65.62478024087294],[22.497324842140493,65.62495814740763],[22.496842652544455,65.62480156656221]],[[22.496757121318193,65.62300117413567],[22.496808728406414,65.62317908092314],[22.495947630324466,65.62322172792919],[22.496757121318193,65.62300117413567]],[[22.4965846043148,65.62391203263225],[22.496154043300283,65.62393335622998],[22.496102438887778,65.62375544919269],[22.4965846043148,65.62391203263225]],[[22.496344292657067,65.62157791892585],[22.49591377006704,65.621599241457],[22.49586217288523,65.62142133426659],[22.496344292657067,65.62157791892585]]],[[[22.596149215643177,65.6160869873127],[22.601053909999997,65.63276565999999],[22.57952276,65.63384519999998],[22.58736154,65.66052578999998],[22.597420644521446,65.66002132937757],[22.5971341237034,65.65986942756122],[22.599784697643834,65.65847305126677],[22.605388034788593,65.65819186445663],[22.607007218565386,65.65774958297324],[22.608408148226097,65.65772786569686],[22.606292280000005,65.65055190000001],[22.627835939999997,65.64946843],[22.62999689450198,65.65677392922134],[22.63162621447873,65.65669185596035],[22.632162414669427,65.65702584412445],[22.634695613835845,65.65671769404992],[22.635662824966843,65.65702994849808],[22.635873392748547,65.65774134312174],[22.637807943759476,65.65836582955016],[22.63866992423589,65.65832236836991],[22.639258917932136,65.65883417758026],[22.64012091103766,65.65879070803489],[22.641078727334676,65.66054743645022],[22.642046159028705,65.66085964800583],[22.641394858114744,65.66161451420291],[22.637137066764012,65.66200970209643],[22.63459349470223,65.66376241097443],[22.63475144673151,65.66429595784196],[22.635666288481485,65.66443036049544],[22.636308033887477,65.66512002875375],[22.63717024181216,65.66507657377859],[22.638295837336372,65.66592235128292],[22.637423882491454,65.66741032458529],[22.636614269906794,65.66763162985805],[22.637256124883212,65.66832129301595],[22.63817112240024,65.66845567900653],[22.641893383738594,65.66772650336326],[22.641998803788905,65.668082195036],[22.643450407120337,65.66855049666628],[22.642305644101338,65.67059377858443],[22.63998200985022,65.67161345481105],[22.64014013034894,65.67214699439545],[22.63846794997952,65.67241178504106],[22.63814211599104,65.67278921270737],[22.63904766748197,65.67436810243028],[22.638818377397435,65.67598971213138],[22.691869656750903,65.67330562584557],[22.695534802230263,65.67295448781873],[22.69666951342924,65.67235530411754],[22.69968876555839,65.67220192973578],[22.700314643432105,65.67253916352527],[22.69994589376373,65.67130436404938],[22.699476305922836,65.67149064315534],[22.69845437082506,65.6710010027498],[22.699692764279835,65.67045673168286],[22.699590132395475,65.67011305734796],[22.698673245084613,65.67026780291083],[22.69856703712959,65.66991215873037],[22.699505136097333,65.66982843774447],[22.697759269999995,65.66398221],[22.654652909999996,65.66616611999999],[22.65201427,65.65727405999999],[22.67356119,65.65618407000001],[22.67091729,65.64729239],[22.649377609999995,65.64838192999999],[22.64791303182847,65.6434388605447],[22.6445678410332,65.64575055701825],[22.642519277279476,65.64621496591435],[22.640303079576938,65.64759031756397],[22.638685111251174,65.64803294167301],[22.63523853694189,65.64820674370078],[22.63470248718048,65.64787276489452],[22.628723501009368,65.64835456118496],[22.62856578972052,65.64782100567109],[22.627115632215137,65.64735254722844],[22.62545534488719,65.64617266177707],[22.623196272349077,65.64592540026828],[22.62298616736314,65.64521398344581],[22.62131552387041,65.6454785696544],[22.620180658200667,65.64607717219965],[22.613287679950645,65.64642385597375],[22.61269949081185,65.64591193796322],[22.610923802247733,65.64582069408226],[22.61102869085752,65.64617641253372],[22.60897946551576,65.64664037542083],[22.60801296192413,65.64632794389084],[22.60828650316439,65.64577271927467],[22.609474068244708,65.64535206283593],[22.611249720463857,65.64544332404431],[22.612879173305902,65.64355646477254],[22.61439240264559,65.64275839820377],[22.614287484597853,65.64240268238326],[22.613373531441002,65.64226814198695],[22.613163731200075,65.64155670850458],[22.614781753772164,65.64111435592248],[22.614193662290738,65.64060244272977],[22.615485818730985,65.64053745846233],[22.61441456381918,65.63986935095723],[22.616137387969918,65.63978270083363],[22.615223519146507,65.63964817072467],[22.615391927628625,65.63873722026965],[22.616253301775934,65.6386938924901],[22.616148378030275,65.63833817802345],[22.617335477976464,65.63791746481634],[22.616421669756846,65.63778294130906],[22.617230543190942,65.6375617512118],[22.616694950443584,65.63722770421658],[22.614110967024235,65.63735767899794],[22.615088255964487,65.63622555104399],[22.61455271905745,65.63589149592445],[22.616391178979637,65.63471603863657],[22.61811365341966,65.63462936962743],[22.621012252861036,65.6355664619883],[22.623860453922806,65.63600449140002],[22.614718649999997,65.60500459],[22.612048439738555,65.60515282536062],[22.612153146053625,65.60550854479192],[22.613978435917126,65.60577766130699],[22.614135540712063,65.60631123796806],[22.613600656590915,65.60597717291974],[22.611880061488066,65.60606377159452],[22.61214183849596,65.60695307022047],[22.609508495844473,65.6069050764566],[22.609665517157147,65.60743865860222],[22.61100839022862,65.60755158963177],[22.61121780085848,65.608263029891],[22.61030507643524,65.60812845856788],[22.61008427539606,65.6088615431843],[22.60841581214845,65.6091259652035],[22.609055382782945,65.6098157703329],[22.605770599433548,65.61052243741906],[22.60425892216125,65.61132040211925],[22.603659981988027,65.61225296844765],[22.602369195517408,65.61231783812694],[22.602473804216547,65.61267356524858],[22.598211288177822,65.61451211962415],[22.59761206212295,65.61544466498106],[22.596149215643177,65.6160869873127]],[[22.611965185877793,65.64342191624182],[22.61229106066322,65.6430445444138],[22.612879173305902,65.64355646477254],[22.611965185877793,65.64342191624182]],[[22.61137709431097,65.64290999212852],[22.61180785502087,65.6428883394971],[22.611860297847755,65.64306619843795],[22.61137709431097,65.64290999212852]],[[22.698188855418753,65.67011189172716],[22.698241956894613,65.67028971398462],[22.69781066790132,65.67031162384198],[22.698188855418753,65.67011189172716]],[[22.69619168022472,65.67075489734722],[22.697485571852184,65.67068917764028],[22.697160466597715,65.67106673083809],[22.69619168022472,65.67075489734722]],[[22.63762078453925,65.66216582118199],[22.637673451268054,65.66234366894135],[22.637242393622355,65.66236539799911],[22.63762078453925,65.66216582118199]],[[22.614565692500616,65.60628958369978],[22.614618065233866,65.60646744235694],[22.614187910556748,65.60648909680324],[22.614565692500616,65.60628958369978]],[[22.612167353112042,65.63817739379445],[22.612440729126536,65.6376221633963],[22.613732742591974,65.63755719550515],[22.613028715175883,65.63813408444047],[22.612167353112042,65.63817739379445]],[[22.613054530061437,65.60708763081955],[22.61262436355889,65.60710928095003],[22.612572002899487,65.60693142148052],[22.613054530061437,65.60708763081955]],[[22.61283788668203,65.6419340818959],[22.61289033424097,65.64211194043175],[22.612459587497266,65.64213359599376],[22.61283788668203,65.6419340818959]],[[22.611481974961524,65.64326571034071],[22.610620439575012,65.6433090126728],[22.610568004649114,65.64313115322324],[22.611481974961524,65.64326571034071]],[[22.611313408662717,65.64417665808165],[22.611365851238627,65.64435451719739],[22.61050427949374,65.64439781923883],[22.611313408662717,65.64417665808165]],[[22.60948559763074,65.6097941298367],[22.60953794413297,65.60997199051933],[22.609107726395603,65.60999363119342],[22.60948559763074,65.6097941298367]],[[22.604647754560943,65.63638935072208],[22.605509072437744,65.63634608449811],[22.60609689259072,65.63685803407436],[22.605235558918462,65.63690130379491],[22.604647754560943,65.63638935072208]],[[22.601770166019637,65.61325039790357],[22.603061000581807,65.61318553283448],[22.60273533977396,65.61356288260014],[22.60144448550068,65.6136277450973],[22.601770166019637,65.61325039790357]]],[[[22.61153857,65.66833788],[22.613058643967936,65.67348337130362],[22.615023087135505,65.67305005632858],[22.61518070463975,65.67358362694401],[22.614423240228984,65.67398267471835],[22.61317524064089,65.67387805418049],[22.613687217792737,65.6756111106225],[22.615927244887693,65.67462909785442],[22.61759981284078,65.67436455141913],[22.617442139841774,65.67383098387165],[22.619388195229376,65.67301117659073],[22.619283061179193,65.6726554663402],[22.6209554661246,65.67239088461197],[22.621123816975434,65.67147992818447],[22.623279935974534,65.67137149100255],[22.621839107188904,65.66945847528743],[22.620230140099768,65.66845639938253],[22.618557979323565,65.66872097065215],[22.615813270906187,65.66831743884822],[22.61153857,65.66833788]],[[22.61831544595957,65.67234311161357],[22.61836800518829,65.67252096716109],[22.617936758917196,65.67254264332942],[22.61831544595957,65.67234311161357]]],[[[22.616419873979257,65.68486122538019],[22.61828196919637,65.68407713483606],[22.62211226799799,65.68370412556845],[22.623574862903105,65.68272809350765],[22.625300498296408,65.682641310888],[22.62665763567984,65.68130954625374],[22.625310852077376,65.68119679345524],[22.62369054812738,65.68163928149106],[22.62023938504294,65.68181278948316],[22.619271409214363,65.68150044446976],[22.61619906230491,65.68147432434152],[22.61524357615853,65.6808794255897],[22.616419873979257,65.68486122538019]]],[[[22.63836549,65.68503834],[22.637101424612368,65.68077307562662],[22.636790076302237,65.68152147616311],[22.63516995616801,65.68196408473838],[22.63451795752885,65.68271892862278],[22.633655157436383,65.68276237453907],[22.633760538096876,65.6831180723654],[22.632140265686072,65.68356065018398],[22.62911020309874,65.68515715899953],[22.629211385060234,65.68549885245282],[22.63836549,65.68503834]]],[[[22.47535922,65.57586371],[22.48049789,65.59365525],[22.502000709999997,65.59259005],[22.49942319,65.58369475],[22.534113066887794,65.58196885813605],[22.533670959050017,65.58182521978092],[22.53533849306302,65.581561629843],[22.53502787977108,65.58049427757963],[22.533686704799898,65.58038065652651],[22.533583192143613,65.580024871128],[22.530849176840878,65.57961969700874],[22.529989586547046,65.57966252203995],[22.52971497548827,65.58021761577784],[22.527995747814575,65.58030324856696],[22.527032706296914,65.57999026691398],[22.524557255057402,65.58047445599061],[22.5239723671953,65.57996216156862],[22.522734624667613,65.58020423633009],[22.522527903390774,65.57949264743642],[22.52386898924958,65.57960636817644],[22.52581118061829,65.57878779950354],[22.525707783177406,65.57843200756463],[22.52479653010263,65.57829690677018],[22.525604388852802,65.57807621552408],[22.525019537372813,65.57756392478184],[22.529265441060346,65.57717200062635],[22.530622360827014,65.57584109791985],[22.529659457264945,65.57552813157562],[22.531808087720496,65.57542106802966],[22.531068000169483,65.5743751202756],[22.529349163442383,65.57446076446823],[22.528816033038098,65.5741263828975],[22.531875683649186,65.57415439736064],[22.532528152352835,65.57339999045163],[22.53166877061153,65.57344282290053],[22.531135632494642,65.57310844957382],[22.533276126246914,65.57298665013488],[22.47535922,65.57586371]],[[22.524315063052246,65.57814040599915],[22.523885286227507,65.57816180040132],[22.52383360177009,65.57798390363978],[22.524315063052246,65.57814040599915]],[[22.52407574825702,65.58031795485928],[22.523645935261655,65.58033934894779],[22.523594247225933,65.58016145213938],[22.52407574825702,65.58031795485928]]],[[[22.521577820647995,65.59161597517361],[22.521692151578076,65.5916256668161],[22.52169996067106,65.59160989799891],[22.521577820647995,65.59161597517361]]]]}},{"type":"Feature","properties":{"cyano_daymap_file_id":3826,"date":"2015-08-16Z","cloud":null,"sub_surfac":null,"surface":null,"no_data":null,"class":1,"color_hex":null,"algae_class":"class_1","source_date":"2015-08-16"},"geometry":{"type":"MultiPolygon","coordinates":[[[[22.53723052,65.56376710000002],[22.534644420000003,65.55487249000001],[22.543996695558373,65.55440321895],[22.543897826088102,65.5540634611844],[22.54626685518651,65.55322320898145],[22.546540859975085,65.5526680914635],[22.547777073460647,65.55242583775305],[22.547673502462402,65.5520700626213],[22.548480357986804,65.55184925958854],[22.54906505796654,65.55236146120995],[22.54755488357539,65.5531588448431],[22.547762035892067,65.5538703950971],[22.547002046675612,65.55425241883023],[22.57023273298607,65.55308676791573],[22.57207803940618,65.55211173496156],[22.57503114919004,65.55178314938298],[22.575616364508807,65.552295243144],[22.57690425946286,65.55223063062243],[22.579545307099796,65.55083470500917],[22.581262386969073,65.5507485091285],[22.581574464959218,65.55181575129625],[22.58023459813541,65.55170252904402],[22.580767902064032,65.55203672773692],[22.578851207033363,65.55265431697475],[22.606307835854057,65.55127662007565],[22.607434570912968,65.55087615304505],[22.607017080398233,65.54945324874765],[22.610137603211545,65.54821304762804],[22.610995997284455,65.54816978008297],[22.610827832119778,65.54908072262675],[22.612492452105062,65.54881631344028],[22.612701334283383,65.54952775677036],[22.61441819555554,65.54944118697603],[22.615381101776602,65.54975361420155],[22.613450341291312,65.5509182291145],[22.62050532,65.55056423],[22.62268307473602,65.55797046830796],[22.622937162774967,65.55767517443113],[22.625083856714706,65.55756680764905],[22.62518851033567,65.55792251849454],[22.623952798438843,65.55816539917792],[22.625020800826178,65.55883347217559],[22.62496459318277,65.55936384560131],[22.644587709999996,65.55837199999999],[22.64313478833185,65.55344461032627],[22.642548209480957,65.55325449235829],[22.642879349885153,65.55257832497026],[22.64196564,65.54947960000001],[22.64960012025146,65.54909263799684],[22.649341887940245,65.54821739335611],[22.65009557579796,65.54781819756204],[22.649403923685988,65.54695072292209],[22.649413493993812,65.5455062069085],[22.64731956394824,65.5457927942211],[22.646680504282052,65.5451031521318],[22.644534144927757,65.54521185399335],[22.643570751293197,65.54489963021416],[22.642764626403928,65.54512094533622],[22.641371986417468,65.54483043899391],[22.640408963751923,65.5445181783705],[22.640251770558113,65.54398463011334],[22.63736290634759,65.54304780637985],[22.636891567002728,65.54144714917943],[22.63947589002907,65.5398723722487],[22.641569280455858,65.53958590550043],[22.642270449127015,65.53900890096841],[22.646132983832153,65.53881328291345],[22.647368048875727,65.53857020851919],[22.647692342193682,65.53819277074675],[22.64940895667181,65.53810578073768],[22.649733214733264,65.53772833895552],[22.653438080320292,65.53699900076019],[22.654401290339898,65.53731116358657],[22.654611203871255,65.53802253824634],[22.65552197926247,65.53815684984954],[22.655836912443533,65.53922390875718],[22.653576772669986,65.54042156105973],[22.65416340658655,65.54093332967105],[22.65330501748344,65.54097685493089],[22.65303325137649,65.54153214842913],[22.652174840296762,65.5415756675036],[22.65200798898487,65.54248664852028],[22.652918909570552,65.54262097430292],[22.653505582900205,65.54313274506784],[22.656667696171567,65.54351390695206],[22.65725446358887,65.54402566221309],[22.658542184596204,65.5439603374653],[22.658699751686267,65.54449386284422],[22.660574345119368,65.54494026710178],[22.66174812317902,65.54596374254932],[22.66269292384951,65.54591578541717],[22.655548089999996,65.52171571],[22.63411127,65.52280202],[22.631497090000003,65.51390936],[22.652926739999998,65.5128235],[22.65030736,65.50393122],[22.671254852830167,65.50286681591008],[22.671669928630575,65.50264644414221],[22.66936852615253,65.49484942684776],[22.667740694025735,65.49402012303308],[22.583438050000005,65.49828475],[22.580844049999996,65.48939101999999],[22.572767797635752,65.48979663443973],[22.56965772419687,65.49159137567909],[22.570293208738654,65.4922813853566],[22.56772327874635,65.49241042700561],[22.567605621888465,65.49349921475391],[22.566748936433207,65.4935422186875],[22.565619203744966,65.49414036035174],[22.56587805484221,65.4950297678609],[22.564164573664534,65.49511575241004],[22.562658083308378,65.49591324883828],[22.561103030441444,65.49621878227943],[22.56201684,65.49936068],[22.559781376247617,65.49947214854558],[22.55913557142723,65.5002409023894],[22.559667516647743,65.50057518919365],[22.558810583537106,65.50061815065438],[22.558965799355118,65.50115180319825],[22.55778383199119,65.50157200721324],[22.558315788339648,65.50190629866393],[22.556106899504822,65.50328034450938],[22.55636553624263,65.50416977054348],[22.554274601967506,65.50445500752588],[22.549782473645767,65.50395806946453],[22.54945730599863,65.5043352994567],[22.544159858158366,65.50405898681431],[22.542068789128102,65.50434405630494],[22.542275324936536,65.505055620192],[22.543767573490744,65.50570287547625],[22.542910440713232,65.50574574881414],[22.54184676807142,65.50507705313996],[22.54098965201347,65.50511991541411],[22.54124779624347,65.50600937233615],[22.540442273863285,65.50623012319751],[22.541505959871458,65.50689882862254],[22.541180637167834,65.50727604239349],[22.54032344766643,65.50731890164018],[22.541010204928533,65.50818692977388],[22.543204889730212,65.50825765264808],[22.543788457926603,65.50876988607732],[22.542554253211737,65.50901208671715],[22.54296745281781,65.51043521160565],[22.53883585040492,65.5111831919992],[22.538526104101607,65.51011583840103],[22.536863136132173,65.51037941699758],[22.53799422370326,65.50978147651607],[22.537787759361194,65.50906990603647],[22.538541772341404,65.50867127584223],[22.538438536460774,65.5083154910509],[22.537152691753217,65.50837975538896],[22.536946263701566,65.50766818339387],[22.536192253959808,65.50806680559461],[22.53566044641394,65.5077324347578],[22.532711756118754,65.50806020713911],[22.53115199083236,65.50867951194428],[22.530878063692274,65.50923460069936],[22.528837981164923,65.50969738856324],[22.528203132141655,65.50900719809141],[22.525631306918996,65.50913554307215],[22.52456792706573,65.5084667228245],[22.523333548640185,65.50870876828922],[22.522682321162442,65.50946312281344],[22.521396373230502,65.50952725416798],[22.520864721595828,65.5091928296934],[22.521996133481565,65.5085950056344],[22.52179011610084,65.50788340877476],[22.52007561743649,65.50796890369293],[22.51974996930587,65.5083460746364],[22.51911539382007,65.50765584322237],[22.51611502067191,65.50780539348045],[22.51584077964995,65.50836045816521],[22.51460632092791,65.5086024331784],[22.514503411273186,65.508246628742],[22.512788860000825,65.5083320415454],[22.51258309584897,65.50762042956822],[22.511725838512373,65.50766312732395],[22.51109149130951,65.50697285990871],[22.510131409691596,65.50665974092654],[22.508845562543137,65.50672376448543],[22.50906852607993,65.50599080661911],[22.50649688436726,65.50611882418006],[22.505742443340395,65.50651729883312],[22.504885208698177,65.50655995756254],[22.504353828364383,65.50622547227384],[22.50354797536396,65.50644602984187],[22.502485267077674,65.50577704746281],[22.50361696501944,65.50517935808939],[22.50351422125378,65.50482354449416],[22.500188166706675,65.50534991419616],[22.49953634152292,65.50610417502672],[22.49749591944712,65.50656654330315],[22.496415348405566,65.50734209856968],[22.494700785168856,65.50742730632598],[22.494426089171952,65.50798233675002],[22.491579401645435,65.50866513398464],[22.490927247768834,65.50941936102498],[22.49001859853774,65.50928402477324],[22.488406440925086,65.50972498733108],[22.488252604742353,65.5091912485751],[22.487395247934685,65.50923380935198],[22.48767010608311,65.50867879006181],[22.485526747454905,65.5087851742892],[22.48520058532122,65.50916227596697],[22.483863293644674,65.50904817469413],[22.483537104154653,65.50942527306003],[22.481444896041086,65.50970951524626],[22.480536282518578,65.50957412163719],[22.480331384922426,65.50886245705333],[22.482046098868363,65.50877741076023],[22.481943631743285,65.5084215797124],[22.483332126241415,65.5087136133581],[22.48398448543746,65.50795941700902],[22.48484180714125,65.50791687593247],[22.485974007585785,65.50731931358052],[22.487259951617492,65.50725548360764],[22.487963431369433,65.50667918496573],[22.490963869458835,65.50653019284941],[22.4914437933645,65.50668681515576],[22.491220327710877,65.50741975209586],[22.491975020391152,65.50702134738037],[22.49293490415639,65.50733458368386],[22.49267838855108,65.50644502792876],[22.493810343857007,65.50584740937447],[22.492286250113345,65.50357715383029],[22.494806417207137,65.50327146932935],[22.494960345141855,65.50380520047455],[22.497685813895565,65.50421110859139],[22.50068590165381,65.50406192704897],[22.50133764567789,65.50330766209015],[22.500755031018393,65.50279525519306],[22.501549156348243,65.50237582383505],[22.47631265,65.50363421],[22.481434809999993,65.52142587999998],[22.459989590000003,65.52248759],[22.46254638,65.53138377000002],[22.50544925,65.52925646],[22.50030888,65.51146578999999],[22.521743069999996,65.51039847999999],[22.52689779,65.52818827],[22.546684026157493,65.52719999102258],[22.54676156821534,65.52648815641712],[22.545748628032445,65.52599738675868],[22.54612581271479,65.52579805044486],[22.546931880704342,65.52557726370544],[22.54760772157547,65.52458286954389],[22.54575888,65.51822264],[22.559564807723685,65.51753110969278],[22.559234590698807,65.51702040406494],[22.563144988451523,65.51700488592577],[22.563898828277424,65.51660613102756],[22.56528863774906,65.51689739821813],[22.566941255204117,65.51627306795794],[22.56460563,65.5082548],[22.6074604,65.50609904],[22.6085727429171,65.50989634857906],[22.60927023469907,65.50963139648061],[22.611088717340238,65.50990061726324],[22.611777886116425,65.51076829859534],[22.60907305165161,65.51160429908653],[22.60952449636045,65.51314543792016],[22.61111756044012,65.51296753524157],[22.61165043129201,65.513301629454],[22.612832025121083,65.51288100807089],[22.612936295822966,65.51323673120106],[22.61507938770209,65.51312854330165],[22.615183690197586,65.5134842645546],[22.616573875941334,65.51377505634878],[22.61640605647705,65.5146860013217],[22.61822496377525,65.5149551318843],[22.618485854999967,65.51584442807695],[22.617252050759113,65.5160872343801],[22.616551227113582,65.51666410642802],[22.617136418838115,65.51717603969507],[22.619760681181486,65.51722399402311],[22.620084971130012,65.51684662198319],[22.622123909281147,65.51638261480193],[22.621423187350427,65.5169595083858],[22.620565839924176,65.51700282430684],[22.620722434944046,65.51753639903819],[22.6199172613548,65.51775756974219],[22.618944325148224,65.51888968338956],[22.61915309412313,65.51960111882903],[22.6173225825023,65.52077652745136],[22.617102573962175,65.52150961374173],[22.61242687629245,65.52337005421435],[22.609529622513875,65.52387719392772],[22.608776291423332,65.52427617104445],[22.60893269819627,65.52480975994229],[22.60742594214501,65.52560770544561],[22.599330125616,65.52619615489515],[22.5978229917989,65.52699400859657],[22.596965267671216,65.52703719455197],[22.596315766152422,65.52779184822388],[22.59545801280321,65.52783502593097],[22.59491254953875,65.52894541110601],[22.594106801354698,65.529166450253],[22.592716022061815,65.52887545792223],[22.587465196571582,65.52877858840661],[22.585476642814548,65.52942001711754],[22.58204531015492,65.52959245612604],[22.57995265298081,65.5298780660531],[22.57919869158458,65.53027690225738],[22.577482950167365,65.5303630610473],[22.574843802137124,65.53175893113045],[22.573933960506306,65.53162411159214],[22.57323176702101,65.53220079679747],[22.572373822760213,65.53224384553428],[22.572477635459776,65.53259960124173],[22.571713042399033,65.5326379604875],[22.572128183755847,65.53406098959618],[22.57304866113777,65.53455625580047],[22.57148833011469,65.5351759825951],[22.571644053350635,65.53570961700686],[22.5698760276525,65.53561781523928],[22.569550785515524,65.53599508926654],[22.56659938034339,65.5363235505191],[22.564284395593162,65.53734197972845],[22.564062775870816,65.53807500516798],[22.562553873422836,65.53887252541058],[22.560889344016637,65.5391363842979],[22.559003003103957,65.54013324486093],[22.551966852150887,65.54138777474243],[22.551108563514568,65.54143070637515],[22.551382355151276,65.54087558229138],[22.550524082202767,65.54091851044883],[22.55030204905349,65.54165151993912],[22.548962828288182,65.54153801429567],[22.54783066027507,65.54213604793476],[22.547934185817176,65.54249182340567],[22.546646685202308,65.54255618540489],[22.545085240594595,65.54317565118579],[22.544981750627645,65.54281987340309],[22.543265048278904,65.54290565382655],[22.542628957653697,65.54221553651817],[22.54312518075515,65.54092742510068],[22.54430914175899,65.54050731533168],[22.54442787029605,65.53941853459999],[22.54598911076258,65.5387990776905],[22.546588596759065,65.53786673433092],[22.54744677714778,65.53782382944014],[22.54895609263395,65.53702645568067],[22.549747547351668,65.53606745987193],[22.50802233,65.5381517],[22.515753219999997,65.56483704999998],[22.53723052,65.56376710000002]],[[22.558377117249382,65.5170633686011],[22.558273571149915,65.5167076005301],[22.55870230252727,65.51668611921824],[22.559234590698807,65.51702040406494],[22.558377117249382,65.5170633686011]],[[22.626916235510457,65.49863217375373],[22.627772967720908,65.49858882817921],[22.627929576622424,65.49912239522843],[22.627020629212517,65.49898788585614],[22.626916235510457,65.49863217375373]],[[22.62368700188573,65.50096145936196],[22.625400628785936,65.50087479829415],[22.624230718381906,65.49985098871903],[22.626801041571525,65.49972098179347],[22.626633641369285,65.50063193369105],[22.62577683991651,65.50067527352148],[22.62630963481315,65.50100931680763],[22.624648189349138,65.50127384520788],[22.622390733624957,65.50247096489356],[22.620624827341256,65.50237973444297],[22.620896769599437,65.50182450400169],[22.623362948470138,65.50133883664483],[22.62368700188573,65.50096145936196]],[[22.62602697920883,65.50300907628038],[22.62645541832789,65.50298740586628],[22.62650762215672,65.50316526201921],[22.62602697920883,65.50300907628038]],[[22.622484054792338,65.50427120289368],[22.62371725480093,65.5040283601475],[22.623612881739213,65.50367264553685],[22.626079180174557,65.50318693261089],[22.626235787777354,65.50372050144709],[22.624950431356513,65.5037855075809],[22.62425009486612,65.50436241023714],[22.62301688446042,65.50460525743925],[22.622484054792338,65.50427120289368]],[[22.595866883370434,65.54261452198858],[22.596568836127947,65.54203773416758],[22.595735431782543,65.53919184855046],[22.592796604014858,65.53807628438457],[22.592484265413436,65.5370090681207],[22.593238208136846,65.5366101658732],[22.59308203687404,65.53607655830172],[22.594641892984928,65.53545661367075],[22.59491469586435,65.53490142106368],[22.596578589397062,65.53463719438693],[22.59647443841101,65.53428145870454],[22.597709299060405,65.53403881110513],[22.598996226976958,65.53397402050906],[22.599581486986317,65.53448602106852],[22.603013322925793,65.53431317905138],[22.604248120898927,65.53407047871671],[22.604949666366704,65.53349365622556],[22.60628868526661,65.53360666835947],[22.606653684236004,65.53485171444036],[22.6079927798737,65.53496471070306],[22.608630398744424,65.53565453722662],[22.606810124131165,65.53538530523066],[22.607123025101668,65.5364524861141],[22.606317155871718,65.53667359156117],[22.60647360207069,65.53720718264117],[22.60561555956414,65.53725042092785],[22.606201025853366,65.53776239376859],[22.605395108585263,65.5379834947986],[22.60549939901751,65.53833922291386],[22.604589177475248,65.53820459167756],[22.60388750311514,65.5387814138362],[22.605331084018548,65.53925016082309],[22.605435379689393,65.53960588893172],[22.60366699289247,65.53951448580327],[22.603550746244757,65.54060328719142],[22.602692586212488,65.54064651010565],[22.60300539493282,65.54171370048651],[22.601288996503975,65.54180013606425],[22.60139324936756,65.54215586740335],[22.599781048418237,65.54259801771093],[22.599664632843044,65.54368681786357],[22.598702138428248,65.54337428644654],[22.597414745941865,65.54343907930222],[22.597310541136807,65.54308334472745],[22.595866883370434,65.54261452198858]],[[22.60755203212187,65.53643086345025],[22.60760418790112,65.53660872666303],[22.607175178009197,65.53663034950434],[22.60755203212187,65.53643086345025]],[[22.606722558996037,65.53954103002299],[22.606293500011798,65.53956265086799],[22.606241346039134,65.53938478718135],[22.606722558996037,65.53954103002299]],[[22.6057079892961,65.53905067883468],[22.606409629695133,65.53847384858018],[22.606618246090456,65.53918530297868],[22.6057079892961,65.53905067883468]],[[22.60294518644382,65.52962385437387],[22.603049403172385,65.5299795849146],[22.603907211818473,65.52993636358468],[22.6041156776427,65.53064782293848],[22.601425854985624,65.53186627711335],[22.600788524086337,65.53117641729017],[22.60294518644382,65.52962385437387]],[[22.603811446946697,65.5414926108],[22.603382352958107,65.54151422374821],[22.603330214121726,65.54133635890078],[22.603811446946697,65.5414926108]],[[22.600639278461927,65.54255481059297],[22.601549634545485,65.54268946421845],[22.600743526106733,65.54291054243485],[22.600639278461927,65.54255481059297]],[[22.580313336762472,65.49087540692422],[22.579716045702064,65.4918078610977],[22.57885943973046,65.49185093288325],[22.57815837555743,65.49242762925017],[22.576873430331116,65.49249222223166],[22.576717911173603,65.49195859123753],[22.580313336762472,65.49087540692422]],[[22.573587388226397,65.5513141151273],[22.57401667319809,65.55129258472887],[22.574068636128402,65.55147046146797],[22.573587388226397,65.5513141151273]],[[22.573210059650346,65.55151352140867],[22.573639348280448,65.55149199204314],[22.57369130911665,65.55166986893327],[22.573210059650346,65.55151352140867]],[[22.57170361896155,65.54635507531562],[22.571274412944575,65.54637659834782],[22.57122248131563,65.54619872033518],[22.57170361896155,65.54635507531562]],[[22.570721527681478,65.49225987419288],[22.570825126207545,65.49261563315184],[22.570396801540635,65.49263714466807],[22.570721527681478,65.49225987419288]],[[22.570194490033597,65.54715267410211],[22.5697652693896,65.54717419300326],[22.569661423662577,65.54681843574431],[22.570194490033597,65.54715267410211]],[[22.562664453355403,65.5168484976088],[22.562235723248616,65.51686999014304],[22.562183923995608,65.51669210770602],[22.562664453355403,65.5168484976088]],[[22.55747305521256,65.54833136607506],[22.557043802514823,65.54835284922106],[22.556940124639166,65.54799708152755],[22.55747305521256,65.54833136607506]],[[22.551944514888007,65.54878843854924],[22.552699422061814,65.5483897285573],[22.552803043976983,65.54874549972533],[22.551944514888007,65.54878843854924]],[[22.553025055136352,65.54801248676577],[22.55388355653752,65.54796954209415],[22.553557936526836,65.54834678559989],[22.552699422061814,65.5483897285573],[22.553025055136352,65.54801248676577]],[[22.550523337379225,65.55138617702683],[22.5500940274944,65.55140764104272],[22.550042228241676,65.55122975441904],[22.550523337379225,65.55138617702683]],[[22.534244918738153,65.5538234158248],[22.53333449446351,65.55368835800786],[22.534193221814732,65.5536455227417],[22.534244918738153,65.5538234158248]],[[22.534364096991304,65.55273463837594],[22.536303992506507,65.55191595850766],[22.538879972464333,65.5517873896093],[22.53941275516201,65.55212173925034],[22.540700749557065,65.55205743378238],[22.539635168152,65.55138874185552],[22.542262822114218,65.55143800683958],[22.541626535724255,65.5507478872822],[22.542485149806886,65.55070500612582],[22.542692140274173,65.5514165649524],[22.545164501557238,65.55093211097338],[22.544512928047926,65.55168656315759],[22.540049019120126,65.55281186834561],[22.53870926005882,65.55269827741566],[22.539035148145054,65.55232106313697],[22.537747135773127,65.552385354614],[22.53505194605271,65.55360268263553],[22.534193221814732,65.5536455227417],[22.534364096991304,65.55273463837594]],[[22.54566073934763,65.54964399104426],[22.5469485927788,65.54957963384322],[22.547274323888438,65.549202403428],[22.548132875881326,65.54915949086394],[22.548029315684357,65.54880371587097],[22.550123859952038,65.54851852839916],[22.54871750547919,65.54967169453712],[22.547858937786312,65.54971461057737],[22.548014282312955,65.55024827317445],[22.546297103054624,65.55033409285183],[22.545164501557238,65.55093211097338],[22.54566073934763,65.54964399104426]],[[22.542433404137487,65.55052711635547],[22.542862707133484,65.55050567413858],[22.542914455679778,65.5506835637329],[22.542433404137487,65.55052711635547]],[[22.540442073664376,65.5511679811675],[22.54124896533203,65.5509472163186],[22.5413524433034,65.55130299678791],[22.540442073664376,65.5511679811675]],[[22.53920584741726,65.55141017509781],[22.539154122427792,65.55123228399604],[22.53958344028537,65.55121085092972],[22.53920584741726,65.55141017509781]],[[22.5359384235074,65.51168892322141],[22.535509751565026,65.51171033937558],[22.535458146629665,65.51153244581856],[22.5359384235074,65.51168892322141]],[[22.52901183007855,65.51329810744473],[22.529988514169276,65.51216653529491],[22.532080348103797,65.5118816251328],[22.531326144326226,65.51228022504408],[22.53185799343913,65.5126146107119],[22.534807207607216,65.51228684963306],[22.534104633114108,65.51286335693818],[22.53436263534034,65.5137528270921],[22.53227067917485,65.5140377700817],[22.52901183007855,65.51329810744473]],[[22.530984534505347,65.51410198500906],[22.530555818064624,65.5141233875692],[22.53050424110671,65.51394549203478],[22.530984534505347,65.51410198500906]],[[22.528941092913183,65.51005318117527],[22.52914732570918,65.51076476609498],[22.52818689145759,65.51045176539812],[22.52647224955191,65.51053733433103],[22.528941092913183,65.51005318117527]],[[22.52868600607294,65.56168038157415],[22.528256504983325,65.56170178558718],[22.528204830072145,65.56152389023121],[22.52868600607294,65.56168038157415]],[[22.527775331084257,65.56154529285797],[22.5273458313182,65.56156669427422],[22.527294162945143,65.56138879854134],[22.527775331084257,65.56154529285797]],[[22.52593778192926,65.56271966591574],[22.527003498378292,65.56338845292217],[22.52336064463488,65.56284802626466],[22.52593778192926,65.56271966591574]],[[22.52377382655049,65.56427120405172],[22.522914728473207,65.56431398396052],[22.52281143984981,65.56395818896335],[22.523618877497963,65.5637375125719],[22.52377382655049,65.56427120405172]],[[22.522485178267743,65.5643353720989],[22.522055627284445,65.56435675902657],[22.522003988345368,65.56417886118936],[22.522485178267743,65.5643353720989]],[[22.51470923367629,65.50895823751367],[22.514280585548267,65.50897959322626],[22.51422913165491,65.50880169089619],[22.51470923367629,65.50895823751367]],[[22.513954841018602,65.50935675266578],[22.51352618560858,65.50937810631326],[22.513474735903678,65.50920020368359],[22.513954841018602,65.50935675266578]],[[22.51203445497032,65.5087305472386],[22.512463101229734,65.50870919791433],[22.512514542879583,65.50888710096994],[22.51203445497032,65.5087305472386]],[[22.512514542879583,65.50888710096994],[22.51299463652402,65.50904365311827],[22.512565985302658,65.5090650040003],[22.512514542879583,65.50888710096994]],[[22.490912580121186,65.50635228092467],[22.491341208183137,65.50633099168056],[22.49139250038835,65.50650890343071],[22.490912580121186,65.50635228092467]],[[22.48845772119433,65.50990290019946],[22.48802903170227,65.50992418188982],[22.487977754301486,65.50974626884694],[22.48845772119433,65.50990290019946]],[[22.484361898598507,65.50776023250911],[22.483933240229554,65.50778150226911],[22.483881995791904,65.50760358750408],[22.484361898598507,65.50776023250911]],[[22.48200849954911,65.51166658667002],[22.48157977477756,65.51168785042897],[22.481528537112762,65.51150993479611],[22.48200849954911,65.51166658667002]]],[[[22.54612581271479,65.52579805044486],[22.547035314736465,65.52593304069718],[22.546983597331508,65.52575515221403],[22.54612581271479,65.52579805044486]]],[[[22.551863276908847,65.54103200253891],[22.55143413872907,65.54105346860757],[22.551485923086098,65.54123135489826],[22.551863276908847,65.54103200253891]]],[[[22.531310085556935,65.51372479084884],[22.53125850441321,65.51354689561465],[22.53082979735275,65.51356829885611],[22.531310085556935,65.51372479084884]]],[[[22.529920809142105,65.51343320592963],[22.53034951488502,65.51341180527922],[22.53029794102842,65.5132339096433],[22.529920809142105,65.51343320592963]]],[[[22.53040108951692,65.51358970088978],[22.530778219852632,65.51339040342104],[22.53034951488502,65.51341180527922],[22.53040108951692,65.51358970088978]]],[[[22.492608867106114,65.50771170007354],[22.49303751579644,65.5076904058098],[22.492986209590832,65.50751249475941],[22.492608867106114,65.50771170007354]]],[[[22.491700269809932,65.50757637340371],[22.492557563768315,65.50753378884853],[22.492506261201633,65.5073558775984],[22.491700269809932,65.50757637340371]]],[[[22.490586524999348,65.50672939313459],[22.490637813011148,65.50690730518355],[22.491066450446844,65.50688601662345],[22.490586524999348,65.50672939313459]]]]}}]}