{"type":"FeatureCollection","properties":{"source":"SMHI SE.SR Ytansamling av alger","date":"2025-08-08","note":"Test: SMHI WFS clipped to Lulea municipal sea area and simplified 20 m."},"features":[{"type":"Feature","properties":{"cyano_daymap_file_id":723663,"date":"2025-08-08Z","cloud":null,"sub_surfac":null,"surface":null,"no_data":null,"class":1,"color_hex":null,"algae_class":"class_1","source_date":"2025-08-08"},"geometry":{"type":"Polygon","coordinates":[[[22.016089729999997,65.40851515],[22.01369871,65.39961001999998],[21.9709613,65.40159627000001],[21.961472139999998,65.36597194],[21.98281322,65.36498194],[21.98043825,65.35607612],[22.00177045,65.35508352],[21.99939015,65.34617805],[22.02071346,65.34518285],[22.023100869999993,65.35408790999999],[22.044429499999996,65.3530893],[22.039642269999998,65.33527994],[21.997011629999996,65.33727253],[21.995035575410654,65.32986830731271],[21.9374845157948,65.3623116230953],[21.923296077768736,65.38498376435001],[21.92821676,65.40357047],[21.94958992,65.40258488],[21.95195950999999,65.41149122999998],[22.016089729999997,65.40851515]],[[22.016873163155733,65.34086783089761],[22.0164467807809,65.34088775282585],[22.01639908915397,65.34070964929654],[22.016873163155733,65.34086783089761]],[[21.97310417628309,65.40187142839747],[21.972676763585373,65.40189123617407],[21.972629234728906,65.40171311739624],[21.97310417628309,65.40187142839747]]]}},{"type":"Feature","properties":{"cyano_daymap_file_id":723663,"date":"2025-08-08Z","cloud":null,"sub_surfac":null,"surface":null,"no_data":null,"class":1,"color_hex":null,"algae_class":"class_1","source_date":"2025-08-08"},"geometry":{"type":"Polygon","coordinates":[[[22.103574799999997,65.33226853],[22.10116259,65.323365],[22.12246275,65.3223556],[22.12004527,65.31345242],[22.14133654,65.31244043999999],[22.136492849999996,65.29463473],[22.11521572,65.29564588],[22.112803649999996,65.28674253],[22.09153178,65.28775027],[22.089128569999996,65.27884644999999],[22.08521847646583,65.27902941126713],[22.032859282277933,65.30854591161479],[22.0537662,65.3075659],[22.05616065,65.31647037],[22.077457319999997,65.31546737999999],[22.08226575,65.33327533999999],[22.103574799999997,65.33226853]]]}}]}