{"type":"FeatureCollection","properties":{"source":"SMHI SE.SR Ytansamling av alger","date":"2017-06-30","note":"Test: SMHI WFS clipped to Lulea municipal sea area and simplified 20 m."},"features":[{"type":"Feature","properties":{"cyano_daymap_file_id":4010,"date":"2017-06-30Z","cloud":null,"sub_surfac":null,"surface":null,"no_data":null,"class":1,"color_hex":null,"algae_class":"class_1","source_date":"2017-06-30"},"geometry":{"type":"MultiPolygon","coordinates":[[[[22.773123530000003,65.69624211],[22.77044055,65.68735257],[22.748872639999995,65.68845651999999],[22.75178842701977,65.69814043656024],[22.8019485963681,65.6980889054477],[22.822739201972603,65.69368788079197],[22.773123530000003,65.69624211]]],[[[22.729971159999995,65.69844787999999],[22.68681071,65.70064148],[22.69212457,65.71842398],[22.71372035,65.71732779999999],[22.714285956557642,65.71921241645231],[22.7169667140691,65.7103161878469],[22.733774717380886,65.71110563425732],[22.729971159999995,65.69844787999999]],[[22.705228415095817,65.70098444071614],[22.708304189778943,65.70100868003522],[22.708517183520126,65.7017199490163],[22.705813945929133,65.70294044361181],[22.70322298387343,65.70307204631924],[22.70338872320655,65.70216101923216],[22.705228415095817,65.70098444071614]],[[22.701980700674216,65.70331565114014],[22.703814476378223,65.70358357307082],[22.7037551945557,65.70485023883455],[22.700193898445757,65.70467001416857],[22.699981104113686,65.7039587314837],[22.701980700674216,65.70331565114014]],[[22.69364291481641,65.709154351741],[22.696287728358598,65.70920072765381],[22.697796320589777,65.70984627375834],[22.69816871604116,65.71109102362985],[22.69557689143898,65.71122250482645],[22.693742647790806,65.71095448828102],[22.692719211838664,65.71046482438926],[22.692506565534153,65.70975352970567],[22.69364291481641,65.709154351741]]]]}},{"type":"Feature","properties":{"cyano_daymap_file_id":4010,"date":"2017-06-30Z","cloud":null,"sub_surfac":null,"surface":null,"no_data":null,"class":1,"color_hex":null,"algae_class":"class_1","source_date":"2017-06-30"},"geometry":{"type":"MultiPolygon","coordinates":[[[[22.613563626501882,65.6682345943533],[22.612637470576786,65.66793551701565],[22.608756859815593,65.66813040593891],[22.60709600800005,65.66695032526145],[22.605161521107682,65.66632544693127],[22.604468119219327,65.66545777769058],[22.602586240304387,65.66501072640023],[22.601945388594885,65.66432090671628],[22.602597914187477,65.66356619744984],[22.600506549449737,65.6624076687565],[22.597110147982225,65.66275849089557],[22.596574269876267,65.66242437572954],[22.598898850227652,65.66140535419804],[22.598689260410723,65.66069389850945],[22.5971341237034,65.65986942756122],[22.599784697643834,65.65847305126677],[22.605388034788593,65.65819186445663],[22.607007218565386,65.65774958297324],[22.607921692521145,65.65788415644828],[22.60991935135755,65.65724233932612],[22.613798323385826,65.65704743730232],[22.61617424356131,65.65620602082403],[22.619622033847698,65.65603263931654],[22.622102754028507,65.65554684343509],[22.623017222538216,65.65568132604957],[22.624204986429266,65.65526055232621],[22.626086503699405,65.65570733936704],[22.626191648282653,65.65606304475999],[22.627053575696703,65.65601965006088],[22.62999689450198,65.65677392922134],[22.627835939999997,65.64946843],[22.67091729,65.64729239],[22.668275389999998,65.63840064999998],[22.653584925740077,65.63914367948112],[22.651979545311942,65.6397805164411],[22.649755282489192,65.64260050146046],[22.64808509730792,65.64286537761984],[22.647865131614797,65.64359850880604],[22.645974835901256,65.64459649409244],[22.64608019871127,65.64495218345093],[22.638685111251174,65.64803294167301],[22.63523853694189,65.64820674370078],[22.63470248718048,65.64787276489452],[22.628723501009368,65.64835456118496],[22.62856578972052,65.64782100567109],[22.627115632215137,65.64735254722844],[22.62545534488719,65.64617266177707],[22.623196272349077,65.64592540026828],[22.62298616736314,65.64521398344581],[22.62131552387041,65.6454785696544],[22.620180658200667,65.64607717219965],[22.613287679950645,65.64642385597375],[22.61269949081185,65.64591193796322],[22.610923802247733,65.64582069408226],[22.61102869085752,65.64617641253372],[22.60897946551576,65.64664037542083],[22.60801296192413,65.64632794389084],[22.60828650316439,65.64577271927467],[22.609474068244708,65.64535206283593],[22.611249720463857,65.64544332404431],[22.612879173305902,65.64355646477254],[22.61439240264559,65.64275839820377],[22.614287484597853,65.64240268238326],[22.613373531441002,65.64226814198695],[22.613163731200075,65.64155670850458],[22.614781753772164,65.64111435592248],[22.614193662290738,65.64060244272977],[22.615485818730985,65.64053745846233],[22.61441456381918,65.63986935095723],[22.616137387969918,65.63978270083363],[22.615223519146507,65.63964817072467],[22.615391927628625,65.63873722026965],[22.616253301775934,65.6386938924901],[22.616148378030275,65.63833817802345],[22.617335477976464,65.63791746481634],[22.616421669756846,65.63778294130906],[22.617230543190942,65.6375617512118],[22.616694950443584,65.63722770421658],[22.614110967024235,65.63735767899794],[22.615088255964487,65.63622555104399],[22.61455271905745,65.63589149592445],[22.616391178979637,65.63471603863657],[22.61811365341966,65.63462936962743],[22.621012252861036,65.6355664619883],[22.622787264712986,65.63565759471548],[22.624236678912236,65.63612610201655],[22.626820478708314,65.63599595668359],[22.626662896932675,65.63546239792454],[22.628332842269785,65.6351977599733],[22.62812270118732,65.63448635068265],[22.62958239677686,65.63351029050858],[22.631409845523056,65.63377917521194],[22.63162006972682,65.63449057910051],[22.63377306547583,65.63438202468315],[22.635610536150143,65.63320634464881],[22.637280240107803,65.63294161068863],[22.637605620052536,65.63256418959317],[22.64002147786113,65.6333447897567],[22.639863644364237,65.63281124728893],[22.640619542825736,65.63241208871844],[22.643308138894184,65.63263736145178],[22.644116616062217,65.63241603210206],[22.643958705271224,65.63188249468632],[22.64447730834623,65.63183428631865],[22.64147958,65.62170515999999],[22.662997559999997,65.62061695999999],[22.657082812645477,65.60064919067008],[22.654698482006527,65.60029260933993],[22.655830595345485,65.5996937771105],[22.656785483399354,65.59964542813455],[22.65509573,65.59394093999998],[22.6980824,65.59175815000002],[22.69543802,65.58286691],[22.71692116,65.58177142],[22.714271569999994,65.57288055999999],[22.671317679999998,65.57506762],[22.67395288,65.58395937],[22.654719976735358,65.58493451624486],[22.65515690618363,65.58709243822717],[22.65402482874259,65.5876912844015],[22.654182622619526,65.58822481234542],[22.652893179890793,65.58829009832561],[22.652621130476415,65.58884538775102],[22.65133165228821,65.58891066080595],[22.650199888614733,65.58950945579682],[22.65078746392641,65.59002123448614],[22.649865943129743,65.5913314035826],[22.648418631299304,65.59086311980329],[22.645786893982724,65.59081573975428],[22.64525194043578,65.59048178716],[22.64315516355174,65.59076831392639],[22.643260225151742,65.59112400816724],[22.640251102239763,65.59127611248876],[22.64314553932378,65.59221282415862],[22.643030846599142,65.59330164014301],[22.64389066126769,65.59325817142219],[22.64421548103976,65.59288074198669],[22.646364971045216,65.59277204471219],[22.645873054166202,65.59406044945091],[22.644416111816827,65.59503663793271],[22.644573762428198,65.59557017737724],[22.642476569663884,65.59585669902475],[22.642634186503475,65.59639024083576],[22.6405894318693,65.59685458463701],[22.637727246480537,65.59898470357875],[22.63633221391924,65.59869415592986],[22.632944636899584,65.59904568937147],[22.633049599233175,65.59940139172502],[22.633909635549077,65.5993579773694],[22.63320704866846,65.59993494506018],[22.63229451370522,65.59980050419597],[22.631539405085533,65.60019961314218],[22.63024930054457,65.60026471318312],[22.62778442181918,65.59930606942144],[22.628969579052523,65.59888528510203],[22.62865487638756,65.59781816747376],[22.63162262033045,65.5960439171348],[22.630930359138393,65.59517635755958],[22.61831532103826,65.59382703196823],[22.614457030706618,65.59257742870567],[22.61172050770108,65.59217373999837],[22.611563555315144,65.5916401593325],[22.610752250249398,65.5915204606067],[22.612742411986126,65.59827940255896],[22.614464538252417,65.59853338566816],[22.615219867620212,65.59813435955242],[22.61501044587092,65.59742292498306],[22.617160457908703,65.5973146366473],[22.617317566332275,65.59784820994304],[22.615859329078944,65.59882413703981],[22.61692886252059,65.59949225167283],[22.6151563495467,65.59940102504018],[22.616173521655234,65.59989128642603],[22.614558053399552,65.60033362777382],[22.614662770637214,65.60068934534888],[22.615522886480512,65.60064603451448],[22.615941833211256,65.60206890092964],[22.614326227451308,65.60251124121493],[22.614191036623907,65.60319918855257],[22.619959619999996,65.62279032],[22.598437690000004,65.62387245],[22.603672099999994,65.64165880999997],[22.582133710000004,65.6427388],[22.589978419999998,65.66941918999999],[22.613563626501882,65.6682345943533]],[[22.611965185877793,65.64342191624182],[22.61229106066322,65.6430445444138],[22.612879173305902,65.64355646477254],[22.611965185877793,65.64342191624182]],[[22.61137709431097,65.64290999212852],[22.61180785502087,65.6428883394971],[22.611860297847755,65.64306619843795],[22.61137709431097,65.64290999212852]],[[22.651619704411623,65.59431124075212],[22.651032010673873,65.59379946648593],[22.649689700087485,65.5936868842415],[22.64916392208951,65.59190843939405],[22.651313306870577,65.59179967300739],[22.654331416044194,65.59020284463246],[22.65782390487101,65.59020647360126],[22.658473375696207,65.58945154312497],[22.659333352415164,65.5894079721796],[22.660342428711015,65.59134242607973],[22.659157651574052,65.59176347117398],[22.65893818638413,65.59249661945864],[22.657805969612067,65.5930954953415],[22.655708331316166,65.5933822370093],[22.655813577190223,65.59373792065847],[22.654953770707547,65.59378145694474],[22.654629098017054,65.59415890788851],[22.651619704411623,65.59431124075212]],[[22.65690973020659,65.60776195487149],[22.655724642431732,65.60818295694936],[22.65395142456605,65.60809219123077],[22.653793490075774,65.60755866440017],[22.65621629385231,65.60689452281842],[22.65690973020659,65.60776195487149]],[[22.647335582987754,65.6004846333923],[22.644817505507483,65.59934842778391],[22.644607262804648,65.59863704256765],[22.645414686118688,65.59841571711638],[22.645476726660757,65.59714905419436],[22.64666149221085,65.59672813556244],[22.646933742358407,65.5961728547486],[22.647793644020673,65.59612936299115],[22.648925743897948,65.59553058249712],[22.650101155422117,65.59655414485667],[22.650803274869812,65.59597710367339],[22.65558524335852,65.59591556093689],[22.655953655161706,65.59716045319355],[22.655146363545487,65.5973818334357],[22.654926906868457,65.59811496938696],[22.652987480711975,65.5989351638213],[22.649600120443058,65.59928706729265],[22.648520466605945,65.6000636990091],[22.64964347898639,65.60090941830715],[22.648081130086258,65.601529955765],[22.646308389838087,65.60143909577043],[22.646150660770758,65.6009055589089],[22.647335582987754,65.6004846333923]],[[22.641013656674357,65.6056777717223],[22.63951314334487,65.60503156178564],[22.639733083866233,65.604298443185],[22.64059326861412,65.60425498938663],[22.640918264934246,65.60387756518185],[22.641778433378594,65.60383410482507],[22.64236618588395,65.60434591441272],[22.643226366896535,65.60430244571127],[22.643551325116615,65.60392501625094],[22.646614473081485,65.60395067703857],[22.6469393774634,65.60357324086739],[22.648282191762092,65.60368584232481],[22.648931936219896,65.60293096279791],[22.65016950914417,65.60268785903585],[22.65001169176831,65.6021543270915],[22.652749831009928,65.60255730771901],[22.65311822056337,65.6038022071627],[22.647790195935794,65.60497425420513],[22.647623076254135,65.60588522714701],[22.64643791733257,65.60630615734911],[22.644717432564526,65.60639312757365],[22.643752041073586,65.60608091238983],[22.641548881675124,65.60601173654173],[22.641759112617667,65.6067231261606],[22.64353220240711,65.60681403578923],[22.64181167233497,65.60690097350015],[22.641056512803242,65.60730013039728],[22.639933487460684,65.60645434757387],[22.639020688643203,65.60631994989593],[22.639345732131194,65.60594252857489],[22.641013656674357,65.6056777717223]],[[22.651661029794393,65.60477846791214],[22.651230940317106,65.60480022679317],[22.651178321324416,65.60462238333022],[22.651661029794393,65.60477846791214]],[[22.65137506287938,65.59053301065667],[22.650945208487784,65.59055476631676],[22.65089262617481,65.59037692239933],[22.65137506287938,65.59053301065667]],[[22.651217309667153,65.58999947936232],[22.65126989327867,65.59017732315321],[22.65084004465436,65.5901990784558],[22.651217309667153,65.58999947936232]],[[22.646479522721222,65.59168322765461],[22.646154750114402,65.59206066145639],[22.64561976529062,65.59172671047786],[22.646479522721222,65.59168322765461]],[[22.643312757139448,65.59130185524859],[22.64374263155835,65.59128012103558],[22.643795167221956,65.59145796791223],[22.643312757139448,65.59130185524859]],[[22.643795167221956,65.59145796791223],[22.644277583072693,65.59161407898118],[22.643847703677444,65.5916358147628],[22.643795167221956,65.59145796791223]],[[22.643250211708505,65.60881382215169],[22.64163467591552,65.6092564527677],[22.641371862609606,65.60836721571775],[22.642557198321686,65.6079463233083],[22.642452064390632,65.60759062927346],[22.643742495411384,65.60752542202755],[22.643250211708505,65.60881382215169]],[[22.64040643521629,65.60805497959142],[22.639976280217127,65.60807670721094],[22.63992373018444,65.60789885913464],[22.64040643521629,65.60805497959142]],[[22.632064180422148,65.601978129444],[22.63034392397879,65.60206493420955],[22.6302389856769,65.60170922973028],[22.632064180422148,65.601978129444]],[[22.616443446987738,65.6067365282593],[22.616013289693413,65.60675818791154],[22.61596090671445,65.60658032984043],[22.616443446987738,65.6067365282593]],[[22.616046577791217,65.60242461727417],[22.61615132553035,65.60278033351497],[22.61572123335475,65.60280199167455],[22.615186404200685,65.60246793166898],[22.616046577791217,65.60242461727417]],[[22.614580441095118,65.59744457901442],[22.613720429175604,65.59748788344127],[22.61366808437081,65.59731002420023],[22.614580441095118,65.59744457901442]],[[22.612167353112042,65.63817739379445],[22.612440729126536,65.6376221633963],[22.613732742591974,65.63755719550515],[22.613028715175883,65.63813408444047],[22.612167353112042,65.63817739379445]],[[22.61283788668203,65.6419340818959],[22.61289033424097,65.64211194043175],[22.612459587497266,65.64213359599376],[22.61283788668203,65.6419340818959]],[[22.611481974961524,65.64326571034071],[22.610620439575012,65.6433090126728],[22.610568004649114,65.64313115322324],[22.611481974961524,65.64326571034071]],[[22.611313408662717,65.64417665808165],[22.611365851238627,65.64435451719739],[22.61050427949374,65.64439781923883],[22.611313408662717,65.64417665808165]],[[22.604647754560943,65.63638935072208],[22.605509072437744,65.63634608449811],[22.60609689259072,65.63685803407436],[22.605235558918462,65.63690130379491],[22.604647754560943,65.63638935072208]]],[[[22.64983776,65.5761566],[22.643712776475894,65.57646623216046],[22.642759802160818,65.57761160371801],[22.640873959546656,65.57860947945984],[22.641408603975883,65.57894345064591],[22.640601740840918,65.57916474898755],[22.64069691738003,65.58096495758831],[22.64123160988494,65.58129892891246],[22.6438098663875,65.58116855092605],[22.644397118607408,65.5816803576701],[22.645738785157093,65.58179299338536],[22.645896366160418,65.58232653211178],[22.64751017818203,65.58188387383426],[22.64852724208933,65.58237391909257],[22.648360246352112,65.5832848914145],[22.65007918955183,65.58319789566119],[22.652262392363234,65.5843607180319],[22.64983776,65.5761566]],[[22.649439237300825,65.58250826773747],[22.649009513424254,65.58253001656657],[22.648956963875943,65.58235217165303],[22.649439237300825,65.58250826773747]]],[[[22.63967173063266,65.57667051642508],[22.626131117004718,65.57735437884605],[22.62546843458125,65.57812411467678],[22.626380168155432,65.57825860480708],[22.626484939796672,65.57861431359984],[22.62895821331281,65.57812848176472],[22.62949269672282,65.578462496652],[22.632877656400325,65.57811106721162],[22.634009346147273,65.57751240243718],[22.635885310236645,65.57795912438199],[22.636639724434826,65.57756000095884],[22.63841080232472,65.5776509910349],[22.63967173063266,65.57667051642508]]],[[[22.610684681375382,65.57813073935662],[22.612095833859865,65.57861778173442],[22.613269004855503,65.57964165233722],[22.614180733360303,65.57977621594965],[22.613789789008184,65.57797467209262],[22.610684681375382,65.57813073935662]],[[22.612850639248027,65.57821877282353],[22.612420949374265,65.57824041751194],[22.612368660100632,65.57806255727841],[22.612850639248027,65.57821877282353]]],[[[22.563898330000004,65.58048229],[22.563549159911386,65.57961118510647],[22.561830106757352,65.5796972000873],[22.55794779495556,65.58133521493896],[22.55848144787647,65.58166948864984],[22.557621844838877,65.5817124706002],[22.557777619745785,65.58224611887574],[22.55643626626422,65.58213270104191],[22.555850717506335,65.58162053644777],[22.554991110847865,65.58166350350776],[22.554353701306912,65.5809734487833],[22.55321999436396,65.58157153848992],[22.551930577776965,65.58163596492714],[22.55079678592273,65.58223403736169],[22.550900544345456,65.58258980850101],[22.54746193157273,65.58276153700803],[22.5468615360698,65.58369389323947],[22.54567568978661,65.58411404218165],[22.54481598057479,65.58415695254527],[22.54509030385258,65.58360183435106],[22.543036552541228,65.5837043211416],[22.54759443,65.59934491],[22.560403654593497,65.59870473439014],[22.561490020912245,65.59794270839734],[22.565308572717033,65.59757124930609],[22.565582580226465,65.59701609719956],[22.56845434343569,65.59606722981773],[22.56805082838632,65.59468750626299],[22.567590540171658,65.59493032580217],[22.567966357087457,65.59439867678581],[22.5664975,65.58937627],[22.580574061619753,65.58867075266691],[22.578992841084553,65.5876813039948],[22.57716917301257,65.5874117498716],[22.576531029313752,65.58672179593451],[22.57561923658871,65.58658700638297],[22.575944979866236,65.58620971410426],[22.574225540497864,65.5862958736758],[22.574121445556788,65.58594012194258],[22.575632635226196,65.58514246284437],[22.577404059827508,65.5852341627026],[22.578159594895563,65.58483531927587],[22.577625625252775,65.5845011181094],[22.576765966904745,65.58454420924713],[22.576245392279354,65.58276545963191],[22.576896761992856,65.58201087288532],[22.57775633645251,65.58196778185881],[22.577600154172863,65.58143415828917],[22.579319259074996,65.58134796382491],[22.580022579698678,65.58077123871115],[22.581311869477936,65.58070657447087],[22.58185406791077,65.57957980827628],[22.563898330000004,65.58048229]],[[22.559732023931687,65.59640627999683],[22.561400204349795,65.59614239665484],[22.561504174611624,65.5964981584037],[22.560266020900475,65.5967405439596],[22.559732023931687,65.59640627999683]],[[22.55918524531154,65.58109285546702],[22.55923717868626,65.58127073762157],[22.558807384891956,65.5812922312721],[22.55918524531154,65.58109285546702]],[[22.558207430308276,65.58222462797656],[22.558259359726577,65.58240251050734],[22.557829546279866,65.58242400158309],[22.558207430308276,65.58222462797656]],[[22.5538573896798,65.5822615981304],[22.55342757417789,65.58228307673828],[22.553375678051253,65.58210519221454],[22.5538573896798,65.5822615981304]],[[22.54448980497614,65.58453418223272],[22.544059942646598,65.58455563473792],[22.54400810505137,65.58437774641287],[22.54448980497614,65.58453418223272]]],[[[22.60029755074148,65.58768042636048],[22.599457419563265,65.58755638760468],[22.59920853263693,65.58773516592336],[22.60029755074148,65.58768042636048]]],[[[22.6032969977349,65.58752965897048],[22.602687269696574,65.58667202073813],[22.601345514092195,65.58655900465305],[22.60064252394737,65.58713582538788],[22.601109047249356,65.58763963643794],[22.6032969977349,65.58752965897048]]],[[[22.610324023320704,65.59006612606693],[22.61077889984089,65.58897225250769],[22.611638636340444,65.58892896758292],[22.612341425267452,65.5883520978824],[22.615780257884484,65.5881788946107],[22.61766775691315,65.58718131435857],[22.619387080833924,65.58709466298073],[22.620896917476617,65.58629656638236],[22.619734080887003,65.58382823897846],[22.618822182044294,65.58369371052777],[22.618717490422664,65.58333799560634],[22.617428182679536,65.58340297837772],[22.617417105016955,65.58484750163746],[22.616180050160956,65.58509033265744],[22.616284715616555,65.58544604960362],[22.612666650666377,65.58797473198653],[22.60975143269446,65.5881215068263],[22.610324023320704,65.59006612606693]]],[[[22.641155335770875,65.63274604920313],[22.641260574674092,65.6331017431349],[22.64212170988408,65.63305827096025],[22.642447020028275,65.63268084019356],[22.641155335770875,65.63274604920313]]],[[[22.61502930584046,65.60193435604515],[22.614599226523204,65.60195601089018],[22.614651588966094,65.60213386963538],[22.61502930584046,65.60193435604515]]],[[[22.598729759724684,65.6623162933495],[22.59878216021621,65.66249415725558],[22.599213258712748,65.66247253695437],[22.598729759724684,65.6623162933495]]]]}},{"type":"Feature","properties":{"cyano_daymap_file_id":4010,"date":"2017-06-30Z","cloud":null,"sub_surfac":null,"surface":null,"no_data":null,"class":1,"color_hex":null,"algae_class":"class_1","source_date":"2017-06-30"},"geometry":{"type":"MultiPolygon","coordinates":[[[[22.19448800469137,65.52635435325394],[22.193733893949968,65.52568328293474],[22.19621062470425,65.52520449200698],[22.1962945698613,65.52393782695545],[22.19509096524885,65.52273253254012],[22.193226330832076,65.52228025104972],[22.194548581310233,65.52077420127327],[22.19392223305152,65.52008253205041],[22.192205665654473,65.52016432772429],[22.19224051981052,65.51871963178598],[22.19300018115348,65.51832267486142],[22.19471662451028,65.51824087137811],[22.195722759108094,65.51873405197784],[22.197933852990033,65.51852401075568],[22.195098359999996,65.50828794999998],[22.215857938945902,65.507295091397],[22.21592756810847,65.50694636423223],[22.2183032437978,65.50611118886022],[22.218056093284947,65.50522108228131],[22.21886440513326,65.5050020244076],[22.21871610872969,65.50446796111525],[22.21733068059574,65.50417346919377],[22.217611269190886,65.50361888894861],[22.21670415704996,65.50348189596936],[22.216555915203465,65.50294783001864],[22.21736417070679,65.50272878071354],[22.218271259658646,65.50286576996032],[22.21837010980484,65.5032218126048],[22.219227789068924,65.50318077464723],[22.21998659222238,65.50278369055495],[22.21983828809177,65.50224962843058],[22.221124753845658,65.5021880576954],[22.221025870900228,65.50183201717087],[22.22236176244319,65.50194845633273],[22.223549290252375,65.50153082578727],[22.223450377286383,65.50117478714131],[22.225594377860745,65.50107211300438],[22.22509971399201,65.49929192677465],[22.225957251554615,65.4992508520257],[22.22615513116025,65.49996292545434],[22.2278702433256,65.49988075875353],[22.228150565594156,65.49932616154724],[22.229436863818886,65.4992645217174],[22.22971714671662,65.4987099219898],[22.231003410158202,65.49864826916995],[22.23085490931382,65.49811421977361],[22.233905623950587,65.4981483397331],[22.23380658540747,65.49779230909134],[22.235614691282777,65.49770554951431],[22.23551181,65.49733591999998],[22.24275734885341,65.49698784060138],[22.243897706985393,65.49658646261551],[22.243798539527052,65.49623043978794],[22.245612530213425,65.4965040974436],[22.24765682332604,65.49604509399624],[22.24874444070288,65.49527125247664],[22.248545988835044,65.49455921426187],[22.249403326617827,65.49451800846485],[22.25091948439448,65.49372354782791],[22.25258445631207,65.49346309708095],[22.25311238390579,65.49379849922232],[22.256206251219616,65.49364967515872],[22.255921698528304,65.49262956974906],[22.252485184894667,65.49310708097202],[22.251479014930943,65.49261427838276],[22.249286218537794,65.49253930227326],[22.248659152251573,65.49184786683384],[22.253964856440383,65.4890672224899],[22.254896894894287,65.48895570630361],[22.254464559999995,65.48740581],[22.21160616,65.48946149],[22.214074510000003,65.49836268],[22.17119433,65.50040712],[22.166288209999998,65.48260300999999],[22.161962298254107,65.48300272824538],[22.162158287396412,65.48371490362901],[22.161252145999086,65.48357756850793],[22.160921553683433,65.48395400963986],[22.15877865089283,65.48405575584219],[22.158974562895207,65.48476793609863],[22.158166347757465,65.48498667279404],[22.157113280823914,65.48431517681728],[22.159060298037808,65.48350127408192],[22.159371721405606,65.48293121922731],[22.14485971,65.48361986],[22.14241659,65.47471731000002],[22.120993430000002,65.47573072],[22.118559319999996,65.46682769],[22.05430042,65.46984857],[22.057570604695552,65.48191341747193],[22.05820497741838,65.48140198214229],[22.05991950267097,65.48132172680879],[22.060160999430153,65.48221214403426],[22.058971650035026,65.48262850753383],[22.058736167837257,65.48336090652558],[22.057929644242225,65.48323803909742],[22.059127419999996,65.48765705],[22.03768979,65.48865878],[22.04009882,65.49756335],[22.027937768515155,65.49812988888091],[22.024904599387327,65.4995476805889],[22.025000800194174,65.49990387358115],[22.026335807532732,65.50002205289157],[22.026528255261628,65.50073443654712],[22.02538563236452,65.50132864464454],[22.025481847643476,65.50168483718394],[22.02462385498247,65.50172477885042],[22.0243391600054,65.50227903798236],[22.023148325480086,65.50269513352765],[22.02324451634573,65.5030513277166],[22.024102555097535,65.50301139343887],[22.02386593801338,65.50374374863375],[22.02691725896827,65.50378204007673],[22.028440836495424,65.50298974452056],[22.029298863632246,65.50294978086578],[22.029968585478223,65.50382026989111],[22.028493143517835,65.50479067586184],[22.0287338315125,65.50568115067679],[22.02754291663614,65.5060972815795],[22.02681796021519,65.50718960169402],[22.042832011487487,65.50644350665246],[22.0421789768318,65.5055954005378],[22.044126065820937,65.50316010359842],[22.04498406954939,65.50312005115877],[22.044887582129565,65.50276387365173],[22.0474132814656,65.50246560145739],[22.047322107286018,65.50373225033348],[22.046179839505193,65.50432661213502],[22.04675363670215,65.5048408446614],[22.044420681517686,65.50585146380092],[22.044517176342804,65.5062076415207],[22.043062893544054,65.50643274985178],[22.062150600111053,65.50554345313466],[22.06196261294947,65.50485128749257],[22.063104536552,65.5042568097773],[22.064820542748908,65.50417648465314],[22.06682034837032,65.50354181016569],[22.067346131353293,65.50387788056409],[22.06863310662089,65.50381760272481],[22.068729922327947,65.50417376190553],[22.069636328412557,65.50431164919512],[22.069523298256232,65.50519995894724],[22.080609369562712,65.50468345861317],[22.082110444024195,65.50066078709399],[22.084222350442918,65.50009100326032],[22.08371855677078,65.49824073791764],[22.08043581911852,65.49929657719761],[22.080573855650325,65.49820799907266],[22.081334667352415,65.49781159235494],[22.080331485191824,65.49731762309064],[22.080089132957525,65.4964272465355],[22.08165912505183,65.49581250996673],[22.08265475713144,65.49468366839507],[22.08198354151635,65.49381342723123],[22.08060016321923,65.49351766319087],[22.080357844379293,65.49262728670516],[22.08190485923896,65.49157963463117],[22.08145888994621,65.48994173885774],[22.07844162091649,65.49037267076392],[22.07458973992107,65.49217651008287],[22.073303354174058,65.4922368329738],[22.072687805552587,65.49316743398104],[22.07149817180971,65.49358389874983],[22.07093093125367,65.49469257224644],[22.066745782360805,65.4968724804199],[22.0632180214323,65.49667698200865],[22.060403061221876,65.49590701361062],[22.059303693708028,65.49505673422297],[22.058445981101787,65.4950968651364],[22.05753400637926,65.49333608855665],[22.05819841332603,65.49258362794393],[22.057956867676584,65.49169320816745],[22.059098324854986,65.4910987650778],[22.05933385462332,65.49036636513664],[22.06095231434474,65.48992992564318],[22.061858182737822,65.49006786473637],[22.064044041317032,65.48852275110528],[22.06427941257291,65.48779034495679],[22.065040181411195,65.48739402061717],[22.066326351994608,65.48733377011662],[22.066990359963274,65.48658127463669],[22.06789614100539,65.48671917838416],[22.068179754549043,65.4861648476093],[22.0690855269009,65.48630274431201],[22.071083879721726,65.48566802723336],[22.072369948614554,65.48560772627357],[22.073510812802528,65.48501318000359],[22.075654192394346,65.48491263855846],[22.077603851511018,65.4840997605926],[22.078889825139193,65.48403940506076],[22.079221611803074,65.48366313216765],[22.083556541740553,65.48363993403149],[22.085602807657885,65.48318310457276],[22.08627384983388,65.48405333144309],[22.085465025728432,65.48427168502987],[22.08580438965637,65.48551819952354],[22.08499551675356,65.48573655106368],[22.08560564273482,65.4864148300792],[22.123429380000005,65.48463369],[22.128306769999995,65.50243946],[22.14975147,65.5014248],[22.154754196069426,65.519599151563],[22.1569521337494,65.52003607468797],[22.156670090317697,65.5205905561774],[22.155094555173676,65.52083563861676],[22.15555995321213,65.52252637831553],[22.157025673064485,65.5234596224485],[22.15888978924189,65.52391235511878],[22.159564386755203,65.52478222113724],[22.156438513624728,65.52571809131088],[22.15710291,65.52813177],[22.19448800469137,65.52635435325394]],[[22.2473095798028,65.49479902398951],[22.247738254175342,65.49477842515199],[22.24778786102709,65.49495643505547],[22.2473095798028,65.49479902398951]],[[22.24778786102709,65.49495643505547],[22.248266147993764,65.4951138445512],[22.247837468624528,65.49513444493515],[22.24778786102709,65.49495643505547]],[[22.243369837599737,65.49625102772153],[22.243320257860226,65.4960730161032],[22.243748956915944,65.49605242833844],[22.243369837599737,65.49625102772153]],[[22.219409464687082,65.50227014959069],[22.218980640539094,65.50229066954162],[22.218931213062948,65.50211264844953],[22.219409464687082,65.50227014959069]],[[22.161448121011965,65.4842897449465],[22.16101953692089,65.48431009814621],[22.160970544934013,65.48413205390469],[22.161448121011965,65.4842897449465]],[[22.15902354273606,65.4849459811044],[22.159072523313064,65.48512402608687],[22.158643923320735,65.48514437270279],[22.15902354273606,65.4849459811044]],[[22.156829602139236,65.51643448125547],[22.158447963178396,65.51599699921029],[22.15859510633845,65.5165311325596],[22.156927676763235,65.51679057142107],[22.156829602139236,65.51643448125547]],[[22.154736467149853,65.49146236364788],[22.155544909684245,65.49124364310053],[22.155642852708493,65.49159973545962],[22.154736467149853,65.49146236364788]],[[22.155642852708493,65.49159973545962],[22.156120536805357,65.49175744227911],[22.155691825324926,65.4917777816042],[22.155642852708493,65.49159973545962]],[[22.15591258627044,65.48942250438361],[22.155483912868753,65.48944284274923],[22.155434946949562,65.4892647964683],[22.15591258627044,65.48942250438361]],[[22.155091259736455,65.49433144290684],[22.15466250508736,65.49435177973109],[22.154564562960747,65.49399568673712],[22.155091259736455,65.49433144290684]],[[22.153976972041374,65.49185912681496],[22.15440568646645,65.49183879232574],[22.15445465120058,65.49201683894734],[22.153976972041374,65.49185912681496]],[[22.15445465120058,65.49201683894734],[22.154932336105563,65.49217454951388],[22.15450361667083,65.49219488554567],[22.15445465120058,65.49201683894734]],[[22.15298455484478,65.49298840641119],[22.15174729785386,65.4932274423943],[22.15207813371808,65.49285101900402],[22.151073834695815,65.49235753027591],[22.14726419105071,65.4927184625162],[22.14630889671189,65.49240299067166],[22.1465908903987,65.49184852884203],[22.145684540752523,65.49171110239585],[22.145060218805607,65.49101921120621],[22.14634634368135,65.49095828015011],[22.147057020145056,65.49038350490636],[22.147914412875178,65.49034287432126],[22.148478280687147,65.48923394528106],[22.149335633064457,65.48919330702424],[22.14966645614019,65.48881688902301],[22.151381126149328,65.4887355945011],[22.151050328993644,65.48911201600436],[22.15190767254485,65.4890713632414],[22.152238456740456,65.48869493998724],[22.152385287558783,65.4892290825414],[22.153671303777298,65.48916809020406],[22.153732173775584,65.49096889252333],[22.154589573162262,65.49092822400358],[22.154687501751233,65.49128431712307],[22.153401384331133,65.49134531908992],[22.15264187184334,65.49174207571683],[22.15298455484478,65.49298840641119]],[[22.153855202583877,65.48825752263505],[22.154859390959082,65.48875099397536],[22.153671303777298,65.48916809020406],[22.153855202583877,65.48825752263505]],[[22.150179151737397,65.4938428887209],[22.15060790225334,65.49382256465474],[22.150656845615703,65.49400061271072],[22.150179151737397,65.4938428887209]],[[22.1497993381011,65.49404125996735],[22.150228092226303,65.49402093694356],[22.150277033451022,65.49419898514296],[22.1497993381011,65.49404125996735]],[[22.066771954576833,65.5033637298358],[22.06720093915509,65.50334364013763],[22.067249335826464,65.50352172030266],[22.066771954576833,65.5033637298358]],[[22.05992586221458,65.49574899976788],[22.059068128052708,65.49578913441779],[22.05901980439154,65.49561105091873],[22.05992586221458,65.49574899976788]],[[22.04555915836864,65.48920694319244],[22.04470161215523,65.4892469945276],[22.044605190405914,65.48889081614743],[22.045462725119556,65.48885076546931],[22.04555915836864,65.48920694319244]]],[[[22.021561586218272,65.49842693187817],[22.02166146556118,65.49879695286694],[22.018754898646876,65.49929284652784],[22.018422045851924,65.4996689966071],[22.01646595159065,65.49885829541677],[22.01831387819375,65.49730720718429],[22.011452080000005,65.47184738],[21.994269111871073,65.47283959126887],[21.990025209999995,65.47284225],[21.992416259999995,65.48174774999997],[21.97098041,65.48274001],[21.973366070000004,65.49164586],[21.95192123,65.4926355],[21.95430148999999,65.50154168999998],[21.97575352,65.50055165],[21.978142770000005,65.50945738],[22.018572852177016,65.50757374147975],[22.017818405301632,65.50709076558529],[22.01562488577236,65.5070124066194],[22.015003598428912,65.50631995059152],[22.011141836935543,65.50649938970999],[22.00918842213503,65.50731144531412],[22.00790110989836,65.50737122036377],[22.00732801269761,65.50685683384653],[22.00475341623737,65.50697634104849],[22.00422836378298,65.50664004620165],[21.999556201422664,65.50703711866777],[21.998173007685722,65.50674059875061],[21.99802921045936,65.5062062789383],[21.996550236885387,65.50555353007972],[21.993975709348106,65.50567285313637],[21.99364241962431,65.50604895275046],[21.99159270258241,65.50650456913117],[21.98859064693626,65.50826653845199],[21.987303230829564,65.50832613914288],[21.987159645323626,65.50779180700735],[21.989495037999493,65.50678204854708],[21.990828417261163,65.5052776801622],[21.992401085541427,65.5046638457958],[21.986393965418458,65.50494203220579],[21.986677925983965,65.50276497485942],[21.985342938239206,65.50264644520746],[21.984770390439348,65.5021319679873],[21.983912308179995,65.5021716794734],[21.98457906836655,65.50141952064928],[21.982719497596975,65.50096459847781],[21.982147039771974,65.50045011045863],[21.982384807399,65.49971780973983],[21.983242811913698,65.49967810765789],[21.984338519992814,65.49890609751415],[21.9878182451583,65.49892532764838],[21.988151534195357,65.49854924083868],[21.98829507865942,65.49908357249592],[21.987199482132766,65.49985561025261],[21.987438708512812,65.5007461645621],[21.989631637426363,65.50082493797788],[21.99015638314346,65.50116128643583],[21.995589867646512,65.50036852462878],[21.995494065531688,65.50001230917037],[21.997210042864634,65.49993275165194],[21.997114220601883,65.49957653740931],[21.997972193429174,65.4995367520407],[21.99987746908903,65.4985467371517],[22.000543677954468,65.49779451314343],[22.00016026238981,65.49636966540739],[22.001018124381748,65.49632986380499],[22.00173218001427,65.49575574104908],[22.003018937369916,65.49569602377831],[22.004923745400074,65.49470594968682],[22.00792602803614,65.49456653040082],[22.00863988366821,65.49399237690801],[22.013546404375923,65.49286270648084],[22.013834462187155,65.49393131222307],[22.013024708880394,65.49414928678588],[22.01283585354951,65.49505972831837],[22.01536120753168,65.49476199482235],[22.015316508256408,65.49620673942516],[22.012269218889738,65.49779105208326],[22.012365239735622,65.49814725483147],[22.011078387537935,65.49820705255718],[22.01012449039638,65.49789070727294],[22.00240331842075,65.49824921544186],[22.00116436893253,65.4984870343155],[22.0013081789517,65.49902135108502],[22.000498161531418,65.4992392610374],[22.000737834138338,65.50012979005687],[22.00502772689617,65.49993071143832],[22.00555264962611,65.50026700477551],[22.00769759412787,65.50016741239205],[22.00822255571509,65.50050369608866],[22.010940515016305,65.50091844165715],[22.012227501071795,65.50085864383284],[22.012131470072337,65.50050244110749],[22.012656494979055,65.50083870880401],[22.018995193771598,65.50018334064403],[22.020566882002957,65.49956922267984],[22.022711700077124,65.49946941849694],[22.023854305896464,65.49887523075547],[22.02371003606066,65.4983409398426],[22.024591032845755,65.49828580104716],[22.021561586218272,65.49842693187817]],[[21.977043720927085,65.49599772565847],[21.978759502511835,65.49591837939764],[21.97942735588341,65.49678910983945],[21.976758997664927,65.49817477233816],[21.974185087851165,65.49829375261235],[21.973994088167004,65.49758128879483],[21.977043720927085,65.49599772565847]],[[21.97694448460898,65.48915002266733],[21.975324618791845,65.4895855756027],[21.974419197076358,65.48944711373831],[21.97503819224524,65.48851688110703],[21.977563382700488,65.48821978061117],[21.97694448460898,65.48915002266733]]],[[[22.155037416196244,65.5206280590193],[22.155333499550547,65.5204735433556],[22.154999244584566,65.5204893857678],[22.155037416196244,65.5206280590193]]],[[[22.06401091766464,65.50439473102784],[22.063581912873342,65.50441481186857],[22.06363028728159,65.50459289340269],[22.06401091766464,65.50439473102784]]],[[[21.992830160147538,65.50464396625767],[21.992782268071615,65.50446585758819],[21.992353196345537,65.50448573696312],[21.992830160147538,65.50464396625767]]],[[[21.994117379642216,65.50458432037931],[21.995308774659808,65.50416844820171],[21.994688094324847,65.5034759029483],[21.99540247804011,65.50290180703826],[21.993734194093374,65.50315945430997],[21.993544615852098,65.5040698784525],[21.992782268071615,65.50446585758819],[21.994117379642216,65.50458432037931]]]]}},{"type":"Feature","properties":{"cyano_daymap_file_id":4010,"date":"2017-06-30Z","cloud":null,"sub_surfac":null,"surface":null,"no_data":null,"class":1,"color_hex":null,"algae_class":"class_1","source_date":"2017-06-30"},"geometry":{"type":"MultiPolygon","coordinates":[[[[22.73862562,65.50844987],[22.73597761,65.49955937999998],[22.714563019999996,65.50065686],[22.71325495791583,65.49624800676465],[22.712059076489876,65.49682736730813],[22.71264581198323,65.49733890770939],[22.71184174322664,65.49756056922543],[22.711736202484676,65.49720492797447],[22.71045094583246,65.49727067974203],[22.70905377078655,65.4984252628502],[22.710391851731828,65.498537343529],[22.710714760723043,65.49815978536498],[22.711624398966258,65.49829377095064],[22.711248731927288,65.49849351012338],[22.711835491198144,65.49900505343221],[22.71306804608117,65.49876146899564],[22.713654846986024,65.49927300480519],[22.713543120082797,65.50036184842399],[22.71182924332853,65.50044953761726],[22.71193480116021,65.50080517863682],[22.710431968217375,65.50160413455441],[22.70957498439851,65.501647964411],[22.708072030640018,65.50244689812489],[22.706786505107043,65.50251262153024],[22.70651623653558,65.5030679951576],[22.704479100921382,65.50353315384146],[22.701907914050217,65.50366452999833],[22.701742968041845,65.5045755455082],[22.700081475701182,65.50484092961219],[22.699006615754396,65.5056178899284],[22.69814947719518,65.50566165659863],[22.69825487429279,65.50601730886282],[22.69659325304904,65.5062826559618],[22.694740849185173,65.50713406679044],[22.69578014,65.51064272],[22.73862562,65.50844987]],[[22.712915897265315,65.49678352506872],[22.712968674236116,65.49696134522142],[22.712540261384635,65.49698326712398],[22.712915897265315,65.49678352506872]]],[[[22.70928726,65.48287479],[22.711886399753855,65.48274160660205],[22.711693552933056,65.48240444209588],[22.714321507909883,65.48100625872024],[22.71678486452169,65.48051905768219],[22.71710747288338,65.48014148907458],[22.71801650761133,65.48027544246375],[22.718339095186344,65.4798978714437],[22.719570694011946,65.47965424401389],[22.71898424319018,65.47914272762527],[22.718990161284893,65.47769824693134],[22.717389322382868,65.47669713805897],[22.717711878013304,65.47631956872826],[22.716427665316164,65.47638536039238],[22.715788607641336,65.47569601092398],[22.71503796273211,65.47609550173665],[22.714076355470855,65.47578370857396],[22.712574984453827,65.47658267029374],[22.710434578483316,65.4766922447161],[22.710704523971113,65.47613686761227],[22.708992222377788,65.47622450812148],[22.709203027991727,65.47693579711256],[22.710111912306978,65.47706979965696],[22.710217332863422,65.47742544322419],[22.711929708078607,65.4773377880483],[22.710052788035433,65.4783364633584],[22.70919656553699,65.47838028309633],[22.70930198003225,65.47873592737099],[22.71021092810065,65.47886992865453],[22.709407397691464,65.47909157154028],[22.707859528359503,65.47826818094669],[22.708129543220128,65.47771280771164],[22.706206389781077,65.47708912661605],[22.70599566412286,65.47637783260366],[22.704335996521518,65.47664324433332],[22.70417799247335,65.47610977147527],[22.70321651028753,65.47579790783993],[22.70380934402076,65.47486500055211],[22.702953222469052,65.47490878382806],[22.702367205863034,65.47439719839754],[22.703165418536546,65.47415790522795],[22.685257199999995,65.47507677999998],[22.68263139,65.46618514],[22.704019409999994,65.46509245999998],[22.701388449999996,65.4562012],[22.68000756,65.45729342],[22.674765789999995,65.43950979999998],[22.610654099999998,65.44276577],[22.60805751,65.43387253],[22.543949659999996,65.4371001],[22.54910204,65.45488915],[22.59187105,65.45273869],[22.5944644,65.46163224000001],[22.573073730000004,65.46270942],[22.577056243902078,65.47637932273324],[22.578852483628577,65.47542731883259],[22.579708552017177,65.47538425262397],[22.578735326099512,65.4765161099971],[22.57755477892691,65.47693645397007],[22.57765839705523,65.47729220801013],[22.579098052291883,65.47776124534481],[22.579954196543405,65.47771817696182],[22.58010967944361,65.47825180495416],[22.578228352370697,65.47924885339981],[22.578435632184622,65.47996036004595],[22.5796681276067,65.47971788406973],[22.579771787778153,65.48007363623215],[22.578642924445887,65.48067186628232],[22.579278361178297,65.48136183860949],[22.578610869910968,65.48171554674914],[22.583438050000005,65.49828475],[22.626274600000006,65.49612385000002],[22.62105995,65.47833808],[22.66386008,65.4761669],[22.668273171276297,65.49113522508333],[22.673383304958968,65.49103923922075],[22.674615865735355,65.49079596846407],[22.674939208295864,65.49041848232946],[22.677028400137722,65.4901315621518],[22.677569954148513,65.4890209095585],[22.67950141482531,65.48820045144056],[22.679396359457098,65.48784478261595],[22.680523644179345,65.48724579706412],[22.681380214806566,65.48720213628728],[22.682507426175526,65.48660313669752],[22.682402337685204,65.48624747031461],[22.683363971756567,65.4865594649316],[22.68358203523489,65.48582629651479],[22.686099012477865,65.48551741765195],[22.68642212649564,65.48513990934354],[22.687278616266997,65.48509621595952],[22.687173470221985,65.48474055350263],[22.688029945401794,65.4846968560101],[22.688135102879194,65.48505251775126],[22.68941982687332,65.48498696139345],[22.68969029729624,65.48443161635853],[22.690494163367976,65.4842100748893],[22.690336386365324,65.48367658514474],[22.692853070869294,65.48336759678345],[22.692793112189907,65.48463426248524],[22.69413042067999,65.48474649521704],[22.693807423774725,65.48512401879049],[22.692950946273374,65.48516774907189],[22.693484417806506,65.4855015417692],[22.69177143361638,65.48558899411613],[22.6911253424352,65.48634403150523],[22.69026881957128,65.48638774705013],[22.685865575008222,65.48913958535768],[22.685008949977213,65.4891832721398],[22.68313015348661,65.49018163241222],[22.683663607848814,65.49051545999131],[22.682806933308733,65.49055913480179],[22.682536259845456,65.49111446965536],[22.68173211426491,65.4913359716918],[22.682528363842522,65.49255896954675],[22.681619066548404,65.49242480525398],[22.681243246995948,65.49262447137787],[22.681776729474254,65.49295830533543],[22.680919971099996,65.49300197031869],[22.680325939686945,65.49393480033093],[22.679093288369245,65.49417811862837],[22.678980125149746,65.49526695144638],[22.676995606943215,65.49590957319538],[22.67522935603968,65.49581901033679],[22.67495847246241,65.49637433382226],[22.674101588401857,65.49641796144428],[22.675002693723325,65.49799667363358],[22.674469189548144,65.497662815965],[22.67280783799467,65.49792789870128],[22.673454731359342,65.49717293126615],[22.672492812875387,65.4968608764874],[22.66992208848065,65.49699170357093],[22.66977322955546,65.49501368241152],[22.667740694025735,65.49402012303308],[22.647689940000003,65.49503888],[22.65030736,65.50393122],[22.671254852830167,65.50286681591008],[22.672354065850165,65.50228322246465],[22.67321114570635,65.50223960271599],[22.67488105684481,65.50053000902312],[22.67691851313532,65.50006524607342],[22.676332406013913,65.49955356044019],[22.677941277273096,65.49911060350527],[22.67858804789859,65.49835561536173],[22.681534752358466,65.49802497322855],[22.68142962163698,65.49766930657033],[22.682286531931247,65.4976256371126],[22.683361582252417,65.49684879382214],[22.684970165349903,65.49640576505462],[22.688397593326528,65.49623097996523],[22.688292377964245,65.4958753189719],[22.68979558307836,65.49507657946226],[22.6906523915136,65.49503286361858],[22.69124607358816,65.49409999664299],[22.692155475873196,65.49423410189299],[22.69199759190554,65.49370061494787],[22.693282729071544,65.49363502141541],[22.695161369989837,65.49263653646254],[22.695747678539618,65.49314814690472],[22.694567859118905,65.4935694170244],[22.694350053967767,65.49430259865306],[22.697138097853262,65.49343817566738],[22.69767179775525,65.49377195121677],[22.69611625464987,65.49439293849079],[22.69584583130115,65.49494829459455],[22.69970137040062,65.49475138165127],[22.70034740460297,65.49399630811271],[22.701520310717836,65.4950194834602],[22.702377093583006,65.49497570138718],[22.703609553261877,65.49473219511749],[22.703932517566695,65.49435465088823],[22.704841989443437,65.49448867903925],[22.70420276236414,65.49379928218042],[22.70505949982164,65.49375548536902],[22.70516493293541,65.49411113239356],[22.70650277666283,65.49422324998632],[22.707517724237753,65.49471290760299],[22.70965962000188,65.49460335891774],[22.71046361832143,65.4943817097583],[22.710358111822384,65.49402606719877],[22.712071573507185,65.49393839903755],[22.712652918679098,65.49421881971854],[22.70928726,65.48287479]],[[22.712246057270697,65.4784047138114],[22.712028851382595,65.47913791452278],[22.710052788035433,65.4783364633584],[22.712246057270697,65.4784047138114]],[[22.672912852676397,65.49828357256334],[22.67237936873215,65.49794970730434],[22.67280783799467,65.49792789870128],[22.672912852676397,65.49828357256334]],[[22.718714447663093,65.47969811797465],[22.71828632329977,65.4797200531467],[22.718233552205138,65.4795422348233],[22.718714447663093,65.47969811797465]],[[22.712447170586906,65.49373865855961],[22.71201881000734,65.49376057843637],[22.711966047299757,65.49358275780881],[22.712447170586906,65.49373865855961]],[[22.71127805191259,65.47953738827518],[22.710849922650326,65.47955930241395],[22.710797202483565,65.47938148095972],[22.71127805191259,65.47953738827518]],[[22.71069176452358,65.47902583797229],[22.710744483107995,65.47920365947918],[22.710316358766228,65.47922557205352],[22.71069176452358,65.47902583797229]],[[22.70919010721689,65.47982476905837],[22.709618242502305,65.47980285956265],[22.709670955682693,65.47998068150235],[22.70919010721689,65.47982476905837]],[[22.709670955682693,65.47998068150235],[22.710151809860523,65.48013659235556],[22.709723669654203,65.48015850341574],[22.709670955682693,65.47998068150235]],[[22.70913739768384,65.47964694691295],[22.708709264463057,65.47966885502365],[22.708656558577268,65.47949103267246],[22.70913739768384,65.47964694691295]],[[22.70350413827817,65.49437654681591],[22.70339872646022,65.49402089840902],[22.70382710002896,65.49399900284006],[22.70350413827817,65.49437654681591]],[[22.702970352099506,65.49404279277154],[22.702166297935733,65.49426440263184],[22.70195551494929,65.49355310345535],[22.702970352099506,65.49404279277154]],[[22.70126370016047,65.4926858682012],[22.701692054018864,65.49266397889257],[22.701744744622584,65.49284180385776],[22.70126370016047,65.4926858682012]],[[22.701744744622584,65.49284180385776],[22.702278489849114,65.49317556265623],[22.701850128203542,65.49319745370921],[22.701744744622584,65.49284180385776]],[[22.699427106259282,65.48501748049877],[22.700388891175855,65.48532936512886],[22.700546885236715,65.48586284210616],[22.69862329448398,65.48523906894928],[22.696910348242973,65.48532657918555],[22.699427106259282,65.48501748049877]],[[22.699925955461087,65.49257370318006],[22.698640890590717,65.49263935247217],[22.698535553372817,65.49228369990045],[22.699925955461087,65.49257370318006]],[[22.69920250637547,65.48719515821698],[22.698774239562265,65.48721703955619],[22.698721582841745,65.4870392132114],[22.69920250637547,65.48719515821698]],[[22.69623583435504,65.49185960772401],[22.69752086820195,65.49179397921606],[22.697573528324124,65.49197180595239],[22.69623583435504,65.49185960772401]],[[22.697573528324124,65.49197180595239],[22.69805453798921,65.49212775372199],[22.697626189237003,65.49214963266246],[22.697573528324124,65.49197180595239]],[[22.69788950566229,65.49303876581833],[22.69703277718708,65.49308252187222],[22.69698011804006,65.49290469493523],[22.69788950566229,65.49303876581833]],[[22.694950793387896,65.49192522537456],[22.695003436352692,65.49210305318594],[22.69457508492194,65.49212492350249],[22.694950793387896,65.49192522537456]],[[22.695003436352692,65.49210305318594],[22.696341138232736,65.49221526224558],[22.695108724653664,65.49245870872998],[22.695003436352692,65.49210305318594]],[[22.695807488157072,65.49188148148056],[22.69575484026358,65.49170365400117],[22.69618318360202,65.49168178042379],[22.695807488157072,65.49188148148056]],[[22.69511592390257,65.49101421547515],[22.69468759041986,65.4910360859232],[22.694634952197347,65.49085825795412],[22.69511592390257,65.49101421547515]],[[22.69501064252918,65.49065855986898],[22.694153986210196,65.49070229884217],[22.694101352427587,65.4905244706414],[22.69501064252918,65.49065855986898]],[[22.694417166977516,65.49159143945192],[22.694845509829534,65.49156956967283],[22.69489815121351,65.49174739753681],[22.694417166977516,65.49159143945192]],[[22.691847093257223,65.49172263279253],[22.692703787660513,65.49167890650455],[22.69275641474663,65.49185673526414],[22.691847093257223,65.49172263279253]],[[22.69275641474663,65.49185673526414],[22.694522444816766,65.49194709551193],[22.692809042622944,65.49203456399748],[22.69275641474663,65.49185673526414]],[[22.694333645888467,65.48690230212408],[22.693905378951012,65.48692416965862],[22.693852756043174,65.48674634126439],[22.694333645888467,65.48690230212408]],[[22.693912661878052,65.48547967566736],[22.693965282114544,65.48565750406642],[22.69353703518492,65.48567937034734],[22.693912661878052,65.48547967566736]],[[22.691944965496827,65.49352278591361],[22.691516587719875,65.49354464783235],[22.691463964961454,65.49336681859275],[22.691944965496827,65.49352278591361]],[[22.69136612715239,65.49156666480378],[22.69093778083367,65.49158852475269],[22.69088516676618,65.49141069522427],[22.69136612715239,65.49156666480378]],[[22.688459763664195,65.46409638434221],[22.687063290640985,65.46525075631112],[22.685832044015044,65.46549411485923],[22.684721508826,65.46320413065075],[22.686057683419097,65.46331644667835],[22.685524775841543,65.4629826219334],[22.68638054264323,65.46293894120049],[22.688459763664195,65.46409638434221]],[[22.68810470966971,65.49083050583629],[22.687676372115895,65.49085235644536],[22.6876237820143,65.49067452553261],[22.68810470966971,65.49083050583629]],[[22.682956734545144,65.49253713319001],[22.68306186111234,65.49289279881157],[22.68263348468947,65.49291463552605],[22.682956734545144,65.49253713319001]],[[22.675107738599202,65.49835234565616],[22.674679264698124,65.49837416082971],[22.67462674472745,65.49819632465278],[22.675107738599202,65.49835234565616]],[[22.67259781809431,65.49721655066332],[22.67216936027809,65.49723835855166],[22.672116860135844,65.49706052129811],[22.67259781809431,65.49721655066332]],[[22.671627425351126,65.49834899582386],[22.67248437769047,65.49830538152374],[22.67253688335251,65.4984832185942],[22.671732426016572,65.49870467065335],[22.671627425351126,65.49834899582386]],[[22.63367038949995,65.47572801705965],[22.63319006089797,65.47557185731056],[22.63361820311369,65.47555016323795],[22.63367038949995,65.47572801705965]],[[22.633461648654052,65.47501660161734],[22.6326053805825,65.47505998749088],[22.633148560879366,65.47394947767638],[22.629567142180353,65.47358941712291],[22.629578027845852,65.472144889684],[22.627061606326738,65.47245282072785],[22.627281162568735,65.47171971846169],[22.629160850181346,65.47072204408869],[22.631572759864984,65.47005837047934],[22.63328496979923,65.46997160897808],[22.634788446601405,65.46917341440164],[22.636500585771884,65.46908661716459],[22.637951715048537,65.46811053993025],[22.640519795817536,65.4679802843097],[22.641490500454807,65.46684803611657],[22.6427222451238,65.46660503414215],[22.64497670310872,65.46540760360249],[22.65262764886478,65.46483851149866],[22.65336936320843,65.46588383981182],[22.651490956463398,65.46688180218051],[22.65083439848051,65.46908119149128],[22.65152387779823,65.46994868153936],[22.65077239016671,65.4703478614178],[22.65091955639339,65.47232591837782],[22.650105954374684,65.47399176604999],[22.649249753207286,65.47403524561858],[22.64935433190681,65.47439094028513],[22.64764189729649,65.47447788637768],[22.64657658957796,65.47380995848137],[22.64385121862745,65.47340677395327],[22.64326638273226,65.47289494704755],[22.641501788233125,65.47280397272307],[22.638714004072682,65.4736673657888],[22.63693889648148,65.47502086236727],[22.63361820311369,65.47555016323795],[22.633461648654052,65.47501660161734]],[[22.642481517122707,65.46282674036193],[22.64193893888505,65.46393727739039],[22.64043597697062,65.46473553779475],[22.639580059096023,65.46477895957976],[22.639099901682396,65.46462281686635],[22.639214674452525,65.46353399769255],[22.642481517122707,65.46282674036193]],[[22.63320498185648,65.45192588179343],[22.63448824676303,65.45186080789178],[22.634216892153486,65.45241606291023],[22.632933599234953,65.45248113479555],[22.63320498185648,65.45192588179343]],[[22.630857749387527,65.45132289218894],[22.63128549764266,65.45130120882557],[22.631337609817507,65.4514790641909],[22.630857749387527,65.45132289218894]],[[22.59958353535473,65.45272438195826],[22.599259687387868,65.45310170528077],[22.597549081657966,65.45318803869564],[22.596369878193368,65.453608515797],[22.594179697703343,65.4535385184707],[22.594296164817223,65.45244972263272],[22.596654499943877,65.45160879237743],[22.5968746127733,65.45087573514489],[22.59853318204168,65.45061154193648],[22.600671222090483,65.45050361044447],[22.601254545964924,65.45101562421],[22.602537383980508,65.45095084566746],[22.602317430060314,65.45168390951243],[22.60327652094192,65.45199645282787],[22.60242126371793,65.45203964425492],[22.602525100489718,65.45239537889454],[22.606853360557643,65.4523572355828],[22.607177089264756,65.45197989720286],[22.60467543176957,65.45084285735345],[22.604467717825973,65.45013139138959],[22.606605689128372,65.45002337651597],[22.607564767525027,65.45033589269875],[22.61007836708967,65.45002835435479],[22.61044213955943,65.45127340325081],[22.61750474354557,65.45019422292496],[22.61782845142243,65.44981685550981],[22.618516296471732,65.45068451302998],[22.62012322397205,65.45024219219005],[22.622261922883087,65.45013391585282],[22.622897868874613,65.45082369268583],[22.620643597663108,65.45202079133261],[22.620747681765167,65.45237651085127],[22.624973331312336,65.45198204882179],[22.62695589703237,65.45134013108894],[22.6309098587108,65.4515007477317],[22.62817603759718,65.45254178232366],[22.62763303535879,65.45365227221689],[22.625326669254793,65.45467158402609],[22.626066985487395,65.45571706084687],[22.62702682122186,65.45602943261392],[22.627339400719347,65.45709657437388],[22.626587894258215,65.45749563399397],[22.62642050956386,65.45840659163073],[22.623789959201222,65.45980327081205],[22.62207837607882,65.45988991811804],[22.620199167579436,65.4608874992597],[22.61997948469765,65.46162059247705],[22.61762008132948,65.46246193685094],[22.617724174522976,65.46281765838751],[22.616596761189076,65.4634161633821],[22.61536538758631,65.46365892907643],[22.614018329305768,65.46499048780117],[22.6110235049313,65.46514186445275],[22.608468400837133,65.46382703884203],[22.606329311832663,65.46393509169413],[22.605629575140668,65.46451190168165],[22.60461802659408,65.46402151229447],[22.604046500060857,65.46206498306773],[22.603190915553316,65.4621081822507],[22.602659235470572,65.46177404605342],[22.602827305902938,65.46086311410053],[22.605290014519337,65.46037777765775],[22.60816843571527,65.46131532077295],[22.60934778426165,65.46089474994828],[22.614428913246325,65.46045741426195],[22.61593180971433,65.45965943921634],[22.61508789583757,65.45825817783361],[22.613648711089763,65.45778947886524],[22.609371551439903,65.45800569053634],[22.609047785240328,65.45838303402842],[22.607764602685492,65.45844787149738],[22.60766066574808,65.45809214148822],[22.604238856952893,65.45826498559077],[22.604134968777824,65.45790925264932],[22.60242406850281,65.45799564438526],[22.602320206266533,65.45763990992673],[22.60023350839028,65.45792573886033],[22.60136091515705,65.45732736259404],[22.601529011632035,65.45641643184425],[22.59987010949131,65.45668066144002],[22.599234773429366,65.45599077484486],[22.60138558632559,65.45443829516944],[22.600750268708147,65.45374841477393],[22.601553669377346,65.4535273645484],[22.60134601448226,65.45281589366314],[22.59958353535473,65.45272438195826]],[[22.620049294646364,65.46630990917689],[22.621281224266813,65.4660670802566],[22.62160506012363,65.46568970336781],[22.624120904259364,65.4653818692788],[22.62604127810325,65.46600662421496],[22.62582172535332,65.46673972461045],[22.626353961402636,65.46707376701829],[22.625278363360675,65.4678502098829],[22.622762297855765,65.46815806556313],[22.622062502395032,65.46873496517291],[22.621206416977515,65.46877828450634],[22.619557764600582,65.46759823602159],[22.620049294646364,65.46630990917689]],[[22.623469246229828,65.47353714336644],[22.624325482771408,65.47349380963232],[22.624377601055834,65.47367166736714],[22.623469246229828,65.47353714336644]],[[22.622665113413607,65.47375833072165],[22.623521358800023,65.47371500145609],[22.623573472152287,65.47389285951988],[22.622665113413607,65.47375833072165]],[[22.619437643078747,65.47608753893078],[22.615950039183844,65.47752733840974],[22.6082973499982,65.47809447402798],[22.606753151191274,65.47726999069985],[22.60784112271699,65.47504916420519],[22.609721002819423,65.47405176192159],[22.61400078103923,65.47383551316695],[22.613896685494428,65.4734797890596],[22.61518058659251,65.47341489199788],[22.617540083157298,65.472573623193],[22.618500133221662,65.47288605983447],[22.621016067892604,65.4725783021975],[22.620524486253323,65.47386663278294],[22.622717221051495,65.4739361891402],[22.622393306234454,65.47431356925594],[22.6211089042226,65.474378552089],[22.619437643078747,65.47608753893078]],[[22.608316052151586,65.44993694294968],[22.607888462564162,65.44995855314683],[22.60783651321815,65.44978068800579],[22.608316052151586,65.44993694294968]],[[22.603502611359488,65.46317538251859],[22.60307480081293,65.4631969813642],[22.603022852417638,65.46301911454043],[22.603502611359488,65.46317538251859]],[[22.599297083856378,65.44876810076425],[22.59881761903132,65.44861181638954],[22.59924519568084,65.44859023203401],[22.599297083856378,65.44876810076425]],[[22.599633336765244,65.44694624316242],[22.60177107229087,65.44683829924122],[22.602406237636405,65.44752817688563],[22.600100346645846,65.44854705971177],[22.59924519568084,65.44859023203401],[22.599633336765244,65.44694624316242]],[[22.601870683881845,65.4665065718635],[22.60229854970668,65.4664849758584],[22.602350501492587,65.46666284290046],[22.601870683881845,65.4665065718635]],[[22.59956313936293,65.46752546373546],[22.598175628433108,65.46723448804936],[22.601170781895057,65.46708336289967],[22.6019226328128,65.46668443908234],[22.601002626480984,65.46799429392385],[22.59966701153635,65.46788120001146],[22.59956313936293,65.46752546373546]],[[22.60106689311493,65.46672762783201],[22.601014949893926,65.4665497602596],[22.601442817277576,65.4665281666639],[22.60106689311493,65.46672762783201]],[[22.600809811208684,65.47179429225687],[22.600381857114925,65.47181588495533],[22.600329906346325,65.47163801721929],[22.600809811208684,65.47179429225687]],[[22.600008996479296,65.446746788328],[22.599581450668406,65.44676837452842],[22.599529565349485,65.4465905058687],[22.600008996479296,65.446746788328]],[[22.588243455772563,65.46593034089014],[22.589047335051333,65.46570935229367],[22.589202917099936,65.46624296985837],[22.588243455772563,65.46593034089014]],[[22.583328180557245,65.47141193734976],[22.58461207163704,65.47134730033791],[22.582303420878976,65.47236593979343],[22.581771787031762,65.47203172953353],[22.583328180557245,65.47141193734976]],[[22.581927266169618,65.47256535567554],[22.580746946838406,65.4729857222463],[22.580643307332743,65.47262997055485],[22.581927266169618,65.47256535567554]],[[22.579255722243506,65.47233882173566],[22.57882773779023,65.47236035365023],[22.57877593218699,65.47218247700953],[22.579255722243506,65.47233882173566]],[[22.577322976677294,65.47315797838428],[22.576466976362134,65.47320103036658],[22.57641518479178,65.4730231527706],[22.577322976677294,65.47315797838428]]],[[[22.7333316,65.49066883],[22.73583071427527,65.49054003477838],[22.735317845636818,65.49021966831127],[22.736501753245935,65.48835361771387],[22.734630045254928,65.48790812451197],[22.732701082299567,65.48854870576668],[22.7333316,65.49066883]]],[[[22.797542010000004,65.48735966],[22.792213120000003,65.46958106],[22.760322468996247,65.47122516395025],[22.76100313820573,65.47138713792333],[22.76110561757178,65.47318719644484],[22.75987472903665,65.47343115511126],[22.75939001857104,65.47471986288875],[22.757890122249236,65.47551925950695],[22.756231071881842,65.4757852351111],[22.755003948026665,65.47458469485449],[22.756022879849475,65.47362956488222],[22.755156604439453,65.4714902256373],[22.73928325032275,65.47230469105244],[22.740619574073964,65.47297775895393],[22.740667749387786,65.47460003693101],[22.73997043086329,65.47517745629969],[22.740879400043482,65.4753112727252],[22.740715936834523,65.47622231479576],[22.739268280987844,65.47719934242683],[22.736752784429815,65.47750909173794],[22.736166051560005,65.47699764507297],[22.735309925789206,65.4770416118713],[22.735151287449266,65.47650817814096],[22.73702710036777,65.47550920255755],[22.735314946529076,65.47559714003701],[22.734670356932238,65.47635234771592],[22.733439060637508,65.47659609511479],[22.7331695974667,65.47715150777442],[22.73231346058035,65.47719545769853],[22.732952989795212,65.47788473226055],[22.73600241644967,65.47790868386224],[22.737392437993385,65.47819834619054],[22.736694954706905,65.47877575218547],[22.736959436044284,65.47966480474781],[22.739580967037693,65.47971066857616],[22.739792638104916,65.48042190572157],[22.73802726649589,65.48033206786053],[22.737916591335967,65.48142091817692],[22.73663218971723,65.48148688368296],[22.736362750697477,65.48204230181824],[22.73518409830161,65.48246387678832],[22.735342780946688,65.4829973100552],[22.7370025125232,65.48273155682176],[22.737050517853696,65.48435383792024],[22.738387978250188,65.48446567713208],[22.740798249215324,65.4838002763663],[22.740904119698424,65.48415589377176],[22.740047769297593,65.48419988979998],[22.740528878472368,65.48435570123175],[22.74057711225303,65.48597797883808],[22.741486464166755,65.48611178760463],[22.741698249631412,65.48682302092952],[22.74073124489255,65.48795587370398],[22.743353612985903,65.48800166324966],[22.744311536702128,65.48975772823304],[22.743593613932287,65.49013996328439],[22.797542010000004,65.48735966]],[[22.788918144895295,65.4746399998396],[22.78806220369119,65.47468426380134],[22.788008970834444,65.4745064748457],[22.78881166856915,65.4742844226261],[22.788918144895295,65.4746399998396]],[[22.74569802278196,65.47398037355141],[22.74612602544594,65.47395836194153],[22.74617897243312,65.47413616864127],[22.74569802278196,65.47398037355141]],[[22.74741002866802,65.47389231988163],[22.748107147839132,65.4733148682611],[22.749444080885002,65.47342661508556],[22.749602987953768,65.47396003093903],[22.751742971808344,65.47384990571169],[22.75200790416267,65.47473892709519],[22.75355692277448,65.47556185280729],[22.751946715164287,65.47745004817638],[22.752961825218158,65.47793939857162],[22.75601125186062,65.4779629460582],[22.756117300548954,65.47831855088923],[22.755314191946766,65.47854043358254],[22.75637859367403,65.48065202262265],[22.75573450346559,65.48140731498458],[22.755620692656237,65.48394063097795],[22.75427925088453,65.48527340600073],[22.75304773152444,65.48551731568062],[22.751657149834635,65.48522780335304],[22.75182026738628,65.48431675298832],[22.751180076340905,65.48362756527918],[22.749039289836062,65.48373769098079],[22.748077002066502,65.48342612154445],[22.74390132105334,65.48400186969519],[22.74401175047809,65.48291301754652],[22.742299140491745,65.48300103903635],[22.742087376072323,65.48228980636478],[22.74546397305226,65.48049147690627],[22.74471814589277,65.47944664518323],[22.745468420521924,65.4790470107213],[22.745309560407307,65.47851358999043],[22.74611275652885,65.47829175959409],[22.745578776083686,65.47795815826711],[22.743385486954686,65.47789039221766],[22.74322667778283,65.47735696876714],[22.744029857277898,65.47713514962892],[22.74392397863809,65.47677953453007],[22.743120808973067,65.47700135300073],[22.742962011715335,65.4764679291521],[22.743606361781897,65.47571268859643],[22.745265544713202,65.47544685033469],[22.74537143506754,65.47580246436387],[22.746655531066665,65.4757364277438],[22.746496671038678,65.47520300828198],[22.745693571799436,65.47542483969352],[22.7454817892065,65.47471361203729],[22.746284868790628,65.47449178196105],[22.74617897243312,65.47413616864127],[22.74741002866802,65.47389231988163]],[[22.742082751714868,65.48373427436252],[22.741654585010163,65.48375627623606],[22.74154870627973,65.483400659445],[22.742082751714868,65.48373427436252]],[[22.7407453151655,65.48362246762373],[22.741173480604132,65.48360046834158],[22.7412264175103,65.48377827690399],[22.7407453151655,65.48362246762373]],[[22.74038424996992,65.47948886773877],[22.739956151010386,65.47951086408384],[22.739903233167553,65.47933305488475],[22.74038424996992,65.47948886773877]]],[[[22.728846323384317,65.4728402121509],[22.726278638482626,65.47443620361155],[22.72638426590244,65.47479183370038],[22.72761554747122,65.47454814399659],[22.727721193603305,65.47490377295397],[22.726595530251444,65.47550309356072],[22.729216635298073,65.47554914179561],[22.729967043591483,65.47514958298451],[22.72959718499605,65.47390488783398],[22.73200672944069,65.47323963509147],[22.731473033659345,65.47290598091423],[22.732127456734617,65.47267185645134],[22.728846323384317,65.4728402121509]]],[[[22.740148907293047,65.485999976845],[22.740201843101687,65.48617778578303],[22.740630050918597,65.48615578759598],[22.740148907293047,65.485999976845]]],[[[22.69718368310969,65.49506049463263],[22.69723634888604,65.49523832143335],[22.69766474863149,65.49521644306552],[22.69718368310969,65.49506049463263]]],[[[22.696815044818216,65.49381570629144],[22.69595828871587,65.49385945654015],[22.696010943236537,65.49403728388334],[22.696815044818216,65.49381570629144]]],[[[22.69648486950459,65.49563772878875],[22.695628053032163,65.49568147779527],[22.695680709739314,65.49585930523395],[22.69648486950459,65.49563772878875]]],[[[22.694613285179965,65.49519173842661],[22.69493638623589,65.49481421200511],[22.693598555603124,65.49470199184516],[22.692952307908104,65.49545703875022],[22.694613285179965,65.49519173842661]]],[[[22.69392166584486,65.49432446749996],[22.693974307645973,65.49450229568637],[22.69440269862909,65.49448042666032],[22.69392166584486,65.49432446749996]]],[[[22.690862881412354,65.49574418162297],[22.690968131103265,65.49609984046764],[22.69300494587097,65.49563486731641],[22.692471265146953,65.49530107507407],[22.690862881412354,65.49574418162297]]],[[[22.601773657225323,65.45279430145644],[22.60172174259618,65.45261643384754],[22.60129410270475,65.45263802587753],[22.601773657225323,65.45279430145644]]]]}},{"type":"Feature","properties":{"cyano_daymap_file_id":4010,"date":"2017-06-30Z","cloud":null,"sub_surfac":null,"surface":null,"no_data":null,"class":1,"color_hex":null,"algae_class":"class_1","source_date":"2017-06-30"},"geometry":{"type":"MultiPolygon","coordinates":[[[[22.30126116,65.42200446],[22.29304683137342,65.42240242002609],[22.291211912315912,65.42358794835633],[22.289979232536403,65.4238280701437],[22.290227896520612,65.42471804410478],[22.288667110256334,65.42533485332966],[22.288388781239632,65.42588954301695],[22.28921413568803,65.42729280059697],[22.290019457737795,65.42707339196299],[22.290218418292454,65.42778537080842],[22.291172989669693,65.42809993968784],[22.292674945338426,65.43037243362951],[22.293957676517905,65.43031028015733],[22.29428570226986,65.42993357398136],[22.30335906392712,65.42949357906127],[22.30126116,65.42200446]]],[[[22.27988855,65.4230399],[22.28118401974936,65.42768148753005],[22.281945996207504,65.4276446240993],[22.281189429432235,65.4277008700873],[22.28148209604999,65.42874947637402],[22.282244120629034,65.4287126113874],[22.282343501396255,65.42906860695854],[22.28533645062949,65.42892377113574],[22.285893284786315,65.42781440077296],[22.285167497928853,65.42676711687575],[22.28549560987398,65.42639042895458],[22.28607226068676,65.4269037223695],[22.286877598263796,65.42668433035745],[22.286529601481742,65.42543835765024],[22.28424298657773,65.42500784065724],[22.284948884742242,65.4244324652004],[22.283517349659398,65.42396054731029],[22.283368290834165,65.42342655495315],[22.2850284840776,65.42316579411579],[22.28563590037329,65.42276145780365],[22.27988855,65.4230399]],[[22.281995681748672,65.42782262204051],[22.282472917320916,65.42797993375564],[22.282045368034787,65.42800061995779],[22.281995681748672,65.42782262204051]],[[22.284541168279294,65.42607582284678],[22.284968683811375,65.42605512990582],[22.285018386222998,65.42623312668424],[22.284541168279294,65.42607582284678]],[[22.284163348706468,65.42627451170033],[22.28459086783729,65.42625381979452],[22.2846405681404,65.4264318167183],[22.284163348706468,65.42627451170033]],[[22.283785523426307,65.42647319966404],[22.28421304615589,65.42645250879342],[22.284262744350404,65.42663050586259],[22.283785523426307,65.42647319966404]],[[22.28270170235488,65.42724725589039],[22.28312923873489,65.4272265679562],[22.283178931348125,65.42740456543746],[22.28270170235488,65.42724725589039]],[[22.282323852135196,65.42744594043982],[22.28275139211416,65.42742525354093],[22.282801082618434,65.42760325116751],[22.282323852135196,65.42744594043982]]],[[[22.282372519999996,65.43193981],[22.238347528641206,65.43406007879493],[22.238054566038514,65.43499294308418],[22.23933767924683,65.4349312503605],[22.239206447391712,65.43601990428553],[22.23797268652301,65.43625961159175],[22.237742579839107,65.43699223450515],[22.23721603530475,65.43665676493248],[22.23593283161478,65.43671844050478],[22.23583404598485,65.43636240855609],[22.2349785845833,65.43640351890429],[22.234452087248822,65.43606803921726],[22.232790546414673,65.43632825649307],[22.232988037666125,65.43704032510134],[22.2313264201056,65.43730052700936],[22.230191236586236,65.43789620763192],[22.228809256382995,65.43760178681947],[22.22671979622415,65.43788247496002],[22.2269664737176,65.4387725724437],[22.225584481260842,65.43847812221574],[22.223017822804792,65.4386012670549],[22.22268865985997,65.43897782925856],[22.221833088210722,65.43901886615454],[22.221306702372694,65.43868333950299],[22.21929540228997,65.43890296408412],[22.225620869999997,65.46173251],[22.222451858526256,65.46188355663625],[22.221546173237158,65.4630239895406],[22.220261633036795,65.46308554498653],[22.220360328805064,65.46344158794544],[22.218318055098614,65.46390020244199],[22.21642368071117,65.46489285904899],[22.214661503983617,65.46479685019314],[22.213047244698814,65.46523489363628],[22.21281622758776,65.46596748730539],[22.210015699995044,65.46682303232927],[22.209307038622544,65.46739808377505],[22.208450512992282,65.46743905416082],[22.208351960977684,65.46708300202079],[22.207017917874463,65.46696642092905],[22.207116451216102,65.46732247412321],[22.205880918342093,65.46756193634351],[22.206506241563034,65.46825356635162],[22.205551164833256,65.46793846687694],[22.203887308126717,65.46819838853251],[22.202883024257567,65.46770524395808],[22.199506032158048,65.46804698120718],[22.19764528423272,65.46759471599287],[22.19736461315678,65.46814926011385],[22.19436659551989,65.46829239987316],[22.193229246008336,65.46888782344556],[22.193376778926442,65.46942191930628],[22.18566707511265,65.4697896741837],[22.18500691815924,65.47054265256584],[22.182633320653764,65.4713772846273],[22.18235229299149,65.47193180430554],[22.17635515693358,65.47221743898183],[22.17650236820465,65.47275155443961],[22.175645605480206,65.47279234107268],[22.175328348480775,65.47315398802576],[22.18525739,65.47268142000001],[22.187714859999993,65.48158313999997],[22.20913967,65.48056025],[22.206675030000003,65.47165895],[22.249504749999996,65.46960493999998],[22.25198372,65.47850539999999],[22.265170702595405,65.47787006902237],[22.269668816885478,65.47532221364568],[22.27347405975772,65.47495823993196],[22.27380290770117,65.4745815702395],[22.275466426480367,65.47432088174298],[22.278464595550215,65.4741761305459],[22.278992446203365,65.47451144305555],[22.28113399803078,65.47440800539583],[22.283982721489743,65.47372915391655],[22.284480806646133,65.47550911325443],[22.285815594461795,65.47562500255165],[22.28739955757018,65.47663085338066],[22.286841865512116,65.47774023757493],[22.2877686232902,65.47949947508219],[22.28587584316273,65.4804929866342],[22.28264783774664,65.4813705733052],[22.282368850925238,65.48192525826852],[22.280655123439757,65.48200802963949],[22.28042588893358,65.48274070866675],[22.27891126593441,65.48353545013134],[22.279060647784927,65.48406944352952],[22.27996738477249,65.48420606601752],[22.28291683533818,65.48388321832634],[22.284102560246023,65.4834651300156],[22.285308321015663,65.48466969425236],[22.284501208098646,65.48488909545506],[22.284071369363925,65.4859780929682],[22.297315499999996,65.48533804],[22.299812539999994,65.49423752999999],[22.33501764015807,65.49252836774644],[22.335195384866477,65.49217362009199],[22.336531228963192,65.49228905063012],[22.3368593622661,65.49191225094921],[22.33771644413978,65.49187054674034],[22.338372657156377,65.49111694205128],[22.338071381034823,65.49004909784892],[22.339306688974045,65.48980855675357],[22.340692655426302,65.49010192506921],[22.340793113703334,65.49045787113343],[22.341650140333304,65.49041614516295],[22.34232530310644,65.49093433589674],[22.34015893,65.48325818999999],[22.36157783,65.48221375],[22.36626795832271,65.49877799133303],[22.36831772089,65.49867786528549],[22.36804040213351,65.4992326913315],[22.366419129703118,65.49931188700825],[22.36736442379683,65.49997348675997],[22.36931821561165,65.49987777410573],[22.369427183704612,65.49952578789812],[22.370284452282583,65.49948389710184],[22.370381352272588,65.49982569300329],[22.4094776,65.49791044],[22.40440993,65.48011579],[22.382994830000005,65.48116628],[22.380471009999997,65.47226843],[22.33764943,65.47435949],[22.332636080000004,65.45656191],[22.358228466992365,65.45531237143659],[22.35845050235857,65.45459514803267],[22.35643733663488,65.45361095640268],[22.356613973615673,65.45270021833495],[22.35575820979474,65.45274201654614],[22.357268718052833,65.45194654622922],[22.35744531810801,65.45103580755571],[22.358628355252822,65.4506171614125],[22.358377070993907,65.4497273270935],[22.35460279331559,65.44864874831366],[22.354578573189094,65.44702613812223],[22.356139029429187,65.4464086503634],[22.3557874233685,65.44516287445941],[22.35392573904344,65.44471254540599],[22.35178696295289,65.44481698737997],[22.351129792672673,65.44522755662318],[22.351522499999998,65.44662028],[22.32234214940752,65.44805582646632],[22.323647963454277,65.44961604704962],[22.319491336993952,65.45180265565176],[22.316973889103274,65.45210538903812],[22.314656237931203,65.45312001856324],[22.313372449474194,65.45318235861625],[22.313044428750477,65.45355910620201],[22.310280972756267,65.45419518854202],[22.31123677,65.45760206000001],[22.294798847299866,65.45839747717551],[22.292792532734953,65.45869030924347],[22.291657876312495,65.45928644680859],[22.28662078915599,65.45989096474715],[22.28631786473748,65.4588078647481],[22.26843255,65.45967332],[22.2634696,65.44187294],[22.284858339999996,65.44083966999999],[22.28734604,65.44973946],[22.295382941057287,65.44935000856447],[22.29518755115268,65.44865203671692],[22.292928163984392,65.4467770083721],[22.292022673799913,65.44664045126942],[22.291923080978062,65.44628446422199],[22.28895783232764,65.44498478410013],[22.289136784414847,65.44407410237083],[22.28717676629687,65.4432669484826],[22.286977746267024,65.44255496626816],[22.285644651303798,65.442439070418],[22.286301219591437,65.44168568840912],[22.28839029344594,65.44140417905693],[22.28829077400732,65.4410481888739],[22.2891960505772,65.44118477049948],[22.287524461153705,65.43675559729498],[22.285187103257137,65.43614710907417],[22.279856131984953,65.43568337771842],[22.278851728732217,65.43519073972955],[22.275858020858976,65.43533545440803],[22.27837438018823,65.43503341768614],[22.27827502597208,65.43467741924627],[22.27646504313031,65.4344041138386],[22.27498344803333,65.43375411893645],[22.277927309682273,65.43343142395307],[22.277728631047463,65.43271942611631],[22.279011519829748,65.43265739818723],[22.28011519683528,65.43350603321537],[22.28182575592917,65.43342329941696],[22.2817263622336,65.43306730364093],[22.28263132807336,65.43320392775082],[22.281955204563744,65.43233462635536],[22.282909848750002,65.43264924680041],[22.283188358257934,65.43209456544548],[22.283715387995112,65.43242986967172],[22.284570627063783,65.43238848518757],[22.28412323257557,65.43078651303043],[22.28188817943882,65.43020444789666],[22.282372519999996,65.43193981]],[[22.27498344803333,65.43375411893645],[22.274506148783082,65.4335967841615],[22.27493379650187,65.4335761183528],[22.27498344803333,65.43375411893645]],[[22.274028855244207,65.43343944781938],[22.274456500851873,65.4334187833848],[22.274506148783082,65.4335967841615],[22.274028855244207,65.43343944781938]],[[22.379052055161207,65.48444045417534],[22.379858329172414,65.48422055645862],[22.383008436838665,65.48460759747458],[22.38106850292554,65.48542431106405],[22.381169488879586,65.48578022494071],[22.379455889082575,65.48586411577071],[22.378019263653627,65.48539314675638],[22.379203487194495,65.48497432745746],[22.379052055161207,65.48444045417534]],[[22.37018355057411,65.49912797511833],[22.369326293472408,65.49916986522769],[22.369275849493615,65.4989919038558],[22.37018355057411,65.49912797511833]],[[22.36960358413358,65.49861503710301],[22.368746342729313,65.49865692376599],[22.36869590389389,65.49847896214897],[22.36960358413358,65.49861503710301]],[[22.367636863442673,65.49474176253943],[22.367208304709923,65.49476270028205],[22.367157885416614,65.49458473795515],[22.367636863442673,65.49474176253943]],[[22.36604871499145,65.49373679575602],[22.36519162663786,65.49377866072733],[22.36514122336157,65.49360069756723],[22.36604871499145,65.49373679575602]],[[22.364990018077123,65.49306680794028],[22.36584708348877,65.49302494434183],[22.365897490228217,65.49320290723205],[22.364990018077123,65.49306680794028]],[[22.356035354397928,65.45218721473532],[22.355985110010987,65.45200924691726],[22.356412980112196,65.45198834789338],[22.356035354397928,65.45218721473532]],[[22.316190535317716,65.47866392651744],[22.31644072072925,65.47955384180125],[22.315684069370626,65.479951388359],[22.312357141287126,65.48047363177511],[22.31225711617221,65.48011766252048],[22.313442189952074,65.47969935043538],[22.31409882426893,65.47894584699038],[22.316190535317716,65.47866392651744]],[[22.301728665385937,65.46890149720875],[22.301529014053266,65.46818954057072],[22.302435304494068,65.46832603264895],[22.302335470372306,65.46797005491358],[22.30536141976197,65.46638011987221],[22.30783043090917,65.46589957838665],[22.308158672283028,65.46552283995338],[22.309921177524956,65.46561775430217],[22.309314694761227,65.46654922387762],[22.30674576346874,65.46667381566714],[22.30737371123645,65.46736500117582],[22.306189086021313,65.46778326121338],[22.30638886034024,65.46849521046634],[22.304775972711667,65.46893422051903],[22.304547511063376,65.46966692847077],[22.3036910925129,65.46970843796255],[22.302984445758362,65.47028390847149],[22.301371389999723,65.47072288382813],[22.29875210491654,65.47066935475098],[22.298980736888005,65.46993665388042],[22.299837171928584,65.4698951709386],[22.300115671822557,65.46934045853654],[22.301728665385937,65.46890149720875]],[[22.28773898885656,65.48094414050135],[22.28859580570913,65.480902717531],[22.289681586330794,65.48012859965873],[22.29230181246729,65.48018227671528],[22.29205244078218,65.4792923134386],[22.29066757716662,65.4789984881118],[22.292759564073936,65.47871688938547],[22.293088175475148,65.47834018007093],[22.295001176300815,65.4789692369088],[22.295200749408323,65.47968120291803],[22.297771024060307,65.47955679420733],[22.298527942368768,65.47915933474057],[22.30071971204533,65.4792336065189],[22.30011261020064,65.48016504522454],[22.299255839550653,65.48020653305821],[22.29774194367396,65.48100145607712],[22.296456738679314,65.4810636663224],[22.29550013155521,65.48074915121025],[22.293786531335687,65.48083207028007],[22.29388630844863,65.48118805421095],[22.29169438804774,65.48111368477578],[22.290608628659704,65.48188781690116],[22.288566219952745,65.48234738262053],[22.28723107569051,65.48223152116587],[22.28647389560453,65.48262892660757],[22.286324372386137,65.48209494193836],[22.28718122963234,65.48205352659159],[22.28773898885656,65.48094414050135]],[[22.29239270060562,65.48360558182607],[22.292821148536028,65.48358485735943],[22.292871036492276,65.48376284965569],[22.29239270060562,65.48360558182607]],[[22.29329948654044,65.48374212381152],[22.295113086071222,65.48401519117972],[22.29574117224108,65.48470642363165],[22.29488424448329,65.484747888228],[22.294984054580134,65.48510387110048],[22.29284169338915,65.48520751315574],[22.290828524496437,65.48422244698071],[22.290728775009278,65.48386646076172],[22.291207106041007,65.48402373390752],[22.29329948654044,65.48374212381152]],[[22.287826638509813,65.46885283252908],[22.288732885239654,65.46898940727651],[22.289868018678497,65.46839328698465],[22.291630664018452,65.46848841344271],[22.291879897000204,65.4693783788355],[22.29107330675148,65.46959780997835],[22.291172995225054,65.46995379659822],[22.289888313791774,65.4700159457697],[22.288374700469923,65.47081077213869],[22.28452048571667,65.47099711713777],[22.28437108263097,65.4704631293155],[22.28716947646138,65.46960622697816],[22.287826638509813,65.46885283252908]],[[22.290338922773078,65.47937519258512],[22.289910541398193,65.47939590935322],[22.289860683640097,65.47921791577672],[22.290338922773078,65.47937519258512]],[[22.288994650939838,65.48232666917345],[22.289044509964246,65.48250466302065],[22.288616076110053,65.4825253766375],[22.288994650939838,65.48232666917345]],[[22.28619497861273,65.48318361794105],[22.28591605040745,65.4837383088691],[22.28533808246721,65.48322502807872],[22.28619497861273,65.48318361794105]],[[22.284988744207357,65.4742217415549],[22.285038557331305,65.47439973718541],[22.28461025232735,65.47442043816609],[22.284988744207357,65.4742217415549]],[[22.276724384111738,65.43222677240053],[22.27757962989207,65.4321854274875],[22.277629296199063,65.43236342705431],[22.276724384111738,65.43222677240053]],[[22.276018102243714,65.43280211315307],[22.275590468181033,65.43282278189999],[22.27554081466147,65.43264478153506],[22.276018102243714,65.43280211315307]],[[22.27312392317566,65.43330277176571],[22.272268632460563,65.43334409186193],[22.272219000296513,65.43316609019186],[22.27312392317566,65.43330277176571]],[[22.19520281181148,65.47131893294122],[22.194922053038564,65.47187347336522],[22.19434613123459,65.47135982484525],[22.19520281181148,65.47131893294122]]],[[[22.1399753,65.46581468999999],[22.140301715121726,65.46700502371333],[22.141561438035666,65.46719628177686],[22.14579577712899,65.46681522222076],[22.146934140541127,65.46622014612201],[22.146836430677116,65.46586404577018],[22.148451878153317,65.4654266987524],[22.1399753,65.46581468999999]],[[22.14360537170559,65.46673868955143],[22.1440336844775,65.4667183883818],[22.144082521908818,65.4668964396412],[22.14360537170559,65.46673868955143]]],[[[22.14087955899523,65.46911223933503],[22.14209851701891,65.46915485482111],[22.141952032131876,65.46862069881507],[22.14280872162247,65.46858010401773],[22.14304172794345,65.46784759847039],[22.142087410067262,65.46753209037904],[22.140851241571834,65.46777102664348],[22.140439718756944,65.46750827974721],[22.14087955899523,65.46911223933503]]],[[[22.14192675838508,65.47293104751925],[22.142646839840086,65.47273618893135],[22.143161752146444,65.47144922897458],[22.141541463436575,65.47152599751927],[22.14192675838508,65.47293104751925]]],[[[22.14241659,65.47471731000002],[22.15659443534029,65.47404457232008],[22.15765290773657,65.47364774433738],[22.157457132269805,65.4729355609653],[22.15826498612635,65.4727168315577],[22.15816709280257,65.47236074035206],[22.156502455858213,65.47262014748074],[22.15640458694949,65.47226405489475],[22.15511940901025,65.47232506234755],[22.15502156025008,65.47196896866822],[22.154115865212983,65.47183158638954],[22.151545532299878,65.47195355118865],[22.150027522181325,65.47274703225297],[22.14821613612356,65.47247220233619],[22.14612297828658,65.47275181012688],[22.145792294239747,65.47312821907734],[22.144078625787134,65.47320944047162],[22.144176331268895,65.47356554262502],[22.142891055011248,65.47362644698524],[22.14195331725442,65.4730278993973],[22.14241659,65.47471731000002]]],[[[22.420748769999996,65.46126826],[22.418214449999997,65.45237116],[22.409376256523974,65.45280588566892],[22.408814458115106,65.45320859713802],[22.4079587787144,65.45325069047502],[22.40863964224395,65.45411937765263],[22.40793573879238,65.45469531098645],[22.406601548949265,65.45458049508504],[22.40632546137919,65.45513537893449],[22.40541912706102,65.45499951098893],[22.40418608775616,65.45524056966678],[22.403933202476754,65.45435082756443],[22.401793881317165,65.45445598385801],[22.401039259374315,65.45485393726365],[22.402299527971245,65.4562354760573],[22.4003622677129,65.45705241045958],[22.400463383638744,65.4574083101289],[22.399331287142047,65.45800523049186],[22.398424886305023,65.45786932121734],[22.39772065858374,65.45844521017223],[22.39595838083385,65.45835131851472],[22.395304612927156,65.45910514850388],[22.39072465028781,65.46131468140358],[22.387728709284794,65.4614616385707],[22.387024150510648,65.46203748094537],[22.386168140359864,65.4620794540632],[22.38626908683533,65.46243536493785],[22.384985048769583,65.46249831660185],[22.384657961193497,65.46287521022947],[22.380226952861697,65.46325864358725],[22.420748769999996,65.46126826]],[[22.40552030211208,65.4553554066733],[22.40509242452995,65.45537644499204],[22.405041839482386,65.45519849698991],[22.40552030211208,65.4553554066733]],[[22.40448957513555,65.45630825937697],[22.40406168098822,65.45632929494077],[22.403960521208028,65.45597339812475],[22.40448957513555,65.45630825937697]],[[22.403583208670117,65.45617238073125],[22.40315531586267,65.45619341371201],[22.403104742067512,65.45601546494728],[22.403583208670117,65.45617238073125]],[[22.402474575197175,65.45532470055637],[22.403330332994315,65.4552826375223],[22.403380906611762,65.45546058621333],[22.402474575197175,65.45532470055637]],[[22.402097260205164,65.45552367947299],[22.402525143099464,65.4555026495918],[22.402575711760512,65.45568059860264],[22.402097260205164,65.45552367947299]]],[[[22.350171416617293,65.44182870805771],[22.352216813840702,65.44172884639134],[22.352293155999185,65.44046217320735],[22.351387597295336,65.44032597305758],[22.349392189644526,65.43906520571048],[22.350171416617293,65.44182870805771]],[[22.35143778339566,65.44050394299552],[22.351010095964835,65.44052482608228],[22.350959912719848,65.44034685597344],[22.35143778339566,65.44050394299552]]],[[[22.354779470848445,65.44773801197626],[22.355207272369928,65.44771711705849],[22.355157043967942,65.44753914880258],[22.354779470848445,65.44773801197626]]],[[[22.141561438035666,65.46719628177686],[22.142038584771356,65.46735403835754],[22.14198976020881,65.4671759863128],[22.141561438035666,65.46719628177686]]],[[[22.15849758778743,65.47198430615515],[22.158069202419913,65.47200464905318],[22.158118147243606,65.47218269471428],[22.15849758778743,65.47198430615515]]]]}}]}