{"type":"FeatureCollection","properties":{"source":"SMHI SE.SR Ytansamling av alger","date":"2017-06-06","note":"Test: SMHI WFS clipped to Lulea municipal sea area and simplified 20 m."},"features":[{"type":"Feature","properties":{"cyano_daymap_file_id":3986,"date":"2017-06-06Z","cloud":null,"sub_surfac":null,"surface":null,"no_data":null,"class":1,"color_hex":null,"algae_class":"class_1","source_date":"2017-06-06"},"geometry":{"type":"Polygon","coordinates":[[[22.67317942,65.72840871],[22.69478451,65.72731513],[22.689466629999995,65.70953276],[22.64628359,65.71171508],[22.650723803961025,65.72663456266713],[22.6519919525198,65.7256029751429],[22.67368465959409,65.73010095727008],[22.67317942,65.72840871]]]}},{"type":"Feature","properties":{"cyano_daymap_file_id":3986,"date":"2017-06-06Z","cloud":null,"sub_surfac":null,"surface":null,"no_data":null,"class":1,"color_hex":null,"algae_class":"class_1","source_date":"2017-06-06"},"geometry":{"type":"MultiPolygon","coordinates":[[[[21.957500553060353,65.35102796260222],[21.9374845157948,65.3623116230953],[21.92279205517747,65.38578915754154],[21.92349717,65.3857568],[21.925856079999996,65.39466366999999],[21.9472221,65.39367848],[21.944856049999995,65.38477201999999],[21.97351331422175,65.38344450192128],[21.973954253370728,65.38235729869676],[21.975093024971162,65.38176351517272],[21.974903024473512,65.38105104169341],[21.975757167301182,65.38101141884256],[21.976089224563935,65.38063536970984],[21.975946710274197,65.38010101569044],[21.977180362396446,65.37986345363872],[21.977796885194653,65.3789332317466],[21.982398271324996,65.37673605728268],[21.982255654389686,65.37620171018985],[21.98353661111735,65.37614221403905],[21.984200375777764,65.37539008406048],[21.985565553568257,65.37529396283446],[21.98518997,65.3738877],[21.989466438045863,65.37368868376535],[21.99060350644846,65.37346954755552],[21.990508330916178,65.37311332228033],[21.99264296678924,65.37301404181513],[21.992927082602673,65.3724598469533],[21.994587128402426,65.37220228694112],[22.000371244767145,65.36958876968997],[22.004544488535906,65.36903369073207],[22.005597274099838,65.36938469476527],[22.00455005405693,65.36547114231016],[22.004540082863443,65.36578797311935],[22.00292819895679,65.36622374606965],[22.00302351251496,65.36657996219337],[22.002169888158022,65.36661973464471],[22.000796131249746,65.36794602766433],[21.999231688120467,65.36855987185537],[21.997951143717057,65.36861949751275],[21.996432506435646,65.3677885599883],[21.98874932307546,65.36814600697333],[21.986662614907296,65.3684233428736],[21.984291604383337,65.3692548307873],[21.982915930696336,65.36895809885782],[21.98229897284545,65.36826546580346],[21.983105160758562,65.36804768954873],[21.982962586484625,65.3675133426447],[21.983768745925094,65.36729556310908],[21.984005465854043,65.36656326838089],[21.987845730577753,65.36476184741807],[21.989219990824694,65.3634356676513],[21.99087950924189,65.36317815355578],[21.991163567490627,65.36262396249597],[21.993392516153744,65.3628809046245],[21.99533592062236,65.36206914726492],[21.998227890846362,65.36157384286163],[21.99851177764927,65.3610196395843],[22.001451203587507,65.36070238468116],[22.001546472934237,65.3610586021952],[22.002826639458565,65.36099894961062],[22.002921928728046,65.36135516606001],[22.001689382300857,65.3615929282981],[22.001832298083674,65.36212725419921],[22.00381760419656,65.36273391342617],[22.00177045,65.35508352],[21.98043825,65.35607612],[21.98281322,65.36498194],[21.961472139999998,65.36597194],[21.957500553060353,65.35102796260222]],[[21.96384176,65.37487811],[21.942491779999997,65.3758655],[21.94012928,65.36695893],[21.961472139999998,65.36597194],[21.96384176,65.37487811]]],[[[21.97806506,65.34717025],[21.97627597232048,65.34044367692489],[21.96311356166133,65.34786373570964],[21.97806506,65.34717025]]],[[[22.0537662,65.3075659],[22.05616065,65.31647037],[22.03486219,65.31747035],[22.039642269999998,65.33527994],[22.0609549,65.33427914],[22.06335472,65.34318344],[22.07594917797055,65.34259016125738],[22.07591245894513,65.34206503739361],[22.078560072280982,65.34067782450352],[22.080595424100174,65.34022116801209],[22.08111799241752,65.34055722235658],[22.07993527720462,65.3409736871048],[22.081503044281206,65.34198185095023],[22.081322383190887,65.34233704925808],[22.084672660000003,65.34217922999999],[22.08708137,65.35108306],[22.10840461,65.35007543999998],[22.120510809999995,65.39459169],[22.141867799999996,65.39357899],[22.13700564,65.37577349],[22.17968568,65.37374074],[22.182130079999997,65.38264268],[22.16078386,65.38366098],[22.17055126,65.41926986],[22.234669919999995,65.41620092999999],[22.232203920000003,65.40730005],[22.189474259999997,65.40934817999998],[22.187024359999995,65.40044641],[22.208382989999997,65.39942427],[22.20592781,65.39052284999998],[22.227277480000005,65.38949812],[22.22235841,65.37169596000001],[22.265023779999993,65.36963915999999],[22.269971289999994,65.38743964999998],[22.291315419999997,65.3864059],[22.29379906,65.39530562999998],[22.291801228249927,65.39540239710398],[22.290969403008766,65.3963587030088],[22.29220079490505,65.39611858598023],[22.29277687496991,65.39663185953314],[22.29410765443049,65.39674771553312],[22.294207049695768,65.39710370318984],[22.29340267112162,65.39732312478264],[22.29430644793808,65.39745969075062],[22.294405849157567,65.39781567821548],[22.291843557019885,65.39793995023055],[22.291615237388655,65.39867263740612],[22.289479912822046,65.3987761617106],[22.28938057397101,65.39842017037422],[22.288099387385518,65.39848226950625],[22.286540077798705,65.39909904203006],[22.286639381254084,65.39945503559179],[22.287821298931828,65.39903695581046],[22.289529583363386,65.3989541573428],[22.28972827296802,65.39966613963216],[22.288824441640475,65.39952954675098],[22.288119269471316,65.40010493316251],[22.287265088626725,65.40014632720914],[22.287165773527438,65.3997903341774],[22.28626195035742,65.3996537258449],[22.285934162402224,65.40003041224485],[22.286837997088774,65.40016702242791],[22.28608311277176,65.4005644032075],[22.283570139360716,65.40086653480421],[22.283291932081944,65.40142121393058],[22.28082846045074,65.40190129916282],[22.28030210405955,65.40156597808557],[22.278593614553703,65.40164867399058],[22.27764017231275,65.40133401420056],[22.278296010204556,65.40058067416122],[22.277620934100362,65.39971134275534],[22.27890221060031,65.39964933181838],[22.27875341251306,65.39911533223652],[22.279508369648383,65.39871798744606],[22.280839203665302,65.3988339600862],[22.28101821558762,65.39792328719915],[22.28229939515411,65.3978612483452],[22.283054262420148,65.39746388668603],[22.28295501666339,65.39710789018183],[22.28375947945487,65.39688852352256],[22.28323319055767,65.39655321200009],[22.283528427826475,65.39580309898423],[22.27244782,65.3963398],[22.274926210000004,65.40523989],[22.25356598999999,65.40627147999999],[22.25851408,65.42407233],[22.23713775,65.42510175],[22.24207899,65.4429032],[22.2634696,65.44187294],[22.26595014,65.45077315999998],[22.29538267373157,65.4493490536235],[22.29518755115268,65.44865203671692],[22.292928163984392,65.4467770083721],[22.292022673799913,65.44664045126942],[22.291923080978062,65.44628446422199],[22.28895783232764,65.44498478410013],[22.289136784414847,65.44407410237083],[22.28717676629687,65.4432669484826],[22.286977746267024,65.44255496626816],[22.285644651303798,65.442439070418],[22.286301219591437,65.44168568840912],[22.28839029344594,65.44140417905693],[22.28829077400732,65.4410481888739],[22.2891960505772,65.44118477049948],[22.287524461153705,65.43675559729498],[22.285187103257137,65.43614710907417],[22.279856131984953,65.43568337771842],[22.278851728732217,65.43519073972955],[22.275858020858976,65.43533545440803],[22.27837438018823,65.43503341768614],[22.27827502597208,65.43467741924627],[22.27646504313031,65.4344041138386],[22.27498344803333,65.43375411893645],[22.277927309682273,65.43343142395307],[22.277728631047463,65.43271942611631],[22.279011519829748,65.43265739818723],[22.28011519683528,65.43350603321537],[22.28182575592917,65.43342329941696],[22.2817263622336,65.43306730364093],[22.28263132807336,65.43320392775082],[22.281955204563744,65.43233462635536],[22.282909848750002,65.43264924680041],[22.283188358257934,65.43209456544548],[22.283715387995112,65.43242986967172],[22.284570627063783,65.43238848518757],[22.2844176493342,65.43184072237442],[22.282372519999996,65.43193981],[22.28168711397713,65.42982196998939],[22.280255335391676,65.42935002357366],[22.28148209604999,65.42874947637402],[22.27988855,65.4230399],[22.2856372516165,65.42276055832711],[22.28885563800544,65.42135684422648],[22.288706488423138,65.4208228580467],[22.28961106109101,65.42095944421031],[22.28936246110988,65.42006946857825],[22.29278174475434,65.41990379017454],[22.293686305236555,65.42004035201265],[22.29383555078732,65.42057433230859],[22.293080203868623,65.42097175272828],[22.294561496153438,65.42162157293042],[22.29304630496932,65.422400536622],[22.311222080851568,65.42151733690497],[22.31133058297655,65.42116855302882],[22.30937165358316,65.42036167651436],[22.309977158358897,65.41943021630803],[22.31083192350827,65.41938868766574],[22.310554122746044,65.4199434129604],[22.311508639610917,65.42025785367197],[22.313545842336833,65.41979802964788],[22.31364560695293,65.42015400072975],[22.31198590659788,65.42041507167598],[22.311658249369287,65.4207918126628],[22.312520423087584,65.4214542476865],[22.34400078,65.41992455],[22.341497299999993,65.41102584999997],[22.36285717,65.40998179999998],[22.360348449999996,65.40108346999999],[22.338995689999997,65.40212708999996],[22.336495949999996,65.39322826999998],[22.37012837494052,65.39158282323068],[22.37003192703793,65.39124090221178],[22.37053845664807,65.39156272239173],[22.371784716741416,65.39150163487436],[22.371011295555757,65.39011033329065],[22.369630362210394,65.38981719238969],[22.36942959782909,65.3891053368934],[22.368525746887865,65.38896922235513],[22.368751840139083,65.38823644158968],[22.371865151167693,65.38700123349061],[22.374702047790976,65.38632079032892],[22.375404941318447,65.38574502223003],[22.37625848504487,65.38570313504314],[22.382282447882908,65.38252052507819],[22.38234665161422,65.38196196025002],[22.376673289999996,65.38224084999999],[22.37416309,65.37334276],[22.395490769999995,65.37229442],[22.396756338804696,65.37676770523846],[22.39906891042279,65.37610156986052],[22.401652028331377,65.3745308775431],[22.40406023649457,65.37387091711129],[22.40353291353699,65.3735360367875],[22.404661376548983,65.37293912174972],[22.406317114897202,65.37267707115812],[22.40686774652547,65.37156731861688],[22.408523375581733,65.37130524487515],[22.407895234196367,65.37061448252841],[22.410178970629158,65.3710431532725],[22.41168323240481,65.37024720188839],[22.41047729329762,65.36904364960161],[22.410752492498133,65.36848876716553],[22.411554980993582,65.36826873864148],[22.412082294883398,65.36860359095832],[22.41230702484313,65.3678707588423],[22.413485485356098,65.36745172922753],[22.413357124122513,65.36547326863808],[22.412779432018276,65.36496047326987],[22.410120204134028,65.36473082240792],[22.41082175951596,65.36415490273008],[22.411674534232024,65.36411282268084],[22.41109690616608,65.36360002020066],[22.41244946667485,65.36227022260009],[22.4123486309264,65.36191432810391],[22.411495928778628,65.36195641123119],[22.41069362977319,65.36217643750555],[22.41079444434897,65.36253233332685],[22.409515355436596,65.36259544336184],[22.409790515438363,65.3620405630843],[22.411395107385143,65.36160051594945],[22.410666331767416,65.36055386790336],[22.412371645349726,65.36046970714582],[22.412472474706888,65.36082560169197],[22.417212534216077,65.36077200217169],[22.417111640990555,65.36041611145545],[22.415782236331907,65.36030132802928],[22.418716007788444,65.35997598856999],[22.42149828243396,65.35911676188816],[22.424908627285777,65.35894817845694],[22.428391581201666,65.35751284470467],[22.429771417480538,65.35780545803051],[22.430096628985332,65.35742848581818],[22.43094914834543,65.35738629917638],[22.431447916732207,65.3560985305655],[22.43315286101462,65.35601413810937],[22.432704722110657,65.35747985064833],[22.43441728406135,65.35709064286675],[22.433083189999998,65.35239494],[22.436946052303096,65.35220341261615],[22.434742799147866,65.34943952545223],[22.43331282623815,65.34896901460608],[22.433962933525223,65.34821505741637],[22.43604291632454,65.34793159690477],[22.437472879030793,65.34840208190414],[22.438700633243712,65.34816080526295],[22.439278436831387,65.34867349995912],[22.442362364638544,65.34888152539843],[22.44316398831399,65.34866133725876],[22.443265179195958,65.34901720742512],[22.448935439706577,65.35072084773614],[22.449787705213016,65.35067855697396],[22.452434533819638,65.35143546695514],[22.45439104,65.35133846],[22.45540805382211,65.35220401341721],[22.4571633500659,65.35229728237806],[22.461404489013436,65.3535301462407],[22.465493743582293,65.35422910888393],[22.472171357822656,65.35642323656558],[22.473754881984544,65.35742713423052],[22.4837230711574,65.36053971876365],[22.486039049766745,65.36258974287412],[22.48629364472657,65.36347932920626],[22.485046640616165,65.36516558670527],[22.482743139837645,65.36618264947998],[22.480611375277018,65.36628884541854],[22.480509598711187,65.36593300645745],[22.47631641011461,65.36487863236191],[22.475209490672537,65.36403146937495],[22.474650217217803,65.36207432904092],[22.469026643856367,65.36054962466822],[22.464337593603094,65.36078277991295],[22.46353578995639,65.36100308272886],[22.46363731385797,65.36135893575306],[22.459800659729733,65.3615495742339],[22.45819691365721,65.36199012867333],[22.457922783341637,65.3625450867367],[22.45659311314398,65.36243066658167],[22.456694549803604,65.36278652518567],[22.454238013517088,65.36326937272254],[22.455314162574275,65.36249416442381],[22.45217785376022,65.36210849078475],[22.451447447476664,65.36106205715896],[22.450001406984573,65.36057830034156],[22.445880506756456,65.36078263686137],[22.446635697368723,65.3623834073874],[22.445833691388557,65.36260361795674],[22.445609937554533,65.36333649002756],[22.44611642941064,65.3651158264592],[22.444989254508677,65.3657130389194],[22.444136492570536,65.36575530759477],[22.44423777622439,65.36611117616073],[22.445567586473945,65.36622570404025],[22.444288419187224,65.36628911040657],[22.441332889702366,65.36805956076256],[22.440357348295713,65.36919054718388],[22.440885043213456,65.36952529466828],[22.438803417764632,65.36980883897958],[22.43941084549346,65.37194407370146],[22.438232613622095,65.3723633039187],[22.43795796310153,65.37291823093241],[22.439042574923768,65.37521028549057],[22.438189493401076,65.37525252374698],[22.436360442632864,65.3764257220753],[22.431668211203476,65.37665789197293],[22.427677378377464,65.37631391901039],[22.424915808054315,65.3757286606996],[22.41964551085842,65.37544770873272],[22.41276995902493,65.37560665795652],[22.407426125592927,65.37659195319827],[22.40419151938011,65.37891658996224],[22.401356211149327,65.37959757235713],[22.400704432504703,65.38035140561124],[22.399575568402664,65.38094829507041],[22.39872222411253,65.38099031236881],[22.396890993515697,65.38216305323174],[22.39523456115599,65.38242500721215],[22.394155826516364,65.38319981195869],[22.391319789614702,65.38388061278319],[22.388082872606553,65.38620492694577],[22.386049615466636,65.38666571790009],[22.385749303966573,65.38866519323712],[22.383816389853987,65.38948187133781],[22.385173012260424,65.39121951204113],[22.387609168941122,65.39218238229115],[22.386956699313608,65.39293616303858],[22.386982680169858,65.39455875021757],[22.384094933287873,65.39506147234628],[22.38034606223188,65.39524553731454],[22.38421517,65.40893475],[22.405571269999996,65.4078847],[22.408096119999996,65.41678210999999],[22.42945746,65.41572861],[22.43199132,65.42462554],[22.41062286,65.42567946000001],[22.41315149,65.43457676],[22.455900759999995,65.43246502999999],[22.45844555,65.4413614],[22.47982445,65.44030059],[22.48237829,65.44919646],[22.50376241,65.4481322],[22.50632529,65.45702757],[22.48493403999999,65.45809225999999],[22.49005129,65.47588369],[22.447234440000003,65.47800577000001],[22.44978163,65.48690225999998],[22.47119818,65.48584229000001],[22.473754449999994,65.49473828999999],[22.495176229999995,65.49367486999999],[22.498208419627602,65.50418512164185],[22.50068590165381,65.50406192704897],[22.50133764567789,65.50330766209015],[22.500755031018393,65.50279525519306],[22.502263836803255,65.50199835269476],[22.501955715330475,65.50093090783508],[22.503515739162378,65.50031190173993],[22.50411595053751,65.499379719623],[22.50529871021418,65.49895992742017],[22.505144605675714,65.49842620861293],[22.50670440544846,65.49780717188554],[22.506242051207877,65.49620601971449],[22.505385155637022,65.4962486778284],[22.504974272402915,65.4948254269421],[22.506156815574375,65.4944056302312],[22.505522957750355,65.49371533449872],[22.506379770031632,65.49367267645171],[22.506551349613574,65.49276181660787],[22.504786431020637,65.49266922262916],[22.50468373071472,65.49231340939991],[22.503826959627833,65.4923560574097],[22.503295892889557,65.4920215652258],[22.505009412153182,65.49193627060423],[22.504375648309033,65.49124596910703],[22.503518911586244,65.49128861501984],[22.505181031851663,65.49102541191309],[22.504016253927777,65.49000062095162],[22.50778604953409,65.48800827776103],[22.507906195429015,65.48691951166215],[22.505987634169884,65.48629321088104],[22.505782264449508,65.48558158568508],[22.504925716018736,65.48562423765621],[22.50482304723324,65.48526842420803],[22.503966507167192,65.48531107065476],[22.504497440646897,65.48564556183217],[22.50369221455308,65.48586611377533],[22.502356052224876,65.48575216461599],[22.503161286576564,65.48553161971141],[22.50232247498986,65.48412967730044],[22.504035481153068,65.48404439894915],[22.506296925944735,65.48284900846643],[22.50619425166903,65.48249319600923],[22.510270984186914,65.48156823906972],[22.50991146981749,65.48032290620276],[22.51119601624791,65.48025888683746],[22.511298747947958,65.48061469530529],[22.51215511982169,65.48057200899876],[22.513662325341922,65.47977500907294],[22.51570038042413,65.47931244675536],[22.516351110454217,65.47855812746641],[22.519348128068792,65.47840860678701],[22.519895894764296,65.47729847160718],[22.521779357109438,65.47630212837369],[22.520820301645788,65.47598906684618],[22.52114555796722,65.4756118976379],[22.523765554177572,65.47566156159944],[22.52369753666411,65.47692823245468],[22.524930425311037,65.47668619925679],[22.525615807724623,65.47755431123537],[22.526472051198052,65.47751154506314],[22.52797863964726,65.47671440859921],[22.528200857396087,65.47598143022772],[22.527138814334844,65.47531261449407],[22.52799498145836,65.47526984046821],[22.52869672949673,65.4746933700852],[22.52960435022891,65.47482848431832],[22.529707306433863,65.47518427794849],[22.530991542051616,65.47512009339935],[22.532430262278357,65.47558958510028],[22.533380332042693,65.47554207392712],[22.530286579999995,65.46485473999999],[22.551681119999998,65.46378358999999],[22.554262139999995,65.47267795],[22.597059699999996,65.47052573],[22.59187105,65.45273869],[22.594278257644824,65.45261712829881],[22.596654499943877,65.45160879237743],[22.5968746127733,65.45087573514489],[22.59853318204168,65.45061154193648],[22.600671222090483,65.45050361044447],[22.601254545964924,65.45101562421],[22.602537383980508,65.45095084566746],[22.602317430060314,65.45168390951243],[22.60327652094192,65.45199645282787],[22.602469091902197,65.45220349894339],[22.607149074858462,65.45196716424626],[22.60467543176957,65.45084285735345],[22.604467717825973,65.45013139138959],[22.606605689128372,65.45002337651597],[22.607564767525027,65.45033589269875],[22.61007836708967,65.45002835435479],[22.61044213955943,65.45127340325081],[22.613024765440002,65.45087877273708],[22.60805751,65.43387253],[22.62942290999999,65.43279065999998],[22.62422134,65.41500487],[22.645570570000004,65.41392088],[22.640362579999998,65.39613571999999],[22.661695669999993,65.39504960999999],[22.664305779999992,65.40394177999998],[22.68564401,65.40285223],[22.68826317,65.41174388],[22.709606539999992,65.41065087999999],[22.71223476,65.41954203],[22.73358325,65.41844558],[22.7256832,65.39177328],[22.768331719999995,65.38957407],[22.76568815,65.38068407],[22.74437195,65.38178472999999],[22.728594290000004,65.32844065],[22.74986812,65.32734268],[22.74461049999999,65.30956168999997],[22.765868289999997,65.30846163],[22.76850316,65.31735171],[22.789766019999995,65.31624821999999],[22.79240988999999,65.32513777999999],[22.771139989999998,65.32624173],[22.773778789999998,65.33513168],[22.816330710000003,65.33291989],[22.81102692,65.31514173000001],[22.832285839999997,65.31403225999999],[22.829629879999995,65.30514352999998],[22.85087979,65.30403152],[22.853542769999994,65.31291979999999],[22.874797729999994,65.31180435999998],[22.87212771,65.30291653000002],[22.893373649999997,65.30179855999998],[22.896050689999992,65.31068592999999],[22.91730165,65.30956451],[22.91998771,65.31845135],[22.89872972,65.31957322],[22.901410749999997,65.32846045999999],[22.986458779999996,65.32395322],[22.98916994,65.33283854],[23.031695899999995,65.33056608],[23.034423150000002,65.33945042000002],[23.05569011,65.33830923999999],[23.058426429999994,65.34719303999998],[23.037152429999995,65.34833468],[23.03988375,65.35721887],[23.06116478,65.35607676],[23.06390517999999,65.36496041999999],[23.021326979999998,65.36724256999999],[23.018600669999998,65.35835797999998],[22.997315560000004,65.35949411],[22.99459832999999,65.35060898999998],[22.952036119999995,65.35287133999998],[22.954739259999997,65.36175738],[22.93344808,65.36288454000001],[22.93075199,65.35399804],[22.90946584,65.35512174],[22.912154880000003,65.36400870000001],[22.890859679999995,65.36512986],[22.89354367,65.37401721],[22.8722394,65.37513584],[22.869562469999998,65.36624804],[22.848263270000004,65.36736322],[22.845595389999996,65.35847489999999],[22.82430125,65.35958662999998],[22.821642420000003,65.35069779],[22.7790623,65.35291137],[22.787002369999993,65.37958042],[22.82962486999999,65.37736411999998],[22.832289669999994,65.38625276999998],[22.81097234,65.38736287],[22.81363205,65.3962519],[22.83495645,65.39514134000001],[22.840296019999997,65.41291829],[22.861632590000003,65.41180383],[22.864312459999997,65.42069174999999],[22.906993769999996,65.41845291999998],[22.91238791,65.43622672],[22.95508951,65.43397404999999],[22.95780381,65.44285993],[22.979158659999992,65.44172861999999],[22.990064639999996,65.47726959],[22.998542625787056,65.47681908512578],[23.0439526591749,65.41743683403658],[23.130080553698843,65.29941137432748],[23.1297004,65.29818627999998],[23.10846968,65.29933752],[23.11397011,65.3171028],[23.07147448,65.31939821],[23.068737270000007,65.31051467],[23.089979089999996,65.30936891999998],[23.087236900000004,65.30048578],[23.066002089999998,65.30163106],[23.05780877,65.27497979],[23.07902259,65.27383591],[23.081758650000005,65.28271927],[23.08974007493219,65.28228596154793],[23.089709002936797,65.2756147460627],[23.0877229961228,65.2617264628135],[23.083434648887803,65.24793025256493],[23.08043185064679,65.2410880822697],[23.072734007836395,65.22755481896989],[23.062814772555992,65.214278717246],[23.05703780408209,65.2077578360096],[23.0438821336382,65.1949890305416],[23.0286527983404,65.1826346123978],[23.011423917751596,65.1707541953058],[23.002086021599,65.1650103332603],[22.982021613701992,65.1539487475862],[22.960190125166896,65.1434996447016],[22.936695353363596,65.13371361195249],[22.924360538612298,65.1290836625267],[22.8985886497093,65.1203780521599],[22.885184620758892,65.11631308182429],[22.8574198396373,65.1087830198622],[22.8430911307973,65.1053259673164],[22.813630577896,65.099051531591],[22.783216068086205,65.09365218440139],[22.767695334584204,65.0912889661128],[22.736125520193397,65.0872488627787],[22.703969492420804,65.0841417016372],[22.687722653553607,65.08294181426642],[22.6549815048834,65.0812580646165],[22.622043315924994,65.0805348656589],[22.5890680589074,65.08077551930198],[22.5562078378235,65.0819784364121],[22.5236222511317,65.0841381956597],[22.4989570328592,65.0864342959367],[22.4512775467598,65.06965380799399],[22.3200684113133,65.1466372251174],[22.032856362353044,65.30854755766694],[22.0537662,65.3075659]],[[22.27498344803333,65.43375411893645],[22.274506148783082,65.4335967841615],[22.27493379650187,65.4335761183528],[22.27498344803333,65.43375411893645]],[[22.274028855244207,65.43343944781938],[22.274456500851873,65.4334187833848],[22.274506148783082,65.4335967841615],[22.274028855244207,65.43343944781938]],[[22.45946251,65.36913138],[22.480782640000005,65.36807103000001],[22.483328309999997,65.37696696999998],[22.4809062175386,65.37708744079934],[22.48040660374229,65.37766766004886],[22.481412444708887,65.37815893928045],[22.481819847300695,65.37958228926034],[22.479890654468665,65.38040016121379],[22.479992490454517,65.38075599999374],[22.4783879404437,65.38119677788671],[22.478540670652542,65.38173053780073],[22.477362652251383,65.38215007202156],[22.477464462217352,65.38250591278002],[22.47521006889899,65.38370079916264],[22.47531185698992,65.38405664160236],[22.474560338827626,65.38445493062405],[22.47328036916806,65.38451859163949],[22.47338213496387,65.38487443561311],[22.472528806695703,65.38491687097849],[22.471401420404344,65.3855142833921],[22.471503165423872,65.38587012884946],[22.46877065365522,65.38690821491063],[22.468496518888454,65.38746319229737],[22.467216384931252,65.38752680345921],[22.467826617242416,65.3896618945867],[22.46654637420167,65.38972550117359],[22.463731718596957,65.38896305325123],[22.46031778076959,65.38913255336983],[22.458813974937332,65.38992898588445],[22.459494742200388,65.39079744437088],[22.45869199264455,65.39101773110241],[22.458143207212718,65.39212765396938],[22.45626314325189,65.39312316827129],[22.453326193836634,65.39344927224703],[22.452117230846543,65.39224608475507],[22.450786067891148,65.39213162860118],[22.451009874954675,65.39139874826625],[22.449953330172402,65.39072933425966],[22.44975038136783,65.39001760864501],[22.451579735966405,65.38884424454027],[22.45137676072725,65.38813252138952],[22.450371077301785,65.38764103992519],[22.448338855874596,65.3881026609945],[22.448237414091924,65.387746796801],[22.450269610154535,65.38728517736048],[22.449914499053296,65.38603965760214],[22.452170262936423,65.38484513593204],[22.452018046405325,65.38431134404163],[22.45058583361852,65.38384102039078],[22.45048438131659,65.38348515782046],[22.451815101659147,65.38359962117346],[22.452486225834914,65.38140097765354],[22.455168088863285,65.38018525658296],[22.45602129740762,65.38014292081903],[22.45629563024744,65.37958796412475],[22.457148817207454,65.3795456221933],[22.457697412936216,65.37843570491584],[22.458550559767236,65.37839335545348],[22.458723286868818,65.3774825387128],[22.460652946703714,65.37666493321038],[22.46134771031641,65.37573800241842],[22.45946251,65.36913138]],[[22.608316052151586,65.44993694294968],[22.607888462564162,65.44995855314683],[22.60783651321815,65.44978068800579],[22.608316052151586,65.44993694294968]],[[22.599297083856378,65.44876810076425],[22.59881761903132,65.44861181638954],[22.59924519568084,65.44859023203401],[22.599297083856378,65.44876810076425]],[[22.599633336765244,65.44694624316242],[22.60177107229087,65.44683829924122],[22.602406237636405,65.44752817688563],[22.600100346645846,65.44854705971177],[22.59924519568084,65.44859023203401],[22.599633336765244,65.44694624316242]],[[22.600008996479296,65.446746788328],[22.599581450668406,65.44676837452842],[22.599529565349485,65.4465905058687],[22.600008996479296,65.446746788328]],[[22.588243455772563,65.46593034089014],[22.589047335051333,65.46570935229367],[22.589202917099936,65.46624296985837],[22.588243455772563,65.46593034089014]],[[22.500554280448892,65.40264935941362],[22.500981205612177,65.40262806024516],[22.501032318272188,65.4028059705083],[22.500554280448892,65.40264935941362]],[[22.502261976510496,65.402564155529],[22.502159736432684,65.40220833597193],[22.50344048338959,65.40214442148441],[22.50234900872084,65.39985290247168],[22.50347627309531,65.39925525967205],[22.50593518930687,65.39877158391735],[22.50610635774027,65.39786072906008],[22.51175758934338,65.39793936480409],[22.512935735875555,65.39751956021273],[22.515069876330553,65.39741288187157],[22.51619674300933,65.39681514800824],[22.518057640781596,65.39726348173441],[22.518211290166406,65.39779719185624],[22.520072291734895,65.39824549962658],[22.52135279264597,65.39818143541805],[22.52145527377376,65.39853723944594],[22.52268453535674,65.3982952618997],[22.522582038718824,65.39793945886854],[22.52476742799204,65.39801054466635],[22.524664904482552,65.39765474333034],[22.526320909051883,65.39739137051033],[22.52616709775961,65.39685767033642],[22.52787431657046,65.3967721810964],[22.527806476426317,65.39803885159333],[22.52662855235733,65.39845877017642],[22.52673110626582,65.39881456986306],[22.523367637222986,65.3991634072455],[22.522240839553877,65.39976119403916],[22.521387123444573,65.39980391025716],[22.521489612697373,65.40015971418],[22.524904504178334,65.39998881767893],[22.525007041958055,65.4003446187078],[22.525912044242254,65.40047978199632],[22.532844436290727,65.40049350606401],[22.53293081815912,65.40229386800378],[22.535970363051547,65.40232200511228],[22.536875486962494,65.40245710128605],[22.53697819860257,65.40281289236837],[22.53568140932697,65.40432165738446],[22.534827571418717,65.40436445102414],[22.533752163595334,65.40514021981741],[22.531293197289326,65.40562435008003],[22.531447174915396,65.40615804331905],[22.529790675934127,65.40642147760332],[22.529620294941118,65.40733235121485],[22.52811762669618,65.40812946357761],[22.526512267356093,65.4085707625935],[22.525231274940207,65.40863487572996],[22.524223424379507,65.40814391004689],[22.522139725569588,65.40842862808188],[22.522293537002543,65.40896233238965],[22.523250105319317,65.40927541002644],[22.52239608179664,65.40931813513532],[22.522549904746295,65.40985183906452],[22.521422642381314,65.41044962455744],[22.519338728724115,65.41073430608039],[22.518330903183585,65.4102433007282],[22.516144502496115,65.41017213197406],[22.514658510330317,65.4095245402439],[22.513377436381223,65.40958855345666],[22.512796784127335,65.40907617304109],[22.511942746521317,65.40911883905522],[22.510764072538947,65.40953864132888],[22.51096885809311,65.4102502655631],[22.509465448548433,65.41104719954579],[22.509567829306985,65.4114030127052],[22.51090020310829,65.41151693686788],[22.510626739371105,65.41207198395863],[22.50507477880376,65.41234915395727],[22.504271777145764,65.41256968616797],[22.50437409467997,65.41292550350636],[22.50218749548635,65.4128541343104],[22.501658123313547,65.4125196191165],[22.499522688738004,65.41262612076488],[22.496259266600887,65.41333019684987],[22.49593436953263,65.4137073086786],[22.49508014811291,65.41374988101869],[22.495233446987726,65.41428361817927],[22.494003176130928,65.41452538209577],[22.493371696089532,65.41383501126938],[22.49246638446331,65.41369965569893],[22.49190454370012,65.41174260575313],[22.489564898615765,65.41113731029449],[22.48790763895803,65.41140029192977],[22.488506557443912,65.4104681852579],[22.489736693224742,65.41022646759575],[22.489124100696298,65.40809148950487],[22.490525872362657,65.40693892484315],[22.49137988110161,65.40689638049881],[22.491533056341083,65.40743012268123],[22.49281408930795,65.4073662955838],[22.492711954655167,65.4070104685307],[22.493941888968003,65.40676871861555],[22.494573202405537,65.40745908875078],[22.49628123479122,65.4073739491951],[22.49564987891689,65.4066835866518],[22.496179053111437,65.40701812497558],[22.497408954083916,65.40677634710552],[22.49730675993399,65.40642052377952],[22.49597469893218,65.40630647623543],[22.495872526432436,65.40595065171482],[22.496726492540738,65.40590807750844],[22.49725566400671,65.40624261207884],[22.49971534981957,65.40575902992305],[22.501065413061895,65.40442846265562],[22.50053623174846,65.40409394156742],[22.501032318272188,65.4028059705083],[22.502261976510496,65.402564155529]],[[22.52533385800361,65.40899067608115],[22.52490685330921,65.40901204507202],[22.52480427593212,65.40865624437149],[22.52533385800361,65.40899067608115]],[[22.52405284161638,65.40905477944774],[22.52362583461802,65.40907614483262],[22.523574554075097,65.40889824397102],[22.52405284161638,65.40905477944774]],[[22.523677115928862,65.40925404566896],[22.52372839800761,65.40943194648007],[22.52330138455475,65.40945331101219],[22.523677115928862,65.40925404566896]],[[22.523403945329306,65.4098091129079],[22.52297692542174,65.40983047658723],[22.522925647493928,65.40965257547737],[22.523403945329306,65.4098091129079]],[[22.52054645564974,65.47654413597601],[22.520495036202494,65.47636623544764],[22.520923143943442,65.47634486762875],[22.52054645564974,65.47654413597601]],[[22.520871722408646,65.47616696725011],[22.52044361752717,65.47618833489399],[22.520392199623753,65.47601043431503],[22.520871722408646,65.47616696725011]],[[22.52059787586891,65.4767220364791],[22.520169761636925,65.47674340344224],[22.52011834427733,65.47656550276413],[22.52059787586891,65.4767220364791]],[[22.519416356453544,65.47714193573144],[22.518988234186573,65.47716329942715],[22.518936823862234,65.47698539827462],[22.519416356453544,65.47714193573144]],[[22.51931353085727,65.4767861337511],[22.518885414309693,65.47680749709686],[22.51883400552893,65.47662959589374],[22.51931353085727,65.4767861337511]],[[22.51810885718609,65.41097626262277],[22.517681813080408,65.41099761154761],[22.51763056828166,65.41081970829451],[22.51810885718609,65.41097626262277]],[[22.514629610566544,65.37632062841669],[22.51638669554108,65.37641318785433],[22.516420610387026,65.37803566798422],[22.514594931849405,65.37920978115446],[22.51198459979437,65.37915985889735],[22.51307706548041,65.3769396722934],[22.514629610566544,65.37632062841669]],[[22.515170760834167,65.411303584126],[22.51474370851331,65.41132492481012],[22.514692482854784,65.41114702036086],[22.515170760834167,65.411303584126]],[[22.511144651554755,65.4800809825657],[22.51157282929515,65.48005964053999],[22.51162419684897,65.48023754463689],[22.511144651554755,65.4800809825657]],[[22.50386223933187,65.48946689993552],[22.50343389998943,65.489488221748],[22.503382566196102,65.48931031451752],[22.50386223933187,65.48946689993552]],[[22.50257721899143,65.48953086175315],[22.503005559875934,65.48950954235389],[22.503056891577145,65.48968744973388],[22.50257721899143,65.48953086175315]],[[22.502200203310796,65.48973008767516],[22.50262854782946,65.48970876930784],[22.502679877438474,65.48988667683733],[22.502200203310796,65.48973008767516]],[[22.502368291754667,65.49784252246216],[22.50193981371953,65.49786384145048],[22.501837127504984,65.49750802613774],[22.502368291754667,65.49784252246216]],[[22.501702775284425,65.49101807663564],[22.501582361286722,65.49210684053917],[22.498788888446537,65.49296766221869],[22.49906335174705,65.49241262625449],[22.501702775284425,65.49101807663564]],[[22.50091728517971,65.48528238688301],[22.50048901145794,65.48530369967736],[22.500437707613468,65.48512579114364],[22.50091728517971,65.48528238688301]],[[22.499529014471726,65.403602804254],[22.499955956142845,65.40358150782073],[22.500007064101574,65.4037594184805],[22.499529014471726,65.403602804254]],[[22.499906836330084,65.48479128506472],[22.49905030220732,65.48483390357383],[22.498999009260444,65.48465599444077],[22.499906836330084,65.48479128506472]],[[22.499153174308965,65.40380201049332],[22.49958011958785,65.40378071508785],[22.499682332115626,65.40413653668021],[22.499153174308965,65.40380201049332]],[[22.49829123890078,65.49425564221082],[22.498719661402017,65.494234334133],[22.49877097514771,65.49441224315396],[22.49829123890078,65.49425564221082]],[[22.49877097514771,65.49441224315396],[22.499250717123548,65.4945688425157],[22.498822289664307,65.49459015214978],[22.49877097514771,65.49441224315396]],[[22.498909421075016,65.49187889933287],[22.498481037349045,65.4919002075543],[22.49842973153038,65.49172229835541],[22.498909421075016,65.49187889933287]],[[22.49702126115265,65.49738663224042],[22.498735156756926,65.49730140495187],[22.498409321299018,65.4976785317932],[22.49712388124789,65.49774245149679],[22.49702126115265,65.49738663224042]],[[22.489288096148503,65.48261241197551],[22.491550109421834,65.48141723653228],[22.49247608289311,65.48010798942161],[22.49424011377881,65.48020073623246],[22.49521716494337,65.47906938525868],[22.497306774049587,65.4787849789299],[22.4983502397786,65.4808985920209],[22.49576289058577,65.48247098533307],[22.49634493077519,65.48298341728653],[22.493877984012148,65.48346701873513],[22.492746971382473,65.48406462818566],[22.490554420622885,65.48399315106509],[22.490451955036907,65.48363732579145],[22.489595440098544,65.48367989049181],[22.48997246917552,65.48348069589592],[22.489288096148503,65.48261241197551]],[[22.497965432433126,65.49463276779706],[22.49753700266126,65.4946540738103],[22.497485696738146,65.49447616429062],[22.497965432433126,65.49463276779706]],[[22.494846965869137,65.40690406773223],[22.494419965155977,65.40692535029608],[22.494368887602523,65.40674743742771],[22.494846965869137,65.40690406773223]],[[22.492652259493546,65.41585589488064],[22.492225110978985,65.41587717274327],[22.492122944246255,65.41552134561209],[22.492652259493546,65.41585589488064]],[[22.488534045935676,65.48301079672815],[22.489390541054917,65.48296823824809],[22.48944176466195,65.4831461513467],[22.488636482471012,65.48336662359766],[22.488534045935676,65.48301079672815]],[[22.487607778717944,65.48432002266509],[22.487128296613047,65.48416338370271],[22.487556564806468,65.48414210884546],[22.487607778717944,65.48432002266509]],[[22.487402927686645,65.48360836723603],[22.48649520259321,65.48347300042964],[22.489167181475413,65.48370117103244],[22.488841364771872,65.48407827703521],[22.487556564806468,65.48414210884546],[22.487402927686645,65.48360836723603]],[[22.488687701892427,65.4835445369947],[22.488259444592963,65.48356581494821],[22.48820822803363,65.48338790137682],[22.488687701892427,65.4835445369947]],[[22.486169349576908,65.4838501010376],[22.484884552942383,65.48391391008649],[22.484833358511466,65.48373599514586],[22.486169349576908,65.4838501010376]],[[22.475738504820082,65.3840354168068],[22.475789402846342,65.38421333781584],[22.47536275217762,65.38423456278478],[22.475738504820082,65.3840354168068]],[[22.463559113807484,65.38987387449701],[22.46398586757478,65.38985268191193],[22.46408753249094,65.3902085332019],[22.463559113807484,65.38987387449701]],[[22.462807251865176,65.39027210839203],[22.463660773043067,65.39022972613331],[22.46371160380194,65.39040765191409],[22.462807251865176,65.39027210839203]],[[22.45242547426243,65.4191174300561],[22.452222192789204,65.418405711148],[22.45136773289426,65.41844803818077],[22.451012059489983,65.41720252671168],[22.45181566638766,65.41698227213857],[22.450656423383354,65.41595701402481],[22.457064200475447,65.4156394803425],[22.457369285356254,65.41670704714072],[22.456291063394808,65.4174822914242],[22.457023369619492,65.4185286821495],[22.455894219552725,65.41912599654563],[22.4556703582767,65.41985888471642],[22.454113860404938,65.42047736087548],[22.452832073759023,65.42054086667889],[22.45250646181419,65.42091789212706],[22.449942829216663,65.42104486610799],[22.449312333653758,65.42035430077541],[22.45242547426243,65.4191174300561]],[[22.45476575912714,65.36360407101685],[22.45433942223343,65.36362523320132],[22.45428871749621,65.36344730297435],[22.45476575912714,65.36360407101685]],[[22.453212500255244,65.36422250464176],[22.452786151826235,65.36424366254462],[22.452684761235986,65.36388780083283],[22.453212500255244,65.36422250464176]],[[22.45118212147686,65.3646841451505],[22.450755763589182,65.36470529739881],[22.450705080571694,65.36452736574138],[22.45118212147686,65.3646841451505]],[[22.449852368192055,65.36456966629252],[22.449426010865622,65.36459081476808],[22.449375337109604,65.3644128825678],[22.449852368192055,65.36456966629252]],[[22.447771237158506,65.36485332953595],[22.44819760035012,65.3648321856879],[22.44824826711748,65.3650101183565],[22.447771237158506,65.36485332953595]],[[22.44739553430725,65.36505240519779],[22.447821901091142,65.36503126237714],[22.447872565781342,65.36520919519361],[22.44739553430725,65.36505240519779]],[[22.44701982578648,65.36525147998],[22.447446196162677,65.36523033818683],[22.447496858775622,65.3654082711511],[22.44701982578648,65.36525147998]],[[22.446644111596054,65.36545055388254],[22.44707048556459,65.36542941311686],[22.447121146100233,65.36560734622896],[22.446644111596054,65.36545055388254]],[[22.446865857868545,65.40874644541536],[22.446438780283927,65.40876759280289],[22.446388023585516,65.40858966043666],[22.446865857868545,65.40874644541536]],[[22.4462683917359,65.36564962690545],[22.446694769296812,65.36562848716726],[22.446745427755033,65.36580642042719],[22.4462683917359,65.36564962690545]],[[22.435566273413126,65.34777476543478],[22.435039098858542,65.34743999397655],[22.435465192385884,65.34741888896421],[22.435566273413126,65.34777476543478]],[[22.435790201489986,65.34704190652776],[22.436642373445178,65.34699969119623],[22.43631737717486,65.347376675342],[22.435465192385884,65.34741888896421],[22.435790201489986,65.34704190652776]],[[22.43305177430602,65.35565826007337],[22.432199315007548,65.35570045801187],[22.431997173318884,65.35498870026568],[22.432849609954662,65.35494650370488],[22.43305177430602,65.35565826007337]],[[22.431469893221266,65.354653917381],[22.431043678680528,65.354675012318],[22.4309931523228,65.35449707242591],[22.431469893221266,65.354653917381]],[[22.431144733661686,65.35503089202803],[22.430718512700164,65.35505198610977],[22.430667987664748,65.35487404609495],[22.431144733661686,65.35503089202803]],[[22.430819565036714,65.35540786606539],[22.430393337654223,65.35542895929188],[22.43034281394122,65.35525101915427],[22.430819565036714,65.35540786606539]],[[22.430595440058628,65.35614071959556],[22.430169200588885,65.35616181231107],[22.430118676687968,65.35598387210001],[22.430595440058628,65.35614071959556]],[[22.430494387345917,65.3557848394931],[22.430068153542283,65.35580593186427],[22.430017631151806,65.35562799160384],[22.430494387345917,65.3557848394931]],[[22.430270250656477,65.35651769265912],[22.429844004765197,65.35653878451926],[22.42979348218694,65.35636084418543],[22.430270250656477,65.35651769265912]],[[22.429945052187424,65.35689466511289],[22.429518799874426,65.35691575611767],[22.42946827861895,65.35673781566103],[22.429945052187424,65.35689466511289]],[[22.40976327391437,65.36041799274133],[22.40933694496236,65.36043902735872],[22.409286552010236,65.36026107882188],[22.40976327391437,65.36041799274133]],[[22.40891061525692,65.36046006077608],[22.40848428479807,65.36048109299338],[22.40843389751526,65.36030314411313],[22.40891061525692,65.36046006077608]],[[22.40714304584955,65.3710124417591],[22.406716542614774,65.3710334707325],[22.406666142818928,65.37085552138853],[22.40714304584955,65.3710124417591]],[[22.40364353399543,65.36017851579989],[22.404069864234568,65.36015749729827],[22.404120221663987,65.36033544794422],[22.40364353399543,65.36017851579989]],[[22.403267554763303,65.36037748409056],[22.40369388859008,65.36035646661743],[22.40374424393761,65.36053441741045],[22.403267554763303,65.36037748409056]],[[22.40234097263109,65.36168618914922],[22.402391321908684,65.36186414045675],[22.401964962390597,65.361885154502],[22.40234097263109,65.36168618914922]],[[22.401186212676077,65.3606605052772],[22.40203889277427,65.3606184807887],[22.40224027633436,65.36133028646054],[22.401488258512472,65.3617282156964],[22.401186212676077,65.3606605052772]],[[22.40202821672493,65.37433191115619],[22.401601654697057,65.37435292623765],[22.40155128181627,65.37417497490762],[22.40202821672493,65.37433191115619]],[[22.401511871507637,65.36028359030675],[22.401085536751946,65.36030460160787],[22.40098486383828,65.35994869784037],[22.401511871507637,65.36028359030675]],[[22.400884193934935,65.35959279397477],[22.400457869765724,65.35961380338966],[22.40040753877755,65.35943585124853],[22.400884193934935,65.35959279397477]],[[22.373528658066977,65.30699136664794],[22.374805153874398,65.30692858893005],[22.374679871629134,65.30801729889339],[22.373828839801437,65.30805915155499],[22.373528658066977,65.30699136664794]],[[22.37680743812983,65.30791264628533],[22.376932631952634,65.3068239354539],[22.377783617956027,65.30678206568231],[22.377508289053427,65.30733688912329],[22.37850947788572,65.30782890264636],[22.381012434959214,65.30752529007854],[22.381112595999554,65.30788121243236],[22.38196360807365,65.30783931871933],[22.382288935012078,65.30746244873754],[22.38356542833786,65.30739959662081],[22.384892020487015,65.30751469338054],[22.38509245017057,65.30822653174474],[22.38429153526948,65.30844640311685],[22.38481726291707,65.30878136712305],[22.383540706327118,65.30884423052292],[22.383014993374612,65.30850926189979],[22.380987572961416,65.30896992499366],[22.381813806993783,65.31037266617808],[22.380261860454087,65.31099033317037],[22.37936066675952,65.31085425654499],[22.379861222928387,65.30956664102209],[22.378960080388843,65.30943056147011],[22.378859941268956,65.30907463745767],[22.37673229089615,65.30917931998638],[22.37645691756046,65.30973414195412],[22.377358058519693,65.30987023653387],[22.377458181029713,65.31022616171687],[22.378259208531524,65.31000632561673],[22.378359343830038,65.31036225006824],[22.377608370398384,65.31076004930864],[22.37703263252025,65.31024709685175],[22.37618153326003,65.31028896352905],[22.376757255690467,65.31080191940494],[22.375530628523858,65.31104267890314],[22.374279162803262,65.30966082727232],[22.374679871629134,65.30801729889339],[22.37680743812983,65.30791264628533]],[[22.37197470207741,65.31681067260003],[22.375805609036828,65.31662233197905],[22.37530499078733,65.31484269996258],[22.376256367697323,65.31515676264388],[22.37743310503096,65.31473803289407],[22.376006050875556,65.31426694767245],[22.380737860830923,65.3142145810455],[22.380187180077424,65.31532423847412],[22.38081319337952,65.31601513811201],[22.37820926920759,65.31596283138528],[22.37745813843383,65.31636063148294],[22.377332944100502,65.31744934274484],[22.378234356103736,65.31758542929506],[22.377057507088917,65.31800416645925],[22.376782059105523,65.31855898978074],[22.375079319935367,65.3186427210035],[22.375279587142725,65.31935457410425],[22.374302863377626,65.32048514398329],[22.373451428305938,65.32052699863209],[22.372775439862615,65.31965810333335],[22.3709725342067,65.31938586018356],[22.367566892405108,65.3195531733799],[22.367291228751032,65.32010798150509],[22.36829273074283,65.32060005989223],[22.366639840135875,65.3208616632966],[22.366014073077796,65.32017070212605],[22.365212634568696,65.32039047714224],[22.365112630636006,65.32003454259907],[22.365964065832284,65.31999273518322],[22.365388339828925,65.31947973800453],[22.364111209110533,65.31954244220273],[22.36223254829977,65.32053676774319],[22.357499530251275,65.32058856402978],[22.356096238008085,65.32173990457885],[22.35607003841126,65.32318454889926],[22.355018720094936,65.3225144165586],[22.353215788353822,65.32224196070091],[22.354393213860725,65.32182340436246],[22.352640256513034,65.32172891272586],[22.35206474759707,65.3212158623132],[22.35291624600209,65.32117412816217],[22.35351811503076,65.32024252980455],[22.35474537865288,65.32000194351022],[22.354871515613592,65.31891324151074],[22.356098704849753,65.3186726449246],[22.35665046945792,65.31756306477138],[22.358303260375575,65.3173015722294],[22.359380475434385,65.31652703978958],[22.360657473705125,65.3164643771384],[22.361408866460742,65.31606665834227],[22.36358712788184,65.31614015436932],[22.365615412465086,65.31567971723769],[22.36664234564461,65.31472716848042],[22.36574108846659,65.31459101082842],[22.36564110404755,65.31423507643414],[22.36771921048594,65.31395257985464],[22.368846023461327,65.31335595011866],[22.368695993594585,65.31282205214438],[22.369497174896683,65.31260226118239],[22.368871542703772,65.31191131052068],[22.370573871073347,65.31182765382368],[22.37132498252629,65.31142988832903],[22.371049473721587,65.31198470176965],[22.372000695963017,65.31229879297241],[22.370723932107136,65.31236154960509],[22.371299597031985,65.31287452697599],[22.370698515675436,65.31380618846487],[22.37330221865117,65.31385862758371],[22.373402304760177,65.31421455583919],[22.370948648076098,65.31469601416006],[22.37197470207741,65.31681067260003]],[[22.380462197155733,65.31170217865933],[22.38003662771678,65.3117231225157],[22.379986545243934,65.3115451610093],[22.380462197155733,65.31170217865933]],[[22.379636455458463,65.3164338943324],[22.38006210132268,65.316412950827],[22.380112195508627,65.3165909121874],[22.379636455458463,65.3164338943324]],[[22.379260897382455,65.31663279834193],[22.37968654681942,65.31661185586357],[22.379736638928133,65.31678981737032],[22.379260897382455,65.31663279834193]],[[22.379110294673065,65.309964447306],[22.379060222497724,65.30978648538509],[22.379485761624142,65.30976554460425],[22.379110294673065,65.309964447306]],[[22.378885333656346,65.31683170147073],[22.37931098666611,65.31681076001944],[22.37936107669751,65.31698872167259],[22.378885333656346,65.31683170147073]],[[22.378084106949803,65.31705154294517],[22.378935420862643,65.31700966329463],[22.378985508816648,65.31718762509415],[22.378184272304768,65.31740746720283],[22.378084106949803,65.31705154294517]],[[22.37830943124127,65.31631875559395],[22.378359513379507,65.31649671766174],[22.377933864524554,65.31651765637586],[22.37830943124127,65.31631875559395]],[[22.378084040031744,65.31398430897309],[22.37723282216229,65.31402618281898],[22.377032551251393,65.31331433235407],[22.377933818781187,65.31345042218514],[22.378084040031744,65.31398430897309]],[[22.37705762071654,65.31186969597873],[22.37663204529877,65.3118906302546],[22.376581985417122,65.31171266738255],[22.37705762071654,65.31186969597873]],[[22.37610617536239,65.31462287373414],[22.375680554591,65.31464380577944],[22.37563049479858,65.31446584259012],[22.37610617536239,65.31462287373414]],[[22.375229770850584,65.31610937364496],[22.37480412523866,65.31613030346224],[22.374704011394197,65.31577437642504],[22.375229770850584,65.31610937364496]],[[22.3729513995731,65.31568011811308],[22.373377039698678,65.31565919359899],[22.373427087025213,65.31583715766605],[22.3729513995731,65.31568011811308]],[[22.373427087025213,65.31583715766605],[22.373902780127324,65.31599419565558],[22.37347713509883,65.31601512170872],[22.373427087025213,65.31583715766605]],[[22.37252634943785,65.3126338007344],[22.372951940798053,65.31261287792276],[22.373001978250688,65.3127908422331],[22.37252634943785,65.3126338007344]],[[22.373001978250688,65.3127908422331],[22.3734776127121,65.3129478821686],[22.37305201645018,65.31296880651907],[22.373001978250688,65.3127908422331]],[[22.37285131281113,65.31532418956473],[22.372425677588396,65.31534511253979],[22.372375638152807,65.3151671480585],[22.37285131281113,65.31532418956473]],[[22.37265114825113,65.31461233217588],[22.372751229037178,65.31496826091897],[22.37232559946417,65.31498918355285],[22.37265114825113,65.31461233217588]],[[22.372150789134896,65.31283268699985],[22.372576384066203,65.3128117652153],[22.372626419441378,65.31298972967187],[22.372150789134896,65.31283268699985]],[[22.371375759072315,65.30854061095658],[22.37095023191282,65.30856152864794],[22.37085020488706,65.30820559815263],[22.371375759072315,65.30854061095658]],[[22.370735050165088,65.39066515358657],[22.370308192754326,65.39068608299998],[22.370257993932334,65.39050811945543],[22.370735050165088,65.39066515358657]],[[22.36263586138566,65.3158260103662],[22.362210208247028,65.31584690459306],[22.362160236613434,65.31566893602022],[22.36263586138566,65.3158260103662]],[[22.35920037041061,65.32357228586079],[22.359626151204555,65.32355139885604],[22.359776071324358,65.32408530699107],[22.35920037041061,65.32357228586079]],[[22.35892449202669,65.32412708082435],[22.359350282048634,65.32410619450691],[22.359450226871687,65.32446213348291],[22.35892449202669,65.32412708082435]],[[22.31372876687125,65.39417092722694],[22.313301797753024,65.39419169621982],[22.313251977037844,65.39401370993868],[22.31372876687125,65.39417092722694]],[[22.30917224139878,65.41964972745862],[22.308744853357496,65.41967048773573],[22.308695005030756,65.41949250024176],[22.30917224139878,65.41964972745862]],[[22.307950273705938,65.39517353740393],[22.307523282765587,65.39519429023956],[22.307473498903086,65.39501630167887],[22.307950273705938,65.39517353740393]],[[22.280155981678657,65.42899402635781],[22.280106305939405,65.42881602771396],[22.280533870367144,65.42879534685798],[22.280155981678657,65.42899402635781]],[[22.279678740766858,65.42883670736529],[22.279629068626807,65.4286587085283],[22.280056630944983,65.4286380290462],[22.279678740766858,65.42883670736529]],[[22.279907610430474,65.42810403289927],[22.279052502175162,65.42814538964349],[22.27900283586828,65.42796739054155],[22.279907610430474,65.42810403289927]],[[22.279201505563865,65.42867938680574],[22.279151837022926,65.42850138777557],[22.279579397231508,65.42848070966733],[22.279201505563865,65.42867938680574]],[[22.277529964329847,65.43200742789669],[22.27795758324763,65.43198675380206],[22.278007251665088,65.43216475322363],[22.277529964329847,65.43200742789669]],[[22.276724384111738,65.43222677240053],[22.27757962989207,65.4321854274875],[22.277629296199063,65.43236342705431],[22.276724384111738,65.43222677240053]],[[22.276018102243714,65.43280211315307],[22.275590468181033,65.43282278189999],[22.27554081466147,65.43264478153506],[22.276018102243714,65.43280211315307]],[[22.27312392317566,65.43330277176571],[22.272268632460563,65.43334409186193],[22.272219000296513,65.43316609019186],[22.27312392317566,65.43330277176571]],[[22.202884199765148,65.38923946107619],[22.205151690143115,65.38804853033211],[22.206810488245154,65.38778864450458],[22.20713928019411,65.38741212048154],[22.208420157261646,65.3873507128027],[22.20874892074754,65.38697418554757],[22.209602822261992,65.38693323934476],[22.210177089734895,65.38744684633245],[22.213165776496403,65.3873034848001],[22.2120322737455,65.38789901234632],[22.20956868855284,65.38837793363703],[22.209289024504372,65.38893249031092],[22.20805716899995,65.38917193418318],[22.20782656159308,65.38990451658081],[22.204606839721908,65.39078035388113],[22.203900020497205,65.39135536211055],[22.20304596451131,65.39139627751563],[22.201897547058262,65.39036900585192],[22.202884199765148,65.38923946107619]],[[22.176419298173514,65.38581520703616],[22.1759923347363,65.38583558681715],[22.175894592576633,65.38547950535192],[22.176419298173514,65.38581520703616]],[[22.175747984825122,65.38494538297901],[22.17617493402916,65.384925004031],[22.176223805394514,65.38510304467871],[22.175747984825122,65.38494538297901]],[[22.17536990056162,65.38514380170507],[22.17579685334392,65.38512342379333],[22.17584572259442,65.3853014645843],[22.17536990056162,65.38514380170507]],[[22.097092029926294,65.34214764535412],[22.09666570073831,65.34216779408699],[22.09656922755892,65.34181164880792],[22.097092029926294,65.34214764535412]],[[22.07448272237156,65.339968240736],[22.07618797446404,65.33988789062664],[22.07628416347532,65.34024405175009],[22.075431527513626,65.34028422986289],[22.0728318594314,65.34184947081592],[22.071552816873293,65.34190970769025],[22.07093421737205,65.34121745410972],[22.07448272237156,65.339968240736]]],[[[22.50030888,65.51146578999999],[22.53793857163428,65.50958967405266],[22.538438536460774,65.5083154910509],[22.537152691753217,65.50837975538896],[22.536946263701566,65.50766818339387],[22.536192253959808,65.50806680559461],[22.53566044641394,65.5077324347578],[22.532711756118754,65.50806020713911],[22.53115199083236,65.50867951194428],[22.530878063692274,65.50923460069936],[22.528837981164923,65.50969738856324],[22.528203132141655,65.50900719809141],[22.525631306918996,65.50913554307215],[22.52456792706573,65.5084667228245],[22.523333548640185,65.50870876828922],[22.522682321162442,65.50946312281344],[22.521396373230502,65.50952725416798],[22.520864721595828,65.5091928296934],[22.521996133481565,65.5085950056344],[22.52179011610084,65.50788340877476],[22.52007561743649,65.50796890369293],[22.51974996930587,65.5083460746364],[22.51911539382007,65.50765584322237],[22.51611502067191,65.50780539348045],[22.51584077964995,65.50836045816521],[22.51460632092791,65.5086024331784],[22.514503411273186,65.508246628742],[22.512788860000825,65.5083320415454],[22.51258309584897,65.50762042956822],[22.511725838512373,65.50766312732395],[22.51109149130951,65.50697285990871],[22.510131409691596,65.50665974092654],[22.508845562543137,65.50672376448543],[22.50906852607993,65.50599080661911],[22.50649688436726,65.50611882418006],[22.505742443340395,65.50651729883312],[22.504885208698177,65.50655995756254],[22.504353828364383,65.50622547227384],[22.50354797536396,65.50644602984187],[22.502485267077674,65.50577704746281],[22.50361696501944,65.50517935808939],[22.50351422125378,65.50482354449416],[22.500188166706675,65.50534991419616],[22.498809575526394,65.50626886327687],[22.50030888,65.51146578999999]],[[22.51470923367629,65.50895823751367],[22.514280585548267,65.50897959322626],[22.51422913165491,65.50880169089619],[22.51470923367629,65.50895823751367]],[[22.513954841018602,65.50935675266578],[22.51352618560858,65.50937810631326],[22.513474735903678,65.50920020368359],[22.513954841018602,65.50935675266578]],[[22.51203445497032,65.5087305472386],[22.512463101229734,65.50870919791433],[22.512514542879583,65.50888710096994],[22.51203445497032,65.5087305472386]],[[22.512514542879583,65.50888710096994],[22.51299463652402,65.50904365311827],[22.512565985302658,65.5090650040003],[22.512514542879583,65.50888710096994]]],[[[22.543175319999996,65.50932815],[22.547607917205255,65.52458258170527],[22.548455603190817,65.52333534432901],[22.55190127281987,65.5217191169745],[22.552551931811973,65.52096464240711],[22.55426715491477,65.5208787717215],[22.554592444627872,65.5205015301053],[22.55545003847657,65.52045858580254],[22.55841434951875,65.5186858056985],[22.560025822360718,65.51824410372976],[22.559234590698807,65.51702040406494],[22.563144988451523,65.51700488592577],[22.563898828277424,65.51660613102756],[22.56528863774906,65.51689739821813],[22.566942130592313,65.51627302403227],[22.56460563,65.5082548],[22.58603399,65.50717843],[22.583438050000005,65.49828475],[22.559781469395745,65.49947246879806],[22.55913557142723,65.5002409023894],[22.559667516647743,65.50057518919365],[22.558810583537106,65.50061815065438],[22.558965799355118,65.50115180319825],[22.55778383199119,65.50157200721324],[22.558315788339648,65.50190629866393],[22.556106899504822,65.50328034450938],[22.55636553624263,65.50416977054348],[22.554274601967506,65.50445500752588],[22.549782473645767,65.50395806946453],[22.54945730599863,65.5043352994567],[22.544159858158366,65.50405898681431],[22.542068789128102,65.50434405630494],[22.542275324936536,65.505055620192],[22.543767573490744,65.50570287547625],[22.542910440713232,65.50574574881414],[22.54184676807142,65.50507705313996],[22.54098965201347,65.50511991541411],[22.54124779624347,65.50600937233615],[22.540442273863285,65.50623012319751],[22.541505959871458,65.50689882862254],[22.541180637167834,65.50727604239349],[22.54032344766643,65.50731890164018],[22.541010204928533,65.50818692977388],[22.543204889730212,65.50825765264808],[22.543788457926603,65.50876988607732],[22.542554253211737,65.50901208671715],[22.54265358625949,65.50935420546662],[22.543175319999996,65.50932815]],[[22.558377117249382,65.5170633686011],[22.558273571149915,65.5167076005301],[22.55870230252727,65.51668611921824],[22.559234590698807,65.51702040406494],[22.558377117249382,65.5170633686011]],[[22.562664453355403,65.5168484976088],[22.562235723248616,65.51686999014304],[22.562183923995608,65.51669210770602],[22.562664453355403,65.5168484976088]]],[[[22.910179020000005,65.57177592000001],[22.867246999999995,65.57401830999999],[22.864547079999994,65.56513062999998],[22.88600693,65.56401141],[22.88330187,65.55512412],[22.8618492,65.55624289],[22.85645951,65.5384672],[22.813576759999997,65.54069383],[22.821621299999997,65.56736001],[22.843085199999997,65.56624682999998],[22.851169489999997,65.59291102999997],[22.872652929999994,65.59179344999998],[22.880777130000002,65.61845565],[22.83776498,65.62069053],[22.84316246,65.63846683],[22.876244088942176,65.636747670968],[22.9146789756795,65.58648675009778],[22.910179020000005,65.57177592000001]]],[[[22.845864249999998,65.64735487999998],[22.848568079999996,65.65624285999999],[22.861863682538754,65.65555278605169],[22.869055662287888,65.64614790533636],[22.845864249999998,65.64735487999998]]],[[[22.004049350918137,65.363599971097],[22.00306696294481,65.36351235054524],[22.00325757288772,65.36422478274848],[22.004239988905756,65.36431240185073],[22.004049350918137,65.363599971097]]],[[[22.45577249635682,65.35618703233297],[22.45604640956497,65.35596170474302],[22.455660137049673,65.3557926787761],[22.45577249635682,65.35618703233297]]],[[[22.53096889851054,65.40600153119827],[22.530541947981074,65.40602291559674],[22.531020222312037,65.40617942909411],[22.53096889851054,65.40600153119827]]],[[[22.522053174511157,65.47574705730098],[22.522104603080173,65.4759249572051],[22.52253270201426,65.47590358491325],[22.522053174511157,65.47574705730098]]],[[[22.521933356113575,65.39869378375946],[22.522360195971903,65.39867242489542],[22.522308948575915,65.3984945232684],[22.521933356113575,65.39869378375946]]],[[[22.404436397084353,65.37367194499065],[22.40438600659824,65.37349399478863],[22.40395946044448,65.37351501638847],[22.404436397084353,65.37367194499065]]],[[[22.40481255199824,65.373472971988],[22.40476215942803,65.37329502193312],[22.40438600659824,65.37349399478863],[22.40481255199824,65.373472971988]]],[[[22.405188701236348,65.3732739981034],[22.405138306582124,65.37309604819569],[22.40476215942803,65.37329502193312],[22.405188701236348,65.3732739981034]]],[[[22.368970552083237,65.31533448737352],[22.3681192730988,65.31537631022417],[22.367943681756138,65.31628705139583],[22.37139893344572,65.3162976988783],[22.37067310109231,65.31525082729844],[22.369771806341934,65.3151146942026],[22.369596273579507,65.31602543670641],[22.36874497348763,65.31606726331685],[22.368970552083237,65.31533448737352]]],[[[22.282239190830484,65.40075058742906],[22.28238807100815,65.40128458274322],[22.282815184962733,65.4012638999125],[22.282239190830484,65.40075058742906]]]]}}]}