{"type":"FeatureCollection","features":[{"type":"Feature","properties":{"name":"Lulea kommun","source":"Lulea municipality/NMD working geometry"},"geometry":{"type":"MultiPolygon","coordinates":[[[[21.386430326032702,65.61782374544981],[21.379988116776097,65.64569702250138],[21.335719604672796,65.67162222320219],[21.4642333133396,65.69056304454172],[21.46896300128429,65.68512453729215],[21.468962191130295,65.68512457179767],[21.4689764042772,65.6851082258874],[21.46926738430913,65.68497387846172],[21.46965638804221,65.68491535395476],[21.4696603169137,65.6849151918593],[21.469661518844045,65.6849145820402],[21.472390771618063,65.6835368839034],[21.472413185850563,65.68352144086319],[21.47278608042198,65.6833492729471],[21.4728152502868,65.6833846053627],[21.47285349053273,65.68333696106521],[21.4728086026136,65.68333887430069],[21.4738809610252,65.6828437592543],[21.473951940954823,65.6827901475389],[21.473953497059636,65.68279635131289],[21.474030237124726,65.68274619548785],[21.474008929184514,65.68274710386771],[21.478910654582705,65.6790447909967],[21.479193489728402,65.6780872616104],[21.4775817962304,65.6768957902815],[21.473484671954857,65.67753878226839],[21.4733467483378,65.6775183703936],[21.473141287538056,65.67755825057722],[21.473442428147287,65.67754541190125],[21.472768399371798,65.6776511922175],[21.470743135758,65.6770716098528],[21.470578609024006,65.67689609339087],[21.46967236141341,65.67590409327077],[21.469701693059584,65.67590284341246],[21.469562623385006,65.67574189365888],[21.469577152431075,65.67579987526146],[21.468180320920734,65.67427087037382],[21.46795242941768,65.67336602206396],[21.468178202854173,65.67279804390579],[21.46978610954811,65.6713969107478],[21.469830875453795,65.6714562875379],[21.469898090621147,65.67138946075265],[21.46978934023146,65.67139409552378],[21.4705270967509,65.6707512129947],[21.471482884664937,65.66856284512683],[21.4743493985067,65.6670220177393],[21.475667520688674,65.66541082463415],[21.475925480973604,65.66532782638576],[21.4763281425756,65.6652523717104],[21.4822594486476,65.6632898839081],[21.496868220178,65.67564379742059],[21.49973764801554,65.6780438872947],[21.512949977589198,65.68908854577039],[21.5139033497979,65.6883749236592],[21.5302706470489,65.6990800899318],[21.528243782774297,65.6993249842718],[21.527440631057264,65.69974261994574],[21.527509865435235,65.69973964504398],[21.5274392334781,65.6997795518568],[21.524197486240205,65.69950877145611],[21.523241597088905,65.6996473029694],[21.523198474985143,65.69965724200891],[21.52084567503469,65.70000690924991],[21.520461275449854,65.70004231491606],[21.52058259707679,65.70004600723769],[21.520368252931693,65.70007786252816],[21.5202830403602,65.70007655183994],[21.520243701088244,65.70009637311145],[21.5199615503057,65.7001383056547],[21.51979163163374,65.70032415036697],[21.5193722410434,65.7005354622278],[21.519144000281425,65.70103248254107],[21.518635489634402,65.70158865458379],[21.517536752754243,65.70219964740035],[21.51604563723315,65.70288121469639],[21.515801816208,65.7029494139153],[21.515943015070157,65.70292812179994],[21.515773964634498,65.70300539230428],[21.515766117811665,65.70297434107528],[21.515622499240305,65.70307462494098],[21.514605787075155,65.70353934933789],[21.514597041853214,65.70354169013426],[21.51459837653621,65.70354273658785],[21.5144748969244,65.703599177329],[21.514374719732405,65.70372742147971],[21.51443584040462,65.70372480108702],[21.5142309271599,65.7043838964702],[21.512739737426468,65.70484856649212],[21.512738864422538,65.70484511052956],[21.512617928836654,65.70488399292964],[21.512627344111543,65.7048835894023],[21.5123623446492,65.7049661659539],[21.512337137668357,65.70498675153512],[21.512336671919325,65.70498490767508],[21.512203734347935,65.70508195486231],[21.5122214934284,65.70508119378142],[21.51217348399482,65.70512040125733],[21.512139914817396,65.70512854415058],[21.512129185702086,65.70515657798585],[21.5117284809553,65.70548381829119],[21.512039469093597,65.7055608222587],[21.51177678439599,65.7054656227669],[21.51179161193472,65.70546003735026],[21.51201673787645,65.70545039007835],[21.512313830887567,65.70526332159872],[21.513840839722054,65.70468810944132],[21.51397486691081,65.70464561939258],[21.513950911499165,65.70464664627298],[21.51439634134778,65.70447885636999],[21.51440165269033,65.70449987739538],[21.51452499557388,65.70444182427676],[21.514490752855185,65.70444329230145],[21.514646633268605,65.7043845733819],[21.514971910786826,65.70360566437623],[21.51541034862643,65.70332629724719],[21.51541686935455,65.70332348607083],[21.51542607984059,65.70335993510828],[21.515526742323203,65.70331760485207],[21.51541988282848,65.70332218692042],[21.515539262083387,65.70327072086741],[21.5155411778491,65.7033115344556],[21.51569209470807,65.70320483260258],[21.516544243562244,65.7028374594092],[21.516604187332526,65.70282842017437],[21.51706244556983,65.7027111105259],[21.516812448134267,65.70272183269724],[21.51817828000928,65.70213300362697],[21.518180642170005,65.70214234804195],[21.51822657785102,65.7021205388005],[21.51820505099699,65.70212146228276],[21.5184179602416,65.7020296741536],[21.518927272484955,65.7016348934399],[21.518936683144826,65.70167211746711],[21.51910060072425,65.70154240400909],[21.519043429868248,65.70154485693426],[21.5201819914869,65.7006623292231],[21.5232593822156,65.7003812874747],[21.544785162599,65.7125022737638],[21.5428497051588,65.7133466038148],[21.542961554437202,65.71360754221249],[21.54273406247493,65.71367210917883],[21.537574138261107,65.71479123245427],[21.537568064674982,65.71476729213013],[21.537265980467662,65.71481881099477],[21.537491754342717,65.71480910049976],[21.536815058786882,65.71495586733501],[21.536743193859586,65.71496638590497],[21.536731913979832,65.71497390040777],[21.5366897539651,65.7149830443897],[21.536601499010928,65.7150276047686],[21.5366270961007,65.7150265039756],[21.536352936414698,65.71521666153261],[21.536242409058996,65.7152089090466],[21.536228013484934,65.7152238823339],[21.5363500945949,65.71521863262295],[21.5359988027099,65.7154622891854],[21.53618782097982,65.71622633379735],[21.535043734467898,65.7164659341701],[21.535240089310832,65.71670809229599],[21.53523499995004,65.71670831110518],[21.53542176952557,65.716934428465],[21.534807323879296,65.7173674745471],[21.53280140455207,65.71723357295953],[21.531985809433,65.7171071716773],[21.531285102844276,65.71713235492788],[21.5299125269204,65.71704073105609],[21.529193379506296,65.71705276226959],[21.52847496461,65.7172779346629],[21.5293403066793,65.71712837554242],[21.52970494019334,65.7171179297306],[21.529788587653332,65.71712258327442],[21.52970568859807,65.71712614440833],[21.530298067069165,65.71716782879051],[21.534313700656767,65.71746794926005],[21.533371340794517,65.71732190192343],[21.53480941176621,65.71740190586229],[21.53474286053426,65.71743415275655],[21.53482857833916,65.71740297215273],[21.534904883833196,65.7174072172423],[21.5357571681139,65.7170651894725],[21.53604074165608,65.71631957197137],[21.536076784737524,65.71630920910567],[21.53620463266669,65.71629428954985],[21.53620863354901,65.71627130081733],[21.53646580519599,65.71619736054559],[21.536369597663995,65.71534641458248],[21.5371064424355,65.7149721166425],[21.53985472868254,65.71472275279994],[21.540288674659198,65.7148248332908],[21.5502525028568,65.7125621389392],[21.550254686043292,65.7125343071078],[21.551251650487302,65.7123051709896],[21.5522069420123,65.7119327539873],[21.552516986133686,65.7117180739769],[21.5528966850251,65.7115418993109],[21.552888456571274,65.71146086130327],[21.55291630186372,65.71144158073234],[21.552866586989698,65.71124547851612],[21.552866248990444,65.71124214972716],[21.552916585932845,65.71144012802587],[21.5529409102454,65.7113157349336],[21.552860602213208,65.71118653738657],[21.552825570729098,65.71084152947411],[21.553432976773145,65.71051556795773],[21.554805407211337,65.70986054982366],[21.55708758946175,65.70936862182712],[21.55748208840799,65.7092912707078],[21.560325476776697,65.7092793318763],[21.5626766795133,65.7090145678696],[21.56277880538355,65.70895908055637],[21.562796631756395,65.70895675354669],[21.56285344657663,65.70891852629475],[21.56299023596475,65.70884420550213],[21.56296774661151,65.7088416207231],[21.56311264423828,65.7087441278848],[21.56317146840822,65.70874556907293],[21.563200177387134,65.70868523212978],[21.5635124569282,65.70847511813771],[21.563455580047787,65.70814845874399],[21.563700872243,65.7076329342706],[21.5632883095549,65.7071877788087],[21.567052784559248,65.7046243717269],[21.56725983964488,65.70451459855907],[21.567259838586974,65.70451459860479],[21.567312950414998,65.70448644086758],[21.567314329670204,65.70444627342928],[21.567325370575794,65.70443875516033],[21.567333181318762,65.70446941845258],[21.567557414132796,65.7042807458505],[21.567732185219402,65.70302545486479],[21.568600615609302,65.70257494873783],[21.5686032153742,65.70258515328017],[21.568914308209,65.70246061224319],[21.56881253775435,65.70246501220647],[21.56898704024749,65.70237448745833],[21.568997906927642,65.7024171389237],[21.56931308614463,65.70226314593081],[21.569191540275582,65.70226840121735],[21.569373459809995,65.7021740288119],[21.569388862226905,65.7022344798604],[21.56977914534149,65.70206276902856],[21.569570545302977,65.70207178892812],[21.56975987431881,65.70197357278711],[21.56978208308149,65.70206073275334],[21.57003714071999,65.70187138801553],[21.569949552413014,65.70187517555851],[21.570135039338197,65.7017789525368],[21.570393921169302,65.7010783254206],[21.5696750561076,65.7000587393048],[21.572000955281197,65.6992102608194],[21.572594263015198,65.6991984660197],[21.5733615975198,65.6992013110724],[21.573349775699196,65.6993014105471],[21.577023621280798,65.69911041155729],[21.577021891291533,65.6990423103784],[21.577034689974393,65.69904545638859],[21.57701507795716,65.69877410287405],[21.576993559614696,65.6979270314383],[21.5824539395028,65.6958827962415],[21.583832175591358,65.6946057698483],[21.584240262270864,65.69422762476528],[21.594887991820695,65.68409242363708],[21.602353096370795,65.68061420535545],[21.646208231684998,65.6683622099073],[21.745842807083296,65.687754318263],[21.7471919539947,65.6867981132322],[21.79996174760049,65.69715397359967],[21.79998572574591,65.69715883468436],[21.79998600955767,65.69715873491145],[21.800093780644694,65.69717988455508],[21.7980203147658,65.6980107669024],[21.7845031491445,65.7115361020494],[21.78828433265784,65.71264706283942],[21.7894312956748,65.7129840175618],[21.791822237979996,65.7128483850033],[21.794551893465197,65.71333500932559],[21.797034060496596,65.71225038380149],[21.79776207272886,65.71258223197992],[21.79785084077285,65.7126074987992],[21.8323387059353,65.7276863813909],[21.85934975255209,65.73660966659398],[21.860872736887874,65.73696997982269],[21.862744937694163,65.7374128769611],[21.862793018493534,65.7374242025487],[21.862792847609512,65.73742421026245],[21.863212719990226,65.73752353184082],[21.863212587003442,65.73752303326634],[21.86343534449227,65.73757550451232],[21.863432899353437,65.73757561489522],[21.863680506248762,65.73763418524791],[21.86368024093846,65.7376331906612],[21.928576351508095,65.75291967911168],[21.8927670500667,65.78259380256839],[21.889326042364598,65.7827794387792],[21.88976297798546,65.79895025392703],[21.889767628958733,65.79896823333846],[21.889769600324804,65.79904050464542],[21.889765119556177,65.79902381954321],[21.88976821997695,65.79913032141855],[21.88977204556381,65.79913014838111],[21.889816248006696,65.80075063296194],[21.889815404240206,65.8007509287499],[21.8898288677409,65.8012132789913],[21.8935171750365,65.8014977018564],[21.9118004091458,65.8050042301075],[21.910167195661398,65.80524084119858],[21.901863570158802,65.8077793446921],[21.903262982456603,65.8083083207151],[21.910730394171097,65.80612738360568],[21.913961511373696,65.806789765772],[21.9160369489784,65.8058332176593],[21.9754222408969,65.8169822598514],[21.9707666452625,65.8194477022521],[21.9701276231376,65.81943639237859],[21.969757934719297,65.82116932005019],[21.968465025901395,65.82127322350749],[21.9656052389585,65.8221034553354],[21.964140765741895,65.8220339890552],[21.961096475170198,65.82359109141689],[21.9572422401993,65.8245854641044],[21.956919453962197,65.82480485305888],[21.960721785727856,65.82619837132783],[21.960859836215302,65.82624896082363],[21.96085983607162,65.82624896029479],[21.9608738560692,65.8262540984716],[21.96107435742842,65.82618227126774],[21.96106523436035,65.82618268787311],[21.961253305151914,65.8261125114299],[21.961263183239364,65.826114626089],[21.96165125042611,65.8259756026207],[21.961615888788224,65.8259772175347],[21.96164703804977,65.8259655945476],[21.961664010196962,65.82597103144374],[21.96277855448833,65.82556346740915],[21.962864081665522,65.82553147482945],[21.96286408294545,65.82553147953922],[21.96332777452997,65.82535805546611],[21.963327679737638,65.82535805979624],[21.963662572616457,65.82523278865473],[21.963662584349567,65.82523283182468],[21.963876985769023,65.82515264162734],[21.963876811981798,65.82515264956682],[21.964860279225572,65.8247847705462],[21.964860301568283,65.82478485273965],[21.964975381839935,65.82474180826289],[21.964975097457824,65.82474182125725],[21.96991772846867,65.8228929643003],[21.96997205792197,65.82285920955562],[21.970098073869558,65.82281218816055],[21.970049925777236,65.82284350586816],[21.982258949284905,65.8182744979857],[21.987669615495996,65.81927977152759],[21.987478239706697,65.81978209102098],[21.9888250357328,65.82019783074881],[21.9894381480026,65.821523831783],[21.992835373454895,65.82378573195848],[21.996865315290396,65.82466719820559],[22.000102174803395,65.82635636778309],[22.013011083595195,65.82541387501558],[22.02744975634931,65.82529476162806],[22.029006894331996,65.82595166419199],[22.027938725611897,65.82749612230319],[22.0283251151354,65.8281199669786],[22.02924933142259,65.82856699719456],[22.0296664170796,65.8289077911648],[22.029975625690426,65.82891829535701],[22.030081191890705,65.8289693562201],[22.036546083441344,65.82924181308816],[22.036944729877725,65.82935780052095],[22.0380542999306,65.8304939237916],[22.037182483703194,65.83259770940398],[22.038503824124795,65.8330860346052],[22.040598644065987,65.83336585168092],[22.041156936977362,65.83349138688496],[22.04129584152218,65.83366109930907],[22.038858893516796,65.8372983937727],[22.0399566493709,65.838194659804],[22.0379314454906,65.8381747615372],[22.0371998296606,65.8386172767549],[22.038333001199153,65.83940744747356],[22.038362019719195,65.8395527718564],[22.038408539902328,65.83953515987609],[22.038417742802928,65.83956863479598],[22.038482690893762,65.83956770014153],[22.038459841169743,65.83958061909964],[22.03864358392514,65.83962401960537],[22.03935221903984,65.84011815725249],[22.0394071885122,65.84045685543228],[22.04139332517376,65.84190015254279],[22.04181478013229,65.84284023483497],[22.04164023107635,65.84318104983372],[22.041289977114868,65.84361073717305],[22.041285707265942,65.84359521543867],[22.041012092512364,65.8437910414967],[22.041108553382788,65.84383330562139],[22.040988263734715,65.84398087551214],[22.04088097040683,65.84403986151808],[22.0408215971621,65.8439831651889],[22.04064681105619,65.8441685938924],[22.04053087897572,65.84454198962293],[22.04047975413645,65.84460470895968],[22.0405830556537,65.84424139925534],[22.039628032533997,65.8456495907582],[22.037936460471695,65.8466875109002],[22.037023806933895,65.8490898346588],[22.032684229489405,65.8538993682954],[22.0266251450639,65.8583335150554],[22.022529965499597,65.86266840267518],[22.022361094134695,65.86433186963949],[22.0211783895273,65.8644428710266],[22.0210181884681,65.8639631911008],[22.019600180741598,65.8641017779292],[22.01950748071383,65.8642761739807],[22.0193427855452,65.8643102949204],[22.018884050725198,65.8651961064818],[22.018876256858565,65.86518965025898],[22.01878069288821,65.86537438391953],[22.018791995480825,65.86537386407988],[22.01869632505601,65.86555860254902],[22.018793290285274,65.865619776499],[22.01689533391029,65.86919039137018],[22.0112415155025,65.87255264185552],[22.012457719614815,65.87287852615495],[22.012457704859894,65.87287853033396],[22.0135471249599,65.8731704344737],[22.107923064384703,65.8449698768325],[22.1148123547497,65.8485149900357],[22.049465395428,65.8794533107134],[22.022823513844614,65.90437192352101],[22.01920686233266,65.90773439784256],[22.018195401942705,65.90868254859801],[22.007222721978298,65.9189636140813],[22.0019353875304,65.92241000824922],[22.002079726019794,65.92380092892108],[21.9996787954279,65.9241376999014],[21.9984924555346,65.92463453759049],[21.968221552283797,65.9444363580554],[21.877575256392,65.9555147827794],[21.868348084993197,65.95730215284608],[21.865751494087103,65.9605530593096],[21.868845985511,65.960964207228],[21.867867110449303,65.9622958650152],[21.8667001464819,65.9636502011243],[21.8644403981776,65.96335229908789],[21.8638625956755,65.9640749165223],[21.863026170237397,65.96396377968549],[21.851289627612,65.9785136256998],[21.8561775293252,65.9899604809214],[21.8818694388133,65.9910675429134],[21.891141631574804,66.0017016340875],[21.904183792713198,65.99793397967458],[21.90936741921629,66.00144916753429],[21.9397789769298,66.0373050184822],[21.976953008268705,66.0559959446863],[22.0136293703421,66.060586026915],[22.008230583841296,66.0732173389712],[22.03626337152649,66.07013388903128],[22.031109857638803,66.084658157566],[22.059047290590193,66.08606918406775],[22.059190566565462,66.08607489532234],[22.062804659341516,66.08625723479618],[22.062790939751764,66.08625786539368],[22.062969987958148,66.08626688713451],[22.0629696167876,66.08626555728699],[22.0752369731055,66.0868844742421],[22.0707176330452,66.1107419882898],[22.023158573970804,66.1084767489971],[22.019765175093,66.1222348233079],[21.9896575247406,66.1499909292725],[21.9693138541253,66.1547301389187],[21.977829529293,66.1604656431384],[21.9911464010627,66.1545775312495],[22.0186204915664,66.1571845854618],[22.025602041348794,66.17362274623329],[22.0245274758744,66.1740364058636],[22.061481738896205,66.1834315481004],[22.031560542394896,66.20273806971629],[22.032294415898,66.2091895612814],[22.026533323426996,66.2400808919396],[22.082437394802795,66.25470118485988],[22.064257672773497,66.26793824771369],[22.064305399247377,66.26794833409792],[22.064305396969015,66.26794833420206],[22.064398368463326,66.26796798362174],[22.064398367966177,66.26796798185615],[22.066735658005197,66.26846193842759],[22.069024407766,66.2668729694828],[22.146396801063197,66.28328406772708],[22.2278452618325,66.22147389139063],[22.22781677249408,66.22144808236682],[22.227827596974013,66.22143986150442],[22.227835372690695,66.22143949725498],[22.227877333160745,66.22141050965102],[22.227893747808434,66.22143676260616],[22.228144547113477,66.22124470774213],[22.2281153572039,66.22124607520384],[22.22839534265498,66.22105265250478],[22.231834505333374,66.2183967367981],[22.235164819125,66.21586746503289],[22.264014392490967,66.19354561001707],[22.3223947698028,66.14846098461129],[22.326113730482636,66.14549732862156],[22.3321639696796,66.1408160613996],[22.346793428725096,66.12901758687697],[22.362888954449282,66.11619099221065],[22.362886769142538,66.11615940790641],[22.36501377351233,66.1144737046818],[22.412222427763496,66.07624992296029],[22.417919584043393,66.0691376874087],[22.419090794288145,66.06837668468096],[22.41913067193696,66.06835076822303],[22.419130673097516,66.0683507721828],[22.419390816473523,66.06818173440506],[22.41939076004304,66.06818173713266],[22.419503921542212,66.06810819354821],[22.419503932827094,66.06810823205011],[22.419690834102795,66.06798678358673],[22.419690727065245,66.06798678876072],[22.4252049166363,66.0644031205579],[22.4261201500315,66.0647297179114],[22.4888737950768,65.99186633735212],[22.5419988865425,65.9562887138297],[22.5386986646834,65.9416945515295],[22.537764972505403,65.9337743235569],[22.5433473916104,65.9265674236356],[22.541291268347187,65.9262193441009],[22.540752183600812,65.92561849703651],[22.54072548139269,65.92537704793803],[22.542537171285296,65.92442508927408],[22.545049391241903,65.9243586643289],[22.55804323216899,65.90731222288468],[22.577316257088295,65.8751080278079],[22.5758580737733,65.87466723085278],[22.576707119680897,65.87437791295],[22.577513074477796,65.87476611325579],[22.5945675238464,65.8451561656616],[22.620921646535795,65.80538094715318],[22.620672376052863,65.80434394643079],[22.620891424514415,65.80326483650175],[22.62148512100128,65.80293669241426],[22.621591840811675,65.80290516128888],[22.622434215880606,65.8030876421507],[22.6312975495707,65.7903427182051],[22.639986277471895,65.78703463672049],[22.645386917472894,65.78236438831038],[22.6575697113765,65.7756053006684],[22.6466010174261,65.7675209826933],[22.629626611492498,65.76057883753],[22.604195119519396,65.74896748549598],[22.636865963714005,65.73790735481191],[22.6519919525198,65.7256029751429],[22.692209173666996,65.73394201467839],[22.7107938778677,65.7308010551863],[22.7169667140691,65.7103161878469],[22.7354728450427,65.7111853927368],[22.7390399327984,65.7110226303001],[22.745418013632495,65.709109227441],[22.747244315396795,65.7065474501637],[22.747715649125997,65.69814462065249],[22.8019485963681,65.6980889054477],[22.834625625970205,65.691171722962],[23.043952659174895,65.41743683403658],[23.1383421263494,65.2880901187065],[23.089750185962696,65.28445681869319],[23.089709002936797,65.2756147460627],[23.089149878122804,65.27170474749994],[23.089006707861,65.2686634456045],[23.08821714252396,65.26518206283336],[23.0877229961228,65.2617264628135],[23.086651953647422,65.25828077001724],[23.085865544434196,65.25481330335228],[23.083434648887803,65.24793025256491],[23.080431850646793,65.2410880822697],[23.0785097264991,65.23770887424658],[23.07686374182269,65.23429273268009],[23.07465422764003,65.23093067904344],[23.072734007836395,65.22755481896989],[23.070255898050792,65.22423806756048],[23.068049187509,65.22088028001592],[23.062814772555996,65.214278717246],[23.057037804082093,65.2077578360096],[23.053737574939408,65.20455465574582],[23.050723183384996,65.20132545108389],[23.047169712774068,65.19817993279365],[23.0438821336382,65.1949890305416],[23.04008672910788,65.19191010334777],[23.036523732882095,65.1887561530205],[23.0286527983404,65.1826346123978],[23.011423917751596,65.1707541953058],[23.002086021599,65.1650103332603],[22.982021613701995,65.1539487475862],[22.971321041627803,65.14864482772902],[22.96565982115622,65.14611757961923],[22.960190125166896,65.1434996447016],[22.95429651524806,65.14104484070695],[22.9486418863903,65.1385205351859],[22.942577084561098,65.13616346822698],[22.936695353363596,65.13371361195249],[22.924360538612298,65.1290836625267],[22.8985886497093,65.1203780521599],[22.885184620758892,65.11631308182429],[22.8574198396373,65.1087830198622],[22.8430911307973,65.1053259673164],[22.83569505419357,65.1037507692057],[22.8284889099152,65.1020815640313],[22.821014466802165,65.100624133996],[22.813630577896,65.099051531591],[22.806024276093424,65.0977012200286],[22.7985321811466,65.0962403480897],[22.790817083564644,65.09500155750713],[22.7832160680862,65.09365218440139],[22.767695334584204,65.0912889661128],[22.736125520193397,65.0872488627787],[22.703969492420804,65.0841417016372],[22.687722653553603,65.08294181426642],[22.67952474491221,65.08252022778073],[22.671386243666497,65.08198038309648],[22.66318371895788,65.08167987251383],[22.6549815048834,65.0812580646165],[22.64671802984318,65.08107662973121],[22.6385276832449,65.0807765653101],[22.630302904112824,65.08071621520351],[22.622043315924998,65.0805348656589],[22.613793295310714,65.08059507436373],[22.605549814407997,65.0805345870311],[22.597304406543987,65.08071541038264],[22.5890680589074,65.08077551930198],[22.580856807190077,65.08107610934248],[22.572612357522697,65.08125691168058],[22.564422022503173,65.08167773900439],[22.5562078378235,65.0819784364121],[22.54806243104896,65.08251831061395],[22.5398709130982,65.0829391987179],[22.5236222511317,65.0841381956597],[22.4989570328592,65.0864342959367],[22.4512775467598,65.06965380799399],[22.3200684113133,65.1466372251174],[21.9374845157948,65.3623116230953],[21.91511452981316,65.39805681596809],[21.8965430369557,65.4098674252637],[21.8968804845521,65.4102418579027],[21.896177249983197,65.41091905670498],[21.8947113936792,65.41103211407068],[21.8261066450842,65.4547489334365],[21.811818767399078,65.45865060130734],[21.80979561974071,65.4592040086375],[21.809820430633163,65.45920748729802],[21.807991971836,65.45970805064594],[21.807849727054904,65.45973588149013],[21.807861077588502,65.45974388457496],[21.807370380665088,65.45987821896367],[21.807367620308835,65.45986764908308],[21.807059578153794,65.45995184051542],[21.807109726870838,65.45994957618326],[21.806456966960035,65.46012827733138],[21.806153573891205,65.4601994550984],[21.734500089379296,65.47982736795579],[21.7006410660238,65.4950666143222],[21.706055212681303,65.49519595083632],[21.7080442931098,65.4961800488123],[21.7067212813019,65.49719399633298],[21.701115315187,65.4978391591672],[21.697079318894,65.4966573130568],[21.6859942841095,65.5015726409177],[21.6864094150001,65.501752532776],[21.6842604961126,65.5023431873278],[21.6727462692944,65.50745750230858],[21.563362891365195,65.5565632445219],[21.5045049055753,65.5841246608306],[21.489871940594995,65.5913153872518],[21.414022831188028,65.6139820959403],[21.408344995847184,65.61569905414149],[21.395991675803796,65.61943996494709],[21.386430326032702,65.61782374544981]],[[21.51201673787645,65.70545039007835],[21.511979818193815,65.70538914154018],[21.512050346887847,65.70536257393864],[21.51201673787645,65.70545039007835]],[[21.530298067069165,65.71716782879051],[21.53029372223907,65.71715068533426],[21.530482639081793,65.71716119531035],[21.530298067069165,65.71716782879051]],[[21.53620463266669,65.71629428954985],[21.536199469658282,65.7162739355579],[21.536199588785376,65.71627390130726],[21.53620463266669,65.71629428954985]],[[21.55291630186372,65.71144158073234],[21.55288796153768,65.7114559859601],[21.552887273867984,65.71144921343839],[21.55291630186372,65.71144158073234]],[[21.583832175591358,65.6946057698483],[21.58381358687887,65.69459353440115],[21.583818200290143,65.69458915981461],[21.583832175591358,65.6946057698483]],[[21.960721785727856,65.82619837132783],[21.960721791842364,65.82619836858444],[21.960721797821165,65.8261983707756],[21.960721785727856,65.82619837132783]],[[21.961664010196962,65.82597103144374],[21.961661106512278,65.82596034506334],[21.961680233689943,65.82595320797795],[21.961664010196962,65.82597103144374]],[[21.573362274554206,65.69919557838612],[21.573250504944497,65.69918542010495],[21.573363740109347,65.69918316902005],[21.573362274554206,65.69919557838612]],[[21.536252621656413,65.71601854886055],[21.5363335109483,65.7161958226687],[21.536217542747348,65.71622010931475],[21.536252621656413,65.71601854886055]]],[[[21.472390771618063,65.6835368839034],[21.472412786422186,65.68362466888217],[21.472575268012687,65.68352902066037],[21.472390771618063,65.6835368839034]]],[[[21.51201673787645,65.70545039007835],[21.512043392093638,65.70555591468303],[21.51214274070689,65.70544499034756],[21.51201673787645,65.70545039007835]]],[[[21.534313700656767,65.71746794926005],[21.53474286053426,65.71743415275655],[21.53430418153904,65.71743041340093],[21.534313700656767,65.71746794926005]]],[[[22.2278452618325,66.22147389139063],[22.227893747808434,66.22143676260616],[22.227835372690695,66.22143949725498],[22.2278452618325,66.22147389139063]]],[[[22.040923856965378,65.84388003165128],[22.04082469856216,65.84398003730247],[22.0409497776849,65.84397426251404],[22.040923856965378,65.84388003165128]]],[[[21.846793929874334,65.8914885161919],[21.846843530175,65.8914889233813],[21.84697075176605,65.89138739491891],[21.846889598908678,65.89143380478458],[21.847139898476833,65.89113433571191],[21.84715701684071,65.89119820508604],[21.84739972239508,65.89082728405876],[21.847396411621233,65.89082743245174],[21.8474079185891,65.8908136650249],[21.8451403786534,65.8907090369999],[21.845237731905595,65.891344196449],[21.846793929874334,65.8914885161919]],[[21.846793929874334,65.8914885161919],[21.84679734644664,65.8914847609473],[21.84680006750617,65.89148500619018],[21.846793929874334,65.8914885161919]]],[[[21.5241088871725,65.7179946513131],[21.52353243714646,65.71810755667973],[21.523529053750725,65.71809419342111],[21.523439155853243,65.71811604965887],[21.523503081185343,65.71811330643322],[21.523232261985896,65.71816634995758],[21.521586824287304,65.7189465378717],[21.52117991964208,65.71930301456818],[21.52047562358065,65.71965461968793],[21.520424990800766,65.71966616546786],[21.520424615932328,65.71966468426318],[21.520301360428757,65.71969237053426],[21.520312089285042,65.71969191037176],[21.51798477680749,65.72022260684409],[21.51773835881815,65.72031576184384],[21.5177229514815,65.7203145941376],[21.517680949544225,65.72033746464611],[21.517157198782733,65.7205354615626],[21.517143539378598,65.72053834917021],[21.51714117438264,65.72052900007061],[21.517038625997717,65.72055312101286],[21.517082575268905,65.72055123702573],[21.516727571766097,65.72062628501509],[21.515975734409707,65.72098209824554],[21.51554578008792,65.72114463668215],[21.515539426987104,65.72111951663221],[21.515461662280497,65.72116134740122],[21.51550667946454,65.72115941814585],[21.51453462832578,65.72152688897796],[21.513737640483896,65.72177585544668],[21.51393420976905,65.72175386912114],[21.513814700119045,65.72179904813363],[21.5137290741594,65.7217780155565],[21.5135557852106,65.72189692742522],[21.513969748057885,65.72183713305257],[21.51385020763199,65.7218077699571],[21.514083253991053,65.72173719848625],[21.5144657529605,65.7216944158773],[21.514605296615468,65.72157911270452],[21.514907793355874,65.72148751015821],[21.514773047058224,65.72155127995504],[21.514995651350766,65.72146090485981],[21.5210012337992,65.7196422847861],[21.521115278216133,65.71955975880188],[21.5211579577043,65.7195473568424],[21.52121742544815,65.71948584197996],[21.522277682237828,65.7187186081473],[21.52229348728056,65.71870934164302],[21.523663313666557,65.71827098859139],[21.5260591189458,65.71809572262879],[21.5264814462209,65.7180192471127],[21.52696531973402,65.71783512931034],[21.52708087405761,65.71777951504637],[21.5277943284596,65.7174652397687],[21.5273910689609,65.717551362066],[21.527318140101077,65.71760500233071],[21.526486054787405,65.71784922160481],[21.525312974488504,65.71801063679645],[21.5241088871725,65.7179946513131]],[[21.52708087405761,65.71777951504637],[21.526952626587864,65.71778502158656],[21.526949390174114,65.71777224540843],[21.527228774666693,65.7176707319413],[21.52708087405761,65.71777951504637]],[[21.526952626587864,65.71778502158656],[21.5268908224654,65.71779352579918],[21.526909082137095,65.71778689120552],[21.526952626587864,65.71778502158656]],[[21.524716263392612,65.71809274390881],[21.523846198198665,65.71821246439185],[21.524223731461497,65.71809165137529],[21.524716263392612,65.71809274390881]]],[[[21.527337397714163,65.71757596248777],[21.527307732346678,65.71758955969491],[21.527340485999893,65.71758815328157],[21.527337397714163,65.71757596248777]]],[[[21.519297237473157,65.70136795705194],[21.519314060053194,65.7013530327249],[21.519293685283472,65.70135390695367],[21.519297237473157,65.70136795705194]]],[[[21.518564145811357,65.70192890931851],[21.518568886904767,65.70192564129609],[21.51856337938391,65.70192587757843],[21.518564145811357,65.70192890931851]]],[[[21.517790055077143,65.70232778810475],[21.517809299934203,65.70231865125781],[21.517787976715457,65.70231956594172],[21.517790055077143,65.70232778810475]]],[[[21.517429896923428,65.70251513777112],[21.517400266560042,65.7025164087164],[21.51740345714567,65.70252903156435],[21.517429896923428,65.70251513777112]]],[[[21.5159247807758,65.72091222666945],[21.51582568107352,65.72096553490208],[21.51593705631769,65.72096076150044],[21.5159247807758,65.72091222666945]]],[[[21.5065674143671,65.72784958761153],[21.506056605820895,65.72803268556788],[21.50639636930167,65.72846963022323],[21.50539429256356,65.72862061569113],[21.505983703809537,65.72859539911651],[21.50596831385367,65.72859974696598],[21.505064627904098,65.7286449539436],[21.5053201246879,65.7287828682789],[21.506612844195402,65.72857078895372],[21.5076599128266,65.7283305826067],[21.508253427615767,65.72814320637356],[21.508362808624398,65.72811935378618],[21.508440322093065,65.72808420264899],[21.508958824357496,65.72792050832669],[21.51027919311907,65.72725030360102],[21.5108579931847,65.7269878268874],[21.510883695881446,65.72694859091537],[21.51088497377142,65.72695364594765],[21.51089290007603,65.72694360431971],[21.51088679115077,65.72694386588975],[21.5119357777161,65.72534255502569],[21.512057919134666,65.72527901734384],[21.514221885422295,65.72525312863588],[21.5144367960467,65.72500353718341],[21.51410591263406,65.72445047733166],[21.514080958786597,65.7242777709708],[21.51394971229316,65.72418939401928],[21.513861563113597,65.72404205580189],[21.511891294764794,65.72246399194563],[21.51183504962427,65.722266787262],[21.512072419129122,65.72213002159077],[21.512103254457898,65.7221385407227],[21.512236667539895,65.72203538624929],[21.511838480460597,65.72206538941529],[21.51205538659406,65.7221253158711],[21.511827012403927,65.72223860744984],[21.511821240434088,65.72221836997731],[21.51159970759119,65.722227858094],[21.5115364764624,65.7223827361514],[21.51184382230254,65.72263020457842],[21.511801792158703,65.72265988149641],[21.51203522896597,65.7228437164811],[21.51199786894927,65.7227542397088],[21.512156220582025,65.72288174112369],[21.51230664309836,65.72309863408469],[21.512618183571924,65.72341783019715],[21.51265659609029,65.72333607978142],[21.513760727621754,65.72433104379458],[21.51380559820436,65.72494879236031],[21.513626391756397,65.72516485542496],[21.512882885529812,65.72514702484803],[21.513489333849613,65.72513156346031],[21.512216555681555,65.72508481302988],[21.512160008715814,65.7251296890004],[21.5120381408754,65.7251267663969],[21.511779436976983,65.72543905863732],[21.51178519961455,65.72531850584606],[21.51161779369531,65.72547087779141],[21.51175805380804,65.72546487115031],[21.51147172656557,65.72581050867875],[21.511440343185942,65.72568636760295],[21.51138183345071,65.72584140397935],[21.511448497679073,65.7258385492342],[21.510742919705542,65.72669028176509],[21.5106827537947,65.7266422524844],[21.51059403886325,65.726776190006],[21.510674610895734,65.72677274017174],[21.51046525034018,65.72702546800983],[21.510455216561304,65.72698577443721],[21.510348337545846,65.72714713076488],[21.510365057538547,65.72714641490968],[21.510283993389898,65.7272442708166],[21.509652943626165,65.72727651698789],[21.509652683337464,65.72727548716985],[21.509332846905103,65.7272928736911],[21.5091910494005,65.72739835404101],[21.509014714208398,65.72742321377329],[21.508297049221785,65.7280013293071],[21.506599891557496,65.72783895322299],[21.5065674143671,65.72784958761153]],[[21.51230664309836,65.72309863408469],[21.51241958479268,65.72309379646472],[21.512559064521067,65.72320610261784],[21.51230664309836,65.72309863408469]],[[21.5065674143671,65.72784958761153],[21.506570431447958,65.72784945851646],[21.50656914881281,65.72784991589624],[21.5065674143671,65.72784958761153]],[[21.512662816307756,65.72332284176981],[21.51267413435586,65.7232987544364],[21.512914691525125,65.72349244602584],[21.512662816307756,65.72332284176981]],[[21.5064777308836,65.72857426332946],[21.5062168888472,65.72858731197773],[21.506227666279965,65.7285849617557],[21.5064777308836,65.72857426332946]]],[[[21.512216555681555,65.72508481302988],[21.51316751931951,65.72504408122184],[21.512410524926395,65.7250392017248],[21.512216555681555,65.72508481302988]]],[[[21.511838480460597,65.72206538941529],[21.5117305021151,65.7221044614847],[21.511873160371756,65.72220258515131],[21.511838480460597,65.72206538941529]]],[[[21.51421393350102,65.72445861980886],[21.514184835173694,65.72441904561248],[21.514195047930283,65.72445942892288],[21.51421393350102,65.72445861980886]]],[[[21.5129912557977,65.7238441808288],[21.513169905496753,65.72386831427617],[21.51314844024291,65.72378342033116],[21.5129912557977,65.7238441808288]]],[[[21.47774445651792,65.67700153126141],[21.477801075912197,65.67698543829559],[21.477733485130027,65.67695780528773],[21.47774445651792,65.67700153126141]]],[[[21.4763892087072,65.6770189164669],[21.476447302802722,65.67705686682913],[21.47643533391108,65.67700915582799],[21.4763892087072,65.6770189164669]]],[[[21.474330079451857,65.67732736333815],[21.474149435634295,65.6773219472846],[21.474121204642636,65.67733626970949],[21.474330079451857,65.67732736333815]]],[[[21.47200298448952,65.68373361177169],[21.4720401711115,65.6837779242211],[21.472102203467436,65.68372938336475],[21.47200298448952,65.68373361177169]]],[[[21.471624073960154,65.6839657616546],[21.47171064037256,65.68392627123517],[21.471615191487274,65.68393033870069],[21.471624073960154,65.6839657616546]]],[[[21.471228204601644,65.68413030304693],[21.471237490295536,65.68412663441845],[21.47122739261121,65.68412706469037],[21.471228204601644,65.68413030304693]]],[[[21.4702348124234,65.6763550532026],[21.470129180577654,65.67625893420318],[21.470170415032374,65.67642347157764],[21.4702348124234,65.6763550532026]]],[[[21.468895788959536,65.6748245240115],[21.46890358680484,65.67485564790576],[21.468921860480005,65.67485486930615],[21.468895788959536,65.6748245240115]]]]}}]}