{"type":"FeatureCollection","properties":{"source":"SMHI SE.SR Ytansamling av alger","date":"2011-07-10","note":"Test: SMHI WFS clipped to Lulea municipal sea area and simplified 20 m."},"features":[{"type":"Feature","properties":{"cyano_daymap_file_id":3436,"date":"2011-07-10Z","cloud":null,"sub_surfac":null,"surface":null,"no_data":null,"class":1,"color_hex":null,"algae_class":"class_1","source_date":"2011-07-10"},"geometry":{"type":"MultiPolygon","coordinates":[[[[23.04691275,65.23944379],[23.025724830000005,65.24058284000002],[23.02843882,65.24946741],[23.007241909999994,65.25060394999998],[23.015375049999992,65.27725862999999],[22.994155149999997,65.27839356999999],[22.99686323,65.28727879],[22.97563432,65.28841122],[22.97833741,65.29729682],[22.95709948,65.29842673],[22.95979757,65.30731272],[23.00228545,65.305049],[22.99957333,65.29616392999999],[23.020807229999996,65.29502805999999],[23.026247510000005,65.31279721],[23.00499959,65.31393401],[23.010433929999998,65.33170380999998],[23.074213740000005,65.32828167999999],[23.07695504,65.33716507999999],[23.09821791,65.33601794],[23.099751907831322,65.34097226921124],[23.1383421263494,65.2880901187065],[23.089750185962696,65.28445681869319],[23.089709002936797,65.2756147460627],[23.0877229961228,65.2617264628135],[23.082823171082875,65.24653694041494],[23.070826579999995,65.24718541],[23.07355655,65.25606898],[23.05235671,65.25721193],[23.04691275,65.23944379]],[[23.05780877,65.27497979],[23.036592919999993,65.27612069999998],[23.03115483,65.25835191],[23.05235671,65.25721193],[23.05780877,65.27497979]]],[[[22.861353449999992,65.12292508999998],[22.88245607,65.12181023],[22.880434090128908,65.11502469457426],[22.857131448102617,65.10871344034179],[22.861353449999992,65.12292508999998]]],[[[22.953774509999995,65.14510707],[22.962567129070067,65.14463733892256],[22.952300852327227,65.14021360800281],[22.953774509999995,65.14510707]]],[[[22.97757501,65.1528648],[22.98026201,65.16175053],[22.99476380630304,65.16097356764845],[22.97953726712416,65.15275967644472],[22.97757501,65.1528648]]],[[[23.03062931,65.18613768],[23.041476869999997,65.22167536999997],[23.062648829999997,65.22053427],[23.059632975925226,65.21068719376073],[23.05703780408209,65.2077578360096],[23.0438821336382,65.1949890305416],[23.032825196590117,65.18601936633692],[23.03062931,65.18613768]]]]}},{"type":"Feature","properties":{"cyano_daymap_file_id":3436,"date":"2011-07-10Z","cloud":null,"sub_surfac":null,"surface":null,"no_data":null,"class":1,"color_hex":null,"algae_class":"class_1","source_date":"2011-07-10"},"geometry":{"type":"MultiPolygon","coordinates":[[[[23.02186224,65.43945702],[23.000511479999997,65.44059432],[23.005974579999997,65.45836402],[22.98460756,65.45949925],[22.992397135344277,65.48485548213573],[23.02337053404652,65.44435187529815],[23.02186224,65.43945702]]],[[[22.97140584,65.48728827000001],[22.97413237,65.49617373],[22.984147918906935,65.49564290080129],[22.991344823386445,65.48623158006481],[22.97140584,65.48728827000001]]]]}}]}