{"type":"FeatureCollection","properties":{"source":"SMHI SE.SR Ytansamling av alger","date":"2011-06-06","note":"Test: SMHI WFS clipped to Lulea municipal sea area and simplified 20 m."},"features":[{"type":"Feature","properties":{"cyano_daymap_file_id":3408,"date":"2011-06-06Z","cloud":null,"sub_surfac":null,"surface":null,"no_data":null,"class":1,"color_hex":null,"algae_class":"class_1","source_date":"2011-06-06"},"geometry":{"type":"MultiPolygon","coordinates":[[[[22.639938739999995,65.09833922999998],[22.597744529999996,65.1004973],[22.60029824,65.10939115],[22.62140322,65.10831316],[22.62396576,65.11720651],[22.602853849999995,65.11828493],[22.605411349999997,65.12717865999998],[22.563167989999997,65.12932748999998],[22.5682609,65.14711648],[22.589397419999994,65.14604268],[22.58684307,65.13714865],[22.629096520000004,65.13499301],[22.63166476,65.14388617],[22.69505148,65.14062916],[22.69764245,65.14952093],[22.655372660000005,65.15169612000001],[22.65795166,65.16058871],[22.615660319999996,65.16275291],[22.61822732,65.17164631],[22.554755159999996,65.17487164],[22.559853049999997,65.19266087999999],[22.538677929999995,65.19373091],[22.54122273,65.20262587],[22.625939750000004,65.19832614],[22.63109092,65.21611238],[22.609900559999996,65.21719264999999],[22.607331,65.20829912],[22.586145709999993,65.20937597999999],[22.58870828,65.21826994],[22.567514099999997,65.21934426],[22.57263097,65.23713286],[22.55142089,65.23820507],[22.55397517,65.24709971000001],[22.469087859999995,65.25136047],[22.47667787,65.27804921999999],[22.45543024,65.27910825],[22.460485599999995,65.2969013],[22.4817473,65.29584142],[22.4868243,65.31363336],[22.508098209999996,65.31256961],[22.505551709999995,65.30367411],[22.56934087,65.30046624],[22.56677515,65.29157198],[22.588027339999993,65.29049715],[22.582887569999993,65.27270930999998],[22.6041238,65.27163237],[22.606699749999997,65.28052587999998],[22.62794108,65.27944551],[22.625358099999996,65.27055243999999],[22.667820939999995,65.26838363999998],[22.665225859999996,65.25949137999999],[22.68644737,65.25840295],[22.681248989999997,65.24061912],[22.72365819,65.23843509],[22.72104792,65.22954397000001],[22.763435370000003,65.22734891],[22.76868584,65.2451293],[22.811093449999998,65.24292054],[22.80845326,65.23403128],[22.85083904,65.23181152],[22.84818685,65.22292308999998],[22.93290682,65.21844968],[22.9355869,65.22733629],[22.91440291,65.22845956000002],[22.917078019999998,65.23734656],[22.959457949999997,65.23509614],[22.95408184,65.21732389],[22.97525488,65.21619514],[22.969872830000003,65.19842354],[23.012185069999997,65.19615894999998],[23.01759494,65.21392872],[23.038761960000002,65.21279105],[23.033338179999998,65.19502220999999],[23.0432637458381,65.19448737887343],[23.029860527185193,65.18361435227884],[23.03062931,65.18613768],[23.00948314,65.18727397],[23.00678321,65.17838891],[23.021359908631613,65.17760569765782],[23.011423917751596,65.1707541953058],[23.002086021599,65.1650103332603],[22.982021613701992,65.1539487475862],[22.960190125166896,65.1434996447016],[22.936695353363596,65.13371361195249],[22.924360538612298,65.1290836625267],[22.8985886497093,65.1203780521599],[22.885184620758892,65.11631308182429],[22.8574198396373,65.1087830198622],[22.8448128521847,65.10574136282564],[22.834979599999997,65.10625935],[22.83413909685363,65.10341938525804],[22.813630577896,65.099051531591],[22.783216068086205,65.09365218440139],[22.767695334584204,65.0912889661128],[22.736125520193397,65.0872488627787],[22.703969492420804,65.0841417016372],[22.687722653553607,65.08294181426642],[22.6549815048834,65.0812580646165],[22.634885383716856,65.08081682924993],[22.639938739999995,65.09833922999998]],[[22.72104792,65.22954397000001],[22.6786527,65.23172711],[22.676058339999994,65.22283504],[22.718439579999995,65.22065278],[22.72104792,65.22954397000001]],[[22.840248869999996,65.12403697999999],[22.81914233,65.12514592],[22.81651365,65.11625669],[22.795412090000003,65.11736221],[22.79279226,65.10847246],[22.834979599999997,65.10625935],[22.840248869999996,65.12403697999999]],[[22.70802558,65.18508738000001],[22.750343299999997,65.18289677],[22.752957829999996,65.19178732999998],[22.73179297,65.19288457],[22.73440247,65.2017755],[22.71322871,65.20287020999999],[22.70802558,65.18508738000001]]],[[[23.09821791,65.33601794],[23.10357920862202,65.33572752315351],[23.110441156180343,65.32632424539374],[23.052955840000003,65.32942538000002],[23.0474934,65.31165743],[23.026247510000005,65.31279721],[23.028970689999998,65.32168168],[23.007715749999996,65.32281893999999],[23.00499959,65.31393401],[22.983749639999996,65.31506781999998],[22.98104252,65.30618236],[22.938550609999997,65.30844011],[22.935859540000003,65.29955366],[22.95709948,65.29842673],[22.9544034,65.28954067],[22.911935539999995,65.29179061999999],[22.9146176,65.30067759999999],[22.893373649999997,65.30179855999998],[22.89069861,65.29291112],[22.848218789999994,65.29514317999998],[22.84290272,65.27736629],[22.906577419999994,65.27401645999997],[22.903901339999997,65.26512927],[22.92511526,65.26400716000002],[22.922434189999993,65.25512035999999],[22.90122726,65.25624202],[22.898555169999998,65.24735469999999],[22.856149340000005,65.24958818],[22.858807450000004,65.2584764],[22.837594569999997,65.25958912999998],[22.84024766,65.26847774],[22.81902581,65.26958794],[22.81637972,65.26069888],[22.7951629,65.26180564],[22.800443029999997,65.27958460999999],[22.77921023,65.28068928999998],[22.784484200000005,65.29846889],[22.76323538999999,65.29957147999998],[22.76060445,65.29068127000001],[22.73936071,65.29178044000001],[22.741984629999997,65.30067109999997],[22.720731909999994,65.30176771999999],[22.725971539999996,65.31954974],[22.704702789999995,65.32064426999999],[22.707318490000002,65.32953563000001],[22.74986812,65.32734268],[22.74461049999999,65.30956168999997],[22.808377990000004,65.30625255],[22.805731030000004,65.2973633],[22.826975900000004,65.29625472999999],[22.829629879999995,65.30514352999998],[22.87212771,65.30291653000002],[22.87746973,65.32069211],[22.81367782,65.32403085],[22.81102692,65.31514173000001],[22.76850316,65.31735171],[22.7790623,65.35291137],[22.73647428,65.35511299],[22.731218990000002,65.3373315],[22.709936150000004,65.33842692],[22.712555759999997,65.34731813999998],[22.691263900000003,65.34841102],[22.688651349999997,65.33951934999999],[22.667364609999996,65.34060878999999],[22.664761060000004,65.33171661],[22.62219585,65.33388562],[22.61960835,65.32499249],[22.5983299,65.32607206],[22.600910349999996,65.33496563],[22.57962292,65.33604266000002],[22.584775459999996,65.35383047999998],[22.56347197999999,65.35490538999997],[22.566044059999996,65.36379964],[22.544731579999997,65.36487199],[22.547298510000005,65.37376662],[22.525977019999992,65.37483639999999],[22.533896312447474,65.40230280559757],[22.536875486962494,65.40245710128605],[22.53568140932697,65.40432165738446],[22.53454873483032,65.40456559585404],[22.53623557,65.41041603],[22.6002794,65.40719242],[22.605462860000003,65.42497922],[22.584102639999998,65.42605764999999],[22.58669017,65.43495139000001],[22.565320879999998,65.43602724999998],[22.570487509999996,65.45381542999999],[22.59187105,65.45273869],[22.5944644,65.46163224000001],[22.602762722650386,65.46121315156722],[22.602827305902938,65.46086311410053],[22.605290014519337,65.46037777765775],[22.60717121166217,65.46099051057955],[22.614428913246325,65.46045741426195],[22.61593180971433,65.45965943921634],[22.61508789583757,65.45825817783361],[22.613648711089763,65.45778947886524],[22.609371551439903,65.45800569053634],[22.609047785240328,65.45838303402842],[22.607764602685492,65.45844787149738],[22.60766066574808,65.45809214148822],[22.604238856952893,65.45826498559077],[22.604134968777824,65.45790925264932],[22.60242406850281,65.45799564438526],[22.602320206266533,65.45763990992673],[22.60023350839028,65.45792573886033],[22.60136091515705,65.45732736259404],[22.601529011632035,65.45641643184425],[22.59987010949131,65.45668066144002],[22.599234773429366,65.45599077484486],[22.60138558632559,65.45443829516944],[22.600750268708147,65.45374841477393],[22.601553669377346,65.4535273645484],[22.60134601448226,65.45281589366314],[22.59958353535473,65.45272438195826],[22.599259687387868,65.45310170528077],[22.597549081657966,65.45318803869564],[22.596369878193368,65.453608515797],[22.594179697703343,65.4535385184707],[22.594296164817223,65.45244972263272],[22.596654499943877,65.45160879237743],[22.5968746127733,65.45087573514489],[22.600671222090483,65.45050361044447],[22.601254545964924,65.45101562421],[22.602537383980508,65.45095084566746],[22.602317430060314,65.45168390951243],[22.60327652094192,65.45199645282787],[22.60242126371793,65.45203964425492],[22.602525100489718,65.45239537889454],[22.606853360557643,65.4523572355828],[22.607177089264756,65.45197989720286],[22.60467543176957,65.45084285735345],[22.604467717825973,65.45013139138959],[22.606605689128372,65.45002337651597],[22.607564767525027,65.45033589269875],[22.61007836708967,65.45002835435479],[22.61044213955943,65.45127340325081],[22.61750474354557,65.45019422292496],[22.61782845142243,65.44981685550981],[22.618516296471732,65.45068451302998],[22.62012322397205,65.45024219219005],[22.622261922883087,65.45013391585282],[22.622897868874613,65.45082369268583],[22.620643597663108,65.45202079133261],[22.620747681765167,65.45237651085127],[22.624973331312336,65.45198204882179],[22.62695589703237,65.45134013108894],[22.6309098587108,65.4515007477317],[22.62817603759718,65.45254178232366],[22.62763303535879,65.45365227221689],[22.625326669254793,65.45467158402609],[22.626066985487395,65.45571706084687],[22.62702682122186,65.45602943261392],[22.627339400719347,65.45709657437388],[22.626587894258215,65.45749563399397],[22.62642050956386,65.45840659163073],[22.623789959201222,65.45980327081205],[22.62207837607882,65.45988991811804],[22.620199167579436,65.4608874992597],[22.61997948469765,65.46162059247705],[22.61762008132948,65.46246193685094],[22.617724174522976,65.46281765838751],[22.616678559534893,65.46337273945136],[22.618455559999997,65.4694451],[22.597059699999996,65.47052573],[22.599656949999996,65.47941915],[22.62105995,65.47833808],[22.626274600000006,65.49612385000002],[22.604857299999995,65.49720581],[22.6074604,65.50609904],[22.58603399,65.50717843],[22.587793224425894,65.51320096546421],[22.589217908760787,65.51244665360635],[22.59098441134648,65.51253824493148],[22.5925429423957,65.51191833561558],[22.594309418413708,65.5120098883581],[22.5942054072371,65.51165414972898],[22.59473803683557,65.51198830602318],[22.598271021959263,65.51217133922275],[22.600362052056518,65.51188549260625],[22.602777512469796,65.5112222807331],[22.603478505739098,65.51064547082223],[22.604335678730425,65.51060225359821],[22.604608045259646,65.51004704808503],[22.60551727424202,65.51018168938279],[22.60524492595308,65.51073689634704],[22.606530683471235,65.51067205368317],[22.60927023469907,65.50963139648061],[22.611088717340238,65.50990061726324],[22.611777886116425,65.51076829859534],[22.608986215165793,65.51163113819472],[22.609090427481657,65.51198686457508],[22.6079088111855,65.5124074569403],[22.608169320522986,65.51329677484033],[22.61111756044012,65.51296753524157],[22.61165043129201,65.513301629454],[22.612832025121083,65.51288100807089],[22.612936295822966,65.51323673120106],[22.61507938770209,65.51312854330165],[22.615183690197586,65.5134842645546],[22.616573875941334,65.51377505634878],[22.61640605647705,65.5146860013217],[22.61822496377525,65.5149551318843],[22.618485854999967,65.51584442807695],[22.617252050759113,65.5160872343801],[22.616551227113582,65.51666410642802],[22.617136418838115,65.51717603969507],[22.619760681181486,65.51722399402311],[22.620084971130012,65.51684662198319],[22.622123909281147,65.51638261480193],[22.621423187350427,65.5169595083858],[22.620565839924176,65.51700282430684],[22.620722434944046,65.51753639903819],[22.6199172613548,65.51775756974219],[22.618944325148224,65.51888968338956],[22.61915309412313,65.51960111882903],[22.6173225825023,65.52077652745136],[22.617102573962175,65.52150961374173],[22.61242687629245,65.52337005421435],[22.609529622513875,65.52387719392772],[22.608776291423332,65.52427617104445],[22.60893269819627,65.52480975994229],[22.60742594214501,65.52560770544561],[22.599330125616,65.52619615489515],[22.5978229917989,65.52699400859657],[22.596965267671216,65.52703719455197],[22.596315766152422,65.52779184822388],[22.59545801280321,65.52783502593097],[22.59491254953875,65.52894541110601],[22.594106801354698,65.529166450253],[22.592716022061815,65.52887545792223],[22.587465196571582,65.52877858840661],[22.585476642814548,65.52942001711754],[22.58204531015492,65.52959245612604],[22.57995265298081,65.5298780660531],[22.57919869158458,65.53027690225738],[22.577482950167365,65.5303630610473],[22.574843802137124,65.53175893113045],[22.573933960506306,65.53162411159214],[22.57323176702101,65.53220079679747],[22.572373822760213,65.53224384553428],[22.572477635459776,65.53259960124173],[22.571713042399033,65.5326379604875],[22.572128183755847,65.53406098959618],[22.57304866113777,65.53455625580047],[22.572383669999997,65.53493675],[22.61528147,65.53277835],[22.617892409999996,65.54167131999999],[22.638208612351676,65.54064459755911],[22.639186998329556,65.5400484106074],[22.63411127,65.52280202],[22.655548089999996,65.52171571],[22.647689940000003,65.49503888],[22.667740694025735,65.49402012303308],[22.66727260421051,65.49243328522205],[22.667762161636567,65.49114482359957],[22.673383304958968,65.49103923922075],[22.674615865735355,65.49079596846407],[22.674939208295864,65.49041848232946],[22.677028400137722,65.4901315621518],[22.677569954148513,65.4890209095585],[22.67950141482531,65.48820045144056],[22.679396359457098,65.48784478261595],[22.680523644179345,65.48724579706412],[22.681380214806566,65.48720213628728],[22.682507426175526,65.48660313669752],[22.682402337685204,65.48624747031461],[22.683363971756567,65.4865594649316],[22.68358203523489,65.48582629651479],[22.686099012477865,65.48551741765195],[22.68642212649564,65.48513990934354],[22.687278616266997,65.48509621595952],[22.687173470221985,65.48474055350263],[22.688029945401794,65.4846968560101],[22.688135102879194,65.48505251775126],[22.68941982687332,65.48498696139345],[22.68969029729624,65.48443161635853],[22.690494163367976,65.4842100748893],[22.690336386365324,65.48367658514474],[22.692853070869294,65.48336759678345],[22.692793112189907,65.48463426248524],[22.69413042067999,65.48474649521704],[22.693807423774725,65.48512401879049],[22.692950946273374,65.48516774907189],[22.693484417806506,65.4855015417692],[22.69177143361638,65.48558899411613],[22.6911253424352,65.48634403150523],[22.69026881957128,65.48638774705013],[22.685865575008222,65.48913958535768],[22.685008949977213,65.4891832721398],[22.68313015348661,65.49018163241222],[22.683663607848814,65.49051545999131],[22.682806933308733,65.49055913480179],[22.682536259845456,65.49111446965536],[22.68173211426491,65.4913359716918],[22.682528363842522,65.49255896954675],[22.681619066548404,65.49242480525398],[22.681243246995948,65.49262447137787],[22.681776729474254,65.49295830533543],[22.680919971099996,65.49300197031869],[22.680325939686945,65.49393480033093],[22.679093288369245,65.49417811862837],[22.678980125149746,65.49526695144638],[22.676995606943215,65.49590957319538],[22.67522935603968,65.49581901033679],[22.67495847246241,65.49637433382226],[22.674101588401857,65.49641796144428],[22.675002693723325,65.49799667363358],[22.674469189548144,65.497662815965],[22.67280783799467,65.49792789870128],[22.673454731359342,65.49717293126615],[22.672492812875387,65.4968608764874],[22.66999968453618,65.49698775461954],[22.671669928630575,65.50264644414221],[22.67321114570635,65.50223960271599],[22.67488105684481,65.50053000902312],[22.67691851313532,65.50006524607342],[22.676332406013913,65.49955356044019],[22.677941277273096,65.49911060350527],[22.67858804789859,65.49835561536173],[22.681534752358466,65.49802497322855],[22.68142962163698,65.49766930657033],[22.682286531931247,65.4976256371126],[22.683361582252417,65.49684879382214],[22.684970165349903,65.49640576505462],[22.688397593326528,65.49623097996523],[22.688292377964245,65.4958753189719],[22.68979558307836,65.49507657946226],[22.6906523915136,65.49503286361858],[22.69124607358816,65.49409999664299],[22.692155475873196,65.49423410189299],[22.69199759190554,65.49370061494787],[22.693282729071544,65.49363502141541],[22.695161369989837,65.49263653646254],[22.695747678539618,65.49314814690472],[22.694567859118905,65.4935694170244],[22.694350053967767,65.49430259865306],[22.697138097853262,65.49343817566738],[22.69767179775525,65.49377195121677],[22.69611625464987,65.49439293849079],[22.69584583130115,65.49494829459455],[22.69970137040062,65.49475138165127],[22.70034740460297,65.49399630811271],[22.701520310717836,65.4950194834602],[22.702377093583006,65.49497570138718],[22.703609553261877,65.49473219511749],[22.703932517566695,65.49435465088823],[22.704841989443437,65.49448867903925],[22.70420276236414,65.49379928218042],[22.70505949982164,65.49375548536902],[22.70516493293541,65.49411113239356],[22.70650277666283,65.49422324998632],[22.707517724237753,65.49471290760299],[22.70965962000188,65.49460335891774],[22.71046361832143,65.4943817097583],[22.710358111822384,65.49402606719877],[22.712071573507185,65.49393839903755],[22.7126537631525,65.49421922706313],[22.707718828438097,65.47757961238773],[22.706206389781077,65.47708912661605],[22.70599566412286,65.47637783260366],[22.704335996521518,65.47664324433332],[22.70417799247335,65.47610977147527],[22.70321651028753,65.47579790783993],[22.70380934402076,65.47486500055211],[22.702953222469052,65.47490878382806],[22.702367205863034,65.47439719839754],[22.703166558728054,65.47416175588413],[22.66386008,65.4761669],[22.66124141,65.4672748],[22.704019409999994,65.46509245999998],[22.706283991755505,65.4727397475586],[22.707833017638254,65.47231241113663],[22.708372929803293,65.47120166558209],[22.710137600537042,65.4712918574673],[22.709814992064846,65.47166941114757],[22.710453788381265,65.47235878860701],[22.713397135019,65.47202756027313],[22.715214607715616,65.47229551248567],[22.7145167773164,65.47287281960234],[22.71505025918518,65.4732065359567],[22.71804639022282,65.47305303625727],[22.718368894413228,65.4726754660771],[22.720561701302266,65.47274360057963],[22.72216816716988,65.47230019809501],[22.722865811592683,65.47172285756912],[22.726184090439414,65.47119161963964],[22.726342507097783,65.4717250650826],[22.728376785891538,65.47125964179347],[22.727732093204086,65.47201482089176],[22.728693716707493,65.4723265268903],[22.728847689212554,65.47284480962882],[22.732112226695488,65.47267730510508],[22.73329588522485,65.47172924003296],[22.73319017883773,65.47137361562352],[22.732281384678465,65.47123975107195],[22.732925926745228,65.47048455413658],[22.734584896425268,65.47021883551203],[22.735282209802783,65.46964144110731],[22.737316161651005,65.46917590080314],[22.73796050937661,65.46842068443456],[22.73924426587373,65.46835471442478],[22.739455816838092,65.46906595321126],[22.737849851694936,65.4695095343685],[22.738061376051583,65.47022077539863],[22.737041904935484,65.47117578974029],[22.739291658532522,65.47230892602629],[22.755157960067354,65.47149357347327],[22.754375869129827,65.46956213479176],[22.754644810116208,65.46900668986099],[22.756356454344928,65.46891853855139],[22.75742431589046,65.46958566405148],[22.758280152867354,65.46954157490637],[22.75758335739359,65.4701190700594],[22.757848442470667,65.4710080795402],[22.760330382687332,65.47122704711461],[22.77082591,65.47068623000001],[22.776140529999996,65.48846573],[22.797542010000004,65.48735966],[22.80020945,65.49624886],[22.714563019999996,65.50065686],[22.71325508530735,65.49624676532483],[22.712059076489876,65.49682736730813],[22.71264581198323,65.49733890770939],[22.71184174322664,65.49756056922543],[22.711736202484676,65.49720492797447],[22.71045094583246,65.49727067974203],[22.70905377078655,65.4984252628502],[22.710391851731828,65.498537343529],[22.710714760723043,65.49815978536498],[22.711624398966258,65.49829377095064],[22.711248731927288,65.49849351012338],[22.711835491198144,65.49900505343221],[22.71306804608117,65.49876146899564],[22.713654846986024,65.49927300480519],[22.713543120082797,65.50036184842399],[22.71182924332853,65.50044953761726],[22.71193480116021,65.50080517863682],[22.710431968217375,65.50160413455441],[22.70957498439851,65.501647964411],[22.708072030640018,65.50244689812489],[22.706786505107043,65.50251262153024],[22.70651623653558,65.5030679951576],[22.704479100921382,65.50353315384146],[22.701907914050217,65.50366452999833],[22.701742968041845,65.5045755455082],[22.700081475701182,65.50484092961219],[22.699006615754396,65.5056178899284],[22.69814947719518,65.50566165659863],[22.69825487429279,65.50601730886282],[22.69659325304904,65.5062826559618],[22.694740849185173,65.50713406679044],[22.69578014,65.51064272],[22.717203869999995,65.50954779999999],[22.719213498873142,65.51505497802208],[22.72140988184607,65.5151230628415],[22.721192691199565,65.51585627685604],[22.722103003144117,65.515990192339],[22.72220877669668,65.51634582398215],[22.72515689683407,65.51601431629281],[22.725051084766577,65.51565868711629],[22.725585608981973,65.51599235547965],[22.726871740651383,65.5159264657949],[22.726173061586135,65.51650383594509],[22.72831664937899,65.5163940050279],[22.729724654382938,65.51793235672442],[22.76270252,65.51623889],[22.765361670000004,65.52512879],[22.799546945817173,65.52336462176346],[22.800482188942134,65.52188609700582],[22.801768381561427,65.5218195694657],[22.801608057295823,65.52128622332395],[22.80235860755773,65.52088630318259],[22.806163528965836,65.520508861662],[22.806752652332914,65.52102001104953],[22.80750311457418,65.5206200662976],[22.808414005982204,65.52075345580032],[22.808574465292203,65.52128679329383],[22.80702003528206,65.52190891024081],[22.807082860763177,65.52297503416762],[22.808223809999998,65.52291604999999],[22.808941017942,65.5252988851728],[22.80921560729706,65.52486457021178],[22.811627674438586,65.52419801998457],[22.812324629575777,65.52362027342694],[22.812485190031378,65.52415360572344],[22.811681190470836,65.52437579772685],[22.810018924669293,65.52608681981688],[22.809191078655402,65.52612968113635],[22.81089928,65.53180497],[22.793086997257692,65.53272589427306],[22.7919470700723,65.53406263642053],[22.79414518494362,65.53412964614078],[22.794627548629485,65.53428527204633],[22.794305451958415,65.53466300088968],[22.795270207086258,65.53497424985079],[22.79639674586748,65.5343744078227],[22.797254627059733,65.53433007609505],[22.79634330919383,65.534196623815],[22.795647213276045,65.53332986633446],[22.798596219542304,65.5329969171585],[22.798918234217773,65.53261918004878],[22.7997760525498,65.53257483468082],[22.79956096132694,65.53330813888219],[22.79746979017228,65.53359677440805],[22.79805905689388,65.53410795625446],[22.800954650397898,65.53359717741682],[22.804010585025818,65.53361968681713],[22.80411756077645,65.53397524831347],[22.805028907823473,65.53410865344009],[22.809104060252796,65.53317558879665],[22.81344665632438,65.53313130168134],[22.813767971616713,65.53419796181917],[22.81242710669521,65.5355312476718],[22.812587757718433,65.53606457899497],[22.810388787991126,65.53744226786952],[22.810817133605248,65.53886449077383],[22.81274736680323,65.5394867642923],[22.8136584835215,65.54106454148467],[22.812478505777953,65.54148673383072],[22.811244339573932,65.5431755678022],[22.810010675185303,65.54341996476114],[22.809742250295816,65.54397550324248],[22.807650350253486,65.54426428725175],[22.807757428305386,65.54461984514926],[22.806952764800467,65.54484201906226],[22.80191047723152,65.54546385039893],[22.800677784824646,65.54426373935908],[22.803413918452634,65.54321955682875],[22.803253401781408,65.54268621429961],[22.80196618511009,65.54275276526455],[22.80175220857318,65.54204163933183],[22.800947570240513,65.54226378103127],[22.800840596665235,65.54190821722949],[22.799982473660265,65.54195257184378],[22.80008943576029,65.54230813637312],[22.79805102210172,65.54277456981912],[22.797782346257712,65.54333008970247],[22.796924170209387,65.54337442752629],[22.79622636611415,65.54395211215957],[22.794616861338536,65.54439633489919],[22.792793547999175,65.54412940013584],[22.792042198837635,65.54452928130674],[22.792202499982327,65.54506263800008],[22.787266593168248,65.54603955741814],[22.78742680786866,65.54657292008748],[22.786568503903055,65.54661720051025],[22.785118840781188,65.54759468954306],[22.783886808035703,65.5463944347749],[22.7812051553388,65.5461716210567],[22.780560286128757,65.54692702807799],[22.783617795377214,65.54694993304841],[22.78275947120361,65.54699419207489],[22.782543804189096,65.54772747823296],[22.78125627504467,65.54779385625747],[22.781416379846778,65.548327226453],[22.78066473490719,65.5487270542358],[22.778625460692517,65.54919323497437],[22.777927096614626,65.5497708410926],[22.776639452420227,65.54983718103682],[22.776746135299497,65.55019276501268],[22.773794886415338,65.55052531165431],[22.77304306047253,65.5509251034787],[22.769985079862092,65.55090198973886],[22.769769025723974,65.55163526176132],[22.76853455446239,65.55187932892152],[22.768425035957318,65.55296819027338],[22.766654645577873,65.55287873975064],[22.766761207320794,65.55323433204221],[22.7638094759519,65.55356668898847],[22.763916002288788,65.55392228365602],[22.76171626212036,65.55385485156025],[22.76182276133271,65.55421044798557],[22.760588090703102,65.55445445240977],[22.760801067473032,65.55516564700602],[22.759566341918966,65.55540964367084],[22.759726059454376,65.55594304088709],[22.75886739037288,65.55598716798086],[22.75876092270792,65.55563156913918],[22.75784903502854,65.55549789084766],[22.756614264708425,65.55574186389616],[22.756078500722612,65.55540831809834],[22.75495013145377,65.55600787899301],[22.754091450485713,65.55605197911434],[22.75264510892374,65.55540411448412],[22.75397459646914,65.55984917463589],[22.75649707508612,65.55971963948018],[22.756820014441182,65.55934198228641],[22.758214665603642,65.55963140467946],[22.75832114553126,65.55998700379469],[22.756816455499152,65.56078644085039],[22.755098783166453,65.5608746606388],[22.754555499999995,65.56179138999998],[22.762077159277954,65.56140461073159],[22.76169978413784,65.56107713097066],[22.764222984033466,65.56076688488282],[22.764385973168494,65.55985582147446],[22.76572744063833,65.55996737664353],[22.76927206494015,65.55870181687958],[22.76873607791091,65.5583683182138],[22.76879228689076,65.55710166145136],[22.769650972391275,65.55705747787655],[22.771531056247063,65.55605802794389],[22.774053645194044,65.55574762438836],[22.775450822183142,65.55459243990353],[22.776685352357347,65.55434831569855],[22.776954580831834,65.55379282744157],[22.784630137951332,65.55177236462268],[22.7849525732364,65.55139465275107],[22.786240268791467,65.55132824152551],[22.786562675359363,65.55095052652628],[22.787903764086106,65.55106188910281],[22.787796924789763,65.55070631463315],[22.793216336513932,65.54988499630754],[22.793538624207166,65.54950726770078],[22.795738049902667,65.54957424052989],[22.795201924452876,65.54924083710036],[22.79606029705499,65.54919650697924],[22.79707910159949,65.54968552217385],[22.799332043529763,65.54993022571176],[22.800404441979612,65.5505969998606],[22.802228285490944,65.55086383734805],[22.808612733623793,65.55035316312885],[22.811992134848484,65.55144215931021],[22.81242084547923,65.55286437411398],[22.810596170794472,65.55404209010828],[22.811077890853465,65.5570865142388],[22.810433646297934,65.55784204206334],[22.807696298965695,65.55888636450109],[22.807105486455377,65.55981965827928],[22.805924566199472,65.5602418095153],[22.80474271684258,65.56210838333256],[22.801790515818592,65.56244148601938],[22.800662926830714,65.56304137947336],[22.799051140793566,65.56493009551356],[22.799587650845794,65.56526348134098],[22.799586489052473,65.56670791562838],[22.794967871859917,65.56875181892622],[22.79400037941574,65.56988501870941],[22.78927551882653,65.57012874976847],[22.78873903460446,65.56979532710623],[22.785571935520842,65.56941697825982],[22.784875180516913,65.56855017770727],[22.781708285713,65.56817174591153],[22.780689018021082,65.56768263195755],[22.778268473578073,65.56817911199605],[22.78135861,65.5784668],[22.824306849999996,65.5762486],[22.826994419999988,65.58513711999998],[22.84847269999999,65.58402302999998],[22.851169489999997,65.59291102999997],[22.894134339999997,65.59067285],[22.896847559999994,65.59955985999999],[22.905009780184834,65.5991310613184],[23.0439526591749,65.41743683403658],[23.099751907831322,65.34097226921124],[23.09821791,65.33601794]],[[22.672912852676397,65.49828357256334],[22.67237936873215,65.49794970730434],[22.67280783799467,65.49792789870128],[22.672912852676397,65.49828357256334]],[[22.701388449999996,65.4562012],[22.72276735999999,65.45510595999998],[22.72540545,65.46399678],[22.704019409999994,65.46509245999998],[22.701388449999996,65.4562012]],[[22.811735336149123,65.52310914752972],[22.812485778579827,65.52270917824117],[22.81307507702651,65.52322030115742],[22.812324629575777,65.52362027342694],[22.811735336149123,65.52310914752972]],[[22.840338959999997,65.48513849],[22.861734419999998,65.48402339],[22.864423270000003,65.49291122000001],[22.843020669999998,65.49402677999997],[22.840338959999997,65.48513849]],[[22.88582384,65.49179265],[22.883127859999995,65.48290527999998],[22.925908669999995,65.48066002999998],[22.92861891,65.48954648000002],[22.950013399999996,65.48841888],[22.958177729999996,65.51507643999999],[22.93676184,65.51620543],[22.93948023,65.5250916],[22.91805515,65.52621804],[22.912634699999998,65.50844468999999],[22.891221880000003,65.50956719],[22.89392394,65.51845436000002],[22.872501939999996,65.5195743],[22.864423270000003,65.49291122000001],[22.88582384,65.49179265]],[[22.92076843,65.53510461],[22.899334149999998,65.53622849],[22.896628030000002,65.52734146],[22.91805515,65.52621804],[22.92076843,65.53510461]],[[22.829632179999994,65.44958465999999],[22.87236412,65.4473551],[22.87774195,65.46513031999999],[22.85636276,65.46624752],[22.853679949999997,65.45735949000002],[22.832305859999998,65.45847322],[22.829632179999994,65.44958465999999]],[[22.640362579999998,65.39613571999999],[22.6429656,65.40502833],[22.62162347,65.40611188],[22.619027549999995,65.39721882],[22.640362579999998,65.39613571999999]],[[22.635162389999998,65.3783503],[22.69911328,65.37508564],[22.704355979999995,65.39286839],[22.683026809999998,65.39396049999999],[22.68564401,65.40285223],[22.664305779999992,65.40394177999998],[22.661695669999993,65.39504960999999],[22.640362579999998,65.39613571999999],[22.635162389999998,65.3783503]],[[22.653397179999995,65.44059812999998],[22.632026619999998,65.44168345],[22.62942290999999,65.43279065999998],[22.65078636,65.43170578],[22.645570570000004,65.41392088],[22.66691785,65.41283388],[22.672147850000005,65.43061789000001],[22.693507379999996,65.42952700999999],[22.696132439999992,65.43841846999999],[22.674765789999995,65.43950979999998],[22.68000756,65.45729342],[22.65862471,65.45838264],[22.653397179999995,65.44059812999998]],[[22.813993640177465,65.50313168118892],[22.81351175283059,65.50297611209542],[22.813940160945588,65.5029539039303],[22.813993640177465,65.50313168118892]],[[22.814154647924592,65.50222058598246],[22.815011437265266,65.50217616507676],[22.814796974764494,65.50290948398141],[22.813940160945588,65.5029539039303],[22.814154647924592,65.50222058598246]],[[22.799761237340316,65.54990804946591],[22.8009953073016,65.54966373180892],[22.8011023213819,65.55001929511359],[22.799761237340316,65.54990804946591]],[[22.798489323845487,65.5326413509208],[22.798435877202373,65.53246356776157],[22.798864784708115,65.53244139707134],[22.798489323845487,65.5326413509208]],[[22.79591437025868,65.53421878768498],[22.79548543051953,65.53424095034684],[22.795432000383336,65.53406316594881],[22.79591437025868,65.53421878768498]],[[22.79521828787157,65.5333520280877],[22.79516486175179,65.53317424355518],[22.79559378428945,65.53315208198363],[22.79521828787157,65.5333520280877]],[[22.794735938410287,65.5331964039187],[22.794307014265005,65.53321856307416],[22.794253594682054,65.53304077815137],[22.794735938410287,65.5331964039187]],[[22.794467277832833,65.53375191768123],[22.794038344283088,65.53377407617376],[22.79398492515758,65.53359629114993],[22.794467277832833,65.53375191768123]],[[22.79360940992959,65.53379623345823],[22.79318047477237,65.5338183895346],[22.793127061380797,65.5336406041474],[22.79360940992959,65.53379623345823]],[[22.788918144895295,65.4746399998396],[22.78806220369119,65.47468426380134],[22.788008970834444,65.4745064748457],[22.78881166856915,65.4742844226261],[22.788918144895295,65.4746399998396]],[[22.76626459858135,65.46281127353065],[22.76583679860335,65.46283334009189],[22.765730693714147,65.4624777427523],[22.76626459858135,65.46281127353065]],[[22.76578686235332,65.55725626586222],[22.76584014770251,65.55743406228555],[22.7654107952562,65.55745614397291],[22.76578686235332,65.55725626586222]],[[22.760414889641957,65.55969888262459],[22.75912670136288,65.55976507922936],[22.756177723513698,65.55865283714904],[22.758218150575765,65.55818694687441],[22.761276992692338,65.5582102894063],[22.76235204330444,65.55743288404288],[22.76530423110666,65.55710055073706],[22.764335836540738,65.55823357010254],[22.76143676593415,65.55874368425384],[22.760414889641957,65.55969888262459]],[[22.757579380737887,65.55605334954984],[22.756720703639882,65.55609746454802],[22.756667483773708,65.55591966423543],[22.757579380737887,65.55605334954984]],[[22.75630345098622,65.46874073602828],[22.755875543974742,65.46876277548238],[22.755822544263353,65.46858497275228],[22.75630345098622,65.46874073602828]],[[22.74401794490116,65.46395713772935],[22.744070853133728,65.46413494555527],[22.74364300895753,65.46415694966778],[22.74401794490116,65.46395713772935]],[[22.742417037137443,65.46295629515956],[22.742522827766788,65.46331191218354],[22.743431392193934,65.46344571748465],[22.743268067310208,65.46435676073533],[22.741556668082993,65.46444476104223],[22.740489423612935,65.4637775168506],[22.741345105176897,65.46373352536445],[22.742417037137443,65.46295629515956]],[[22.740864378899822,65.46357771254401],[22.740436540572492,65.46359970750484],[22.74038365832515,65.46342189813262],[22.740864378899822,65.46357771254401]],[[22.7267815175821,65.46881415532174],[22.72555049509743,65.4690578354885],[22.724911389986264,65.46836852519309],[22.725180950482784,65.4678131263092],[22.72662311326502,65.46828071022716],[22.7267815175821,65.46881415532174]],[[22.71991229725738,65.51447763880502],[22.71948360421022,65.51449958332869],[22.719430740099536,65.51432176632993],[22.71991229725738,65.51447763880502]],[[22.71773589272641,65.4705416428748],[22.71730791713225,65.47056357371062],[22.71725517498928,65.47038575475936],[22.71773589272641,65.4705416428748]],[[22.71661017762148,65.47114088953953],[22.71618219109013,65.47116281729866],[22.716129455135228,65.47098499788807],[22.71661017762148,65.47114088953953]],[[22.712915897265315,65.49678352506872],[22.712968674236116,65.49696134522142],[22.712540261384635,65.49698326712398],[22.712915897265315,65.49678352506872]],[[22.712447170586906,65.49373865855961],[22.71201881000734,65.49376057843637],[22.711966047299757,65.49358275780881],[22.712447170586906,65.49373865855961]],[[22.712408242045896,65.46575999621331],[22.710532146414334,65.46675866871472],[22.70924838091046,65.46682439461881],[22.70946558366043,65.466091198036],[22.710374088204095,65.46622520296535],[22.709630097752953,65.46518017898116],[22.711341674478206,65.46509253884936],[22.712408242045896,65.46575999621331]],[[22.70350413827817,65.49437654681591],[22.70339872646022,65.49402089840902],[22.70382710002896,65.49399900284006],[22.70350413827817,65.49437654681591]],[[22.702970352099506,65.49404279277154],[22.702166297935733,65.49426440263184],[22.70195551494929,65.49355310345535],[22.702970352099506,65.49404279277154]],[[22.70126370016047,65.4926858682012],[22.701692054018864,65.49266397889257],[22.701744744622584,65.49284180385776],[22.70126370016047,65.4926858682012]],[[22.701744744622584,65.49284180385776],[22.702278489849114,65.49317556265623],[22.701850128203542,65.49319745370921],[22.701744744622584,65.49284180385776]],[[22.699427106259282,65.48501748049877],[22.700388891175855,65.48532936512886],[22.700546885236715,65.48586284210616],[22.69862329448398,65.48523906894928],[22.696910348242973,65.48532657918555],[22.699427106259282,65.48501748049877]],[[22.699925955461087,65.49257370318006],[22.698640890590717,65.49263935247217],[22.698535553372817,65.49228369990045],[22.699925955461087,65.49257370318006]],[[22.69920250637547,65.48719515821698],[22.698774239562265,65.48721703955619],[22.698721582841745,65.4870392132114],[22.69920250637547,65.48719515821698]],[[22.69623583435504,65.49185960772401],[22.69752086820195,65.49179397921606],[22.697573528324124,65.49197180595239],[22.69623583435504,65.49185960772401]],[[22.697573528324124,65.49197180595239],[22.69805453798921,65.49212775372199],[22.697626189237003,65.49214963266246],[22.697573528324124,65.49197180595239]],[[22.69788950566229,65.49303876581833],[22.69703277718708,65.49308252187222],[22.69698011804006,65.49290469493523],[22.69788950566229,65.49303876581833]],[[22.694950793387896,65.49192522537456],[22.695003436352692,65.49210305318594],[22.69457508492194,65.49212492350249],[22.694950793387896,65.49192522537456]],[[22.695003436352692,65.49210305318594],[22.696341138232736,65.49221526224558],[22.695108724653664,65.49245870872998],[22.695003436352692,65.49210305318594]],[[22.695807488157072,65.49188148148056],[22.69575484026358,65.49170365400117],[22.69618318360202,65.49168178042379],[22.695807488157072,65.49188148148056]],[[22.69511592390257,65.49101421547515],[22.69468759041986,65.4910360859232],[22.694634952197347,65.49085825795412],[22.69511592390257,65.49101421547515]],[[22.69501064252918,65.49065855986898],[22.694153986210196,65.49070229884217],[22.694101352427587,65.4905244706414],[22.69501064252918,65.49065855986898]],[[22.694417166977516,65.49159143945192],[22.694845509829534,65.49156956967283],[22.69489815121351,65.49174739753681],[22.694417166977516,65.49159143945192]],[[22.691847093257223,65.49172263279253],[22.692703787660513,65.49167890650455],[22.69275641474663,65.49185673526414],[22.691847093257223,65.49172263279253]],[[22.69275641474663,65.49185673526414],[22.694522444816766,65.49194709551193],[22.692809042622944,65.49203456399748],[22.69275641474663,65.49185673526414]],[[22.694333645888467,65.48690230212408],[22.693905378951012,65.48692416965862],[22.693852756043174,65.48674634126439],[22.694333645888467,65.48690230212408]],[[22.693912661878052,65.48547967566736],[22.693965282114544,65.48565750406642],[22.69353703518492,65.48567937034734],[22.693912661878052,65.48547967566736]],[[22.691944965496827,65.49352278591361],[22.691516587719875,65.49354464783235],[22.691463964961454,65.49336681859275],[22.691944965496827,65.49352278591361]],[[22.69136612715239,65.49156666480378],[22.69093778083367,65.49158852475269],[22.69088516676618,65.49141069522427],[22.69136612715239,65.49156666480378]],[[22.688459763664195,65.46409638434221],[22.687063290640985,65.46525075631112],[22.685832044015044,65.46549411485923],[22.684721508826,65.46320413065075],[22.686057683419097,65.46331644667835],[22.685524775841543,65.4629826219334],[22.68638054264323,65.46293894120049],[22.688459763664195,65.46409638434221]],[[22.68810470966971,65.49083050583629],[22.687676372115895,65.49085235644536],[22.6876237820143,65.49067452553261],[22.68810470966971,65.49083050583629]],[[22.682956734545144,65.49253713319001],[22.68306186111234,65.49289279881157],[22.68263348468947,65.49291463552605],[22.682956734545144,65.49253713319001]],[[22.675107738599202,65.49835234565616],[22.674679264698124,65.49837416082971],[22.67462674472745,65.49819632465278],[22.675107738599202,65.49835234565616]],[[22.67259781809431,65.49721655066332],[22.67216936027809,65.49723835855166],[22.672116860135844,65.49706052129811],[22.67259781809431,65.49721655066332]],[[22.671627425351126,65.49834899582386],[22.67248437769047,65.49830538152374],[22.67253688335251,65.4984832185942],[22.671732426016572,65.49870467065335],[22.671627425351126,65.49834899582386]],[[22.63367038949995,65.47572801705965],[22.63319006089797,65.47557185731056],[22.63361820311369,65.47555016323795],[22.63367038949995,65.47572801705965]],[[22.633461648654052,65.47501660161734],[22.6326053805825,65.47505998749088],[22.633148560879366,65.47394947767638],[22.629567142180353,65.47358941712291],[22.629578027845852,65.472144889684],[22.627061606326738,65.47245282072785],[22.627281162568735,65.47171971846169],[22.629160850181346,65.47072204408869],[22.631572759864984,65.47005837047934],[22.63328496979923,65.46997160897808],[22.634788446601405,65.46917341440164],[22.636500585771884,65.46908661716459],[22.637951715048537,65.46811053993025],[22.640519795817536,65.4679802843097],[22.641490500454807,65.46684803611657],[22.6427222451238,65.46660503414215],[22.64497670310872,65.46540760360249],[22.65262764886478,65.46483851149866],[22.65336936320843,65.46588383981182],[22.651490956463398,65.46688180218051],[22.65083439848051,65.46908119149128],[22.65152387779823,65.46994868153936],[22.65077239016671,65.4703478614178],[22.65091955639339,65.47232591837782],[22.650105954374684,65.47399176604999],[22.649249753207286,65.47403524561858],[22.64935433190681,65.47439094028513],[22.64764189729649,65.47447788637768],[22.64657658957796,65.47380995848137],[22.64385121862745,65.47340677395327],[22.64326638273226,65.47289494704755],[22.641501788233125,65.47280397272307],[22.638714004072682,65.4736673657888],[22.63693889648148,65.47502086236727],[22.63361820311369,65.47555016323795],[22.633461648654052,65.47501660161734]],[[22.642481517122707,65.46282674036193],[22.64193893888505,65.46393727739039],[22.64043597697062,65.46473553779475],[22.639580059096023,65.46477895957976],[22.639099901682396,65.46462281686635],[22.639214674452525,65.46353399769255],[22.642481517122707,65.46282674036193]],[[22.63974817537619,65.47866891796764],[22.639100724497375,65.47942374665459],[22.63824432350958,65.47946716588817],[22.63760723202885,65.47877746551102],[22.639163294853596,65.47815707561062],[22.63974817537619,65.47866891796764]],[[22.63320498185648,65.45192588179343],[22.63448824676303,65.45186080789178],[22.634216892153486,65.45241606291023],[22.632933599234953,65.45248113479555],[22.63320498185648,65.45192588179343]],[[22.630857749387527,65.45132289218894],[22.63128549764266,65.45130120882557],[22.631337609817507,65.4514790641909],[22.630857749387527,65.45132289218894]],[[22.626916235510457,65.49863217375373],[22.627772967720908,65.49858882817921],[22.627929576622424,65.49912239522843],[22.627020629212517,65.49898788585614],[22.626916235510457,65.49863217375373]],[[22.62368700188573,65.50096145936196],[22.625400628785936,65.50087479829415],[22.624230718381906,65.49985098871903],[22.626801041571525,65.49972098179347],[22.626633641369285,65.50063193369105],[22.62577683991651,65.50067527352148],[22.62630963481315,65.50100931680763],[22.624648189349138,65.50127384520788],[22.622390733624957,65.50247096489356],[22.620624827341256,65.50237973444297],[22.620896769599437,65.50182450400169],[22.623362948470138,65.50133883664483],[22.62368700188573,65.50096145936196]],[[22.62602697920883,65.50300907628038],[22.62645541832789,65.50298740586628],[22.62650762215672,65.50316526201921],[22.62602697920883,65.50300907628038]],[[22.620049294646364,65.46630990917689],[22.621281224266813,65.4660670802566],[22.62160506012363,65.46568970336781],[22.624120904259364,65.4653818692788],[22.62604127810325,65.46600662421496],[22.62582172535332,65.46673972461045],[22.626353961402636,65.46707376701829],[22.625278363360675,65.4678502098829],[22.622762297855765,65.46815806556313],[22.622062502395032,65.46873496517291],[22.621206416977515,65.46877828450634],[22.619557764600582,65.46759823602159],[22.620049294646364,65.46630990917689]],[[22.622484054792338,65.50427120289368],[22.62371725480093,65.5040283601475],[22.623612881739213,65.50367264553685],[22.626079180174557,65.50318693261089],[22.626235787777354,65.50372050144709],[22.624950431356513,65.5037855075809],[22.62425009486612,65.50436241023714],[22.62301688446042,65.50460525743925],[22.622484054792338,65.50427120289368]],[[22.623469246229828,65.47353714336644],[22.624325482771408,65.47349380963232],[22.624377601055834,65.47367166736714],[22.623469246229828,65.47353714336644]],[[22.622665113413607,65.47375833072165],[22.623521358800023,65.47371500145609],[22.623573472152287,65.47389285951988],[22.622665113413607,65.47375833072165]],[[22.619437643078747,65.47608753893078],[22.615950039183844,65.47752733840974],[22.6082973499982,65.47809447402798],[22.606753151191274,65.47726999069985],[22.60784112271699,65.47504916420519],[22.609721002819423,65.47405176192159],[22.61400078103923,65.47383551316695],[22.613896685494428,65.4734797890596],[22.61518058659251,65.47341489199788],[22.617540083157298,65.472573623193],[22.618500133221662,65.47288605983447],[22.621016067892604,65.4725783021975],[22.620524486253323,65.47386663278294],[22.622717221051495,65.4739361891402],[22.622393306234454,65.47431356925594],[22.6211089042226,65.474378552089],[22.619437643078747,65.47608753893078]],[[22.608316052151586,65.44993694294968],[22.607888462564162,65.44995855314683],[22.60783651321815,65.44978068800579],[22.608316052151586,65.44993694294968]],[[22.60294518644382,65.52962385437387],[22.603049403172385,65.5299795849146],[22.603907211818473,65.52993636358468],[22.6041156776427,65.53064782293848],[22.601425854985624,65.53186627711335],[22.600788524086337,65.53117641729017],[22.60294518644382,65.52962385437387]],[[22.599297083856378,65.44876810076425],[22.59881761903132,65.44861181638954],[22.59924519568084,65.44859023203401],[22.599297083856378,65.44876810076425]],[[22.599633336765244,65.44694624316242],[22.60177107229087,65.44683829924122],[22.602406237636405,65.44752817688563],[22.600100346645846,65.44854705971177],[22.59924519568084,65.44859023203401],[22.599633336765244,65.44694624316242]],[[22.600809811208684,65.47179429225687],[22.600381857114925,65.47181588495533],[22.600329906346325,65.47163801721929],[22.600809811208684,65.47179429225687]],[[22.600008996479296,65.446746788328],[22.599581450668406,65.44676837452842],[22.599529565349485,65.4465905058687],[22.600008996479296,65.446746788328]]],[[[22.459989590000003,65.52248759],[22.46254638,65.53138377000002],[22.48399878,65.53032163],[22.486564679999997,65.5392173],[22.50802233,65.5381517],[22.50544925,65.52925646],[22.54668436753172,65.52719685721371],[22.54676156821534,65.52648815641712],[22.545748628032445,65.52599738675868],[22.54612581271479,65.52579805044486],[22.546931880704342,65.52557726370544],[22.548455603190817,65.52333534432901],[22.55190127281987,65.5217191169745],[22.552551931811973,65.52096464240711],[22.55426715491477,65.5208787717215],[22.554592444627872,65.5205015301053],[22.55545003847657,65.52045858580254],[22.55841434951875,65.5186858056985],[22.560025822360718,65.51824410372976],[22.559558883012905,65.51752194667901],[22.459989590000003,65.52248759]]],[[[22.669895134821388,65.49663354628696],[22.66977322955546,65.49501368241152],[22.66936852615253,65.49484942684776],[22.669895134821388,65.49663354628696]]],[[[22.749237550000004,65.54401115],[22.750116241196757,65.54694900017991],[22.75180837224826,65.54696203220621],[22.75277310028686,65.54727355252159],[22.752666758629164,65.54691794811687],[22.75352514180815,65.54687385919117],[22.75336561809328,65.54634045346926],[22.7554583316353,65.54605241165318],[22.755298774454154,65.54551900832439],[22.756103916360722,65.54529710420337],[22.755462013753792,65.54460795209198],[22.755678426214452,65.5438746968339],[22.759593856344953,65.54385398609286],[22.76007620383154,65.54400972236517],[22.759913128965973,65.54492078184911],[22.761952423523756,65.54445485313117],[22.762275106861093,65.54407718704338],[22.765814672581303,65.54425618254119],[22.76661968290297,65.54403422384142],[22.766513168446462,65.54367863099645],[22.772520839353685,65.54336936699715],[22.77316315701198,65.54405844235603],[22.77192907463502,65.54430253311376],[22.772088962869525,65.54483591541658],[22.770801544355123,65.54490220331563],[22.77020968599919,65.5458353637047],[22.76935137106555,65.54587954656989],[22.76902877064853,65.54625722688941],[22.771387768221917,65.54685794234659],[22.774338637368768,65.54652544664489],[22.77423200541055,65.54616986045569],[22.776001958268832,65.54625922690533],[22.77541282999016,65.54574795761093],[22.777236092128312,65.54601510237971],[22.77712942319206,65.54565951862236],[22.778363517788048,65.54541538531335],[22.777827700367055,65.54508191712631],[22.783084024773693,65.54517204047066],[22.783353032817608,65.54461654320751],[22.782494784876118,65.544660799932],[22.783032806223044,65.5435498069791],[22.782121230168876,65.54341627169724],[22.781907787994008,65.54270511211581],[22.78286891260581,65.54227957642208],[22.749237550000004,65.54401115]],[[22.77739856348725,65.54510403056022],[22.77734522975902,65.54492623874233],[22.777774363768675,65.54490412548981],[22.77739856348725,65.54510403056022]],[[22.77621780067258,65.54552594825272],[22.77664694570136,65.54550383808252],[22.776700276095767,65.54568163018278],[22.77621780067258,65.54552594825272]],[[22.773592281024595,65.54403634107071],[22.773645586979814,65.54421413450008],[22.773216460097125,65.54423623596671],[22.773592281024595,65.54403634107071]],[[22.754975972277666,65.54589666077851],[22.754546798646523,65.54591870977777],[22.75449361866144,65.54574090830636],[22.754975972277666,65.54589666077851]]],[[[22.80126965696025,65.54188603810964],[22.801216168510493,65.5417082563503],[22.800787111084198,65.54173043528824],[22.80126965696025,65.54188603810964]]],[[[22.79579152048238,65.54975202443235],[22.796220714993154,65.54972985822182],[22.79616724154267,65.54955207450122],[22.79579152048238,65.54975202443235]]],[[[22.69718368310969,65.49506049463263],[22.69723634888604,65.49523832143335],[22.69766474863149,65.49521644306552],[22.69718368310969,65.49506049463263]]],[[[22.696815044818216,65.49381570629144],[22.69595828871587,65.49385945654015],[22.696010943236537,65.49403728388334],[22.696815044818216,65.49381570629144]]],[[[22.69648486950459,65.49563772878875],[22.695628053032163,65.49568147779527],[22.695680709739314,65.49585930523395],[22.69648486950459,65.49563772878875]]],[[[22.694613285179965,65.49519173842661],[22.69493638623589,65.49481421200511],[22.693598555603124,65.49470199184516],[22.692952307908104,65.49545703875022],[22.694613285179965,65.49519173842661]]],[[[22.69392166584486,65.49432446749996],[22.693974307645973,65.49450229568637],[22.69440269862909,65.49448042666032],[22.69392166584486,65.49432446749996]]],[[[22.690862881412354,65.49574418162297],[22.690968131103265,65.49609984046764],[22.69300494587097,65.49563486731641],[22.692471265146953,65.49530107507407],[22.690862881412354,65.49574418162297]]],[[[22.54612581271479,65.52579805044486],[22.547035314736465,65.52593304069718],[22.546983597331508,65.52575515221403],[22.54612581271479,65.52579805044486]]],[[[22.601773657225323,65.45279430145644],[22.60172174259618,65.45261643384754],[22.60129410270475,65.45263802587753],[22.601773657225323,65.45279430145644]]]]}}]}