{"type":"FeatureCollection","properties":{"source":"SMHI SE.SR Ytansamling av alger","date":"2020-08-24","note":"Test: SMHI WFS clipped to Lulea municipal sea area and simplified 20 m."},"features":[{"type":"Feature","properties":{"cyano_daymap_file_id":4372,"date":"2020-08-24Z","cloud":null,"sub_surfac":null,"surface":null,"no_data":null,"class":1,"color_hex":null,"algae_class":"class_1","source_date":"2020-08-24"},"geometry":{"type":"MultiPolygon","coordinates":[[[[22.34936471,65.13099472],[22.34899532465544,65.12966513984045],[22.346488379638878,65.13113602213276],[22.34936471,65.13099472]]],[[[22.407777609999997,65.11006193999998],[22.405288140000003,65.10116416000001],[22.396858995939553,65.10158242319893],[22.38007372293952,65.11143072887137],[22.407777609999997,65.11006193999998]]],[[[22.442501059999998,65.08126623],[22.45501777,65.1257509],[22.497266019999998,65.12363259],[22.485389372953673,65.08165924544683],[22.479066537223485,65.07943396414845],[22.463591449999992,65.08021069999998],[22.4616475667439,65.0733034697153],[22.4512775467598,65.06965380799399],[22.43046153522474,65.08186704065797],[22.442501059999998,65.08126623]]],[[[22.50231349,65.14142431],[22.4811764,65.14248580999998],[22.48369599,65.151382],[22.46255008,65.15244096],[22.46003745,65.14354433000001],[22.43889663,65.14459989000001],[22.443909829999996,65.16239393999999],[22.338108300000002,65.16763141],[22.34305918,65.18542946],[22.364237140000004,65.18438707],[22.36672232,65.19328559],[22.409086680000005,65.19119102],[22.419101900000005,65.22678106000001],[22.440309279999994,65.22572759999998],[22.442824749999996,65.23462453],[22.464037269999995,65.23356765999999],[22.471615979999996,65.26025678],[22.49284766,65.25919564],[22.49538469,65.26809146],[22.516621499999996,65.26702689],[22.519167450000005,65.27592222],[22.54040939,65.27485423],[22.54552104,65.29264382],[22.56677515,65.29157198],[22.561649439999997,65.27378325999999],[22.6041238,65.27163237],[22.601549759999997,65.26273878999999],[22.622777049999993,65.26165929999999],[22.617620710000004,65.24387283],[22.63883205999999,65.24279124],[22.641416279999998,65.25168406999998],[22.70505978,65.24842009],[22.702454560000003,65.23952859],[22.72365819,65.23843509],[22.72104792,65.22954397000001],[22.742242619999995,65.22844793],[22.739627289999998,65.21955718],[22.845536639999995,65.21403459],[22.840242099999994,65.19625738999999],[22.819078079999997,65.19736696],[22.813805319999997,65.17958859],[22.834955419999996,65.17847991999999],[22.83231502,65.16959109],[22.85345621,65.16847991],[22.848167400000005,65.15070294],[22.86929276,65.14958969],[22.866644359999995,65.14070156],[22.84552594,65.14181435],[22.842886419999996,65.1329257],[22.863997920000003,65.13181336],[22.861353449999992,65.12292508999998],[22.88245607,65.12181023],[22.88043326331403,65.11502447033453],[22.8574198396373,65.1087830198622],[22.834140100733826,65.10341959906197],[22.834979599999997,65.10625935],[22.813886900000004,65.10736738],[22.82177297,65.13403509],[22.77954022,65.13624497],[22.77692343,65.1273549],[22.75581107,65.12845494999999],[22.753203149999997,65.11956438],[22.7109865,65.1217547],[22.713580569999998,65.13064616],[22.69246243,65.13173731999998],[22.684706759999994,65.10506141999998],[22.66360749,65.10614829],[22.656428420937765,65.08133247386904],[22.622043315924994,65.0805348656589],[22.5890680589074,65.08077551930198],[22.5562078378235,65.0819784364121],[22.5236222511317,65.0841381956597],[22.507894872742433,65.08560226694733],[22.50828707,65.08698653000002],[22.529378799999996,65.08592169],[22.53190799,65.09481697],[22.553004769999998,65.09374872999999],[22.55046866999999,65.08485388999999],[22.571556659999995,65.08378313],[22.576644580000004,65.10157189],[22.55554276,65.10264352],[22.560624359999995,65.12043289],[22.497266019999998,65.12363259],[22.50231349,65.14142431]],[[22.69505148,65.14062916],[22.716176559999997,65.13953755999998],[22.718774469999996,65.14842888999999],[22.676508519999995,65.15061001],[22.67392448999999,65.14171779999998],[22.65279558,65.14280347],[22.6502204,65.13391075],[22.69246243,65.13173731999998],[22.69505148,65.14062916]],[[22.51243093,65.177007],[22.533593989999996,65.17594081],[22.531054839999996,65.16704566],[22.552209049999995,65.16597693],[22.547122500000004,65.14818732],[22.610532040000002,65.14496591],[22.61309523,65.15385944],[22.57081019,65.15601089],[22.578469409999997,65.18269372],[22.51496497999999,65.18590251999998],[22.51243093,65.177007]]],[[[22.76647565,65.09179399],[22.769852206204973,65.09161737575012],[22.766274218720294,65.09110710077559],[22.76647565,65.09179399]]]]}},{"type":"Feature","properties":{"cyano_daymap_file_id":4372,"date":"2020-08-24Z","cloud":null,"sub_surfac":null,"surface":null,"no_data":null,"class":1,"color_hex":null,"algae_class":"class_1","source_date":"2020-08-24"},"geometry":{"type":"MultiPolygon","coordinates":[[[[22.505590684512622,65.81799471732162],[22.504804923070374,65.81750635154194],[22.5069738432571,65.81739943888977],[22.50751192455021,65.81773384840209],[22.508761123385135,65.81749178405616],[22.50927729375669,65.81781255512912],[22.524030716132373,65.81708356119759],[22.523524933205433,65.81531923038915],[22.524392392602902,65.81527636368128],[22.524287871785607,65.81492058168034],[22.52619511523965,65.81392394423422],[22.52706252231335,65.81388106286211],[22.52695797142525,65.8135252829867],[22.52886500890773,65.81252861419718],[22.528514451184652,65.80983882851203],[22.527333574261487,65.8088143777174],[22.52485198637474,65.80785422631774],[22.524695251098464,65.80732055332271],[22.52377582249982,65.80718552771408],[22.524016147487206,65.80500796768288],[22.525055611242333,65.80405421221617],[22.523076071677107,65.80180591888949],[22.518271319606008,65.80041910048126],[22.516537373160162,65.80050474984533],[22.51534123094673,65.80092476410816],[22.515064220141696,65.8014798555499],[22.51376369837562,65.80154406768631],[22.512254593551674,65.80089668386563],[22.51188961619271,65.79965140923929],[22.510380671378204,65.79900400531308],[22.508992581335885,65.79726781149438],[22.50764015201842,65.79715407171165],[22.507535950688407,65.79679827513547],[22.50666907938591,65.79684104026562],[22.505593858775768,65.796172204212],[22.505437607479955,65.79563850672858],[22.507344208406767,65.79464211125946],[22.508211004436763,65.79459934303101],[22.510065311633053,65.79342501735891],[22.512509174501727,65.7927629639569],[22.512092204804816,65.79133979216478],[22.508798337864203,65.79060004333435],[22.506146271536952,65.79055044034288],[22.505921234931176,65.79128341517153],[22.502177259141433,65.79200947234149],[22.501900047604575,65.79256454182297],[22.50092921930617,65.7922514714415],[22.499247784792516,65.79251482078547],[22.499143721790126,65.79215901712664],[22.49784362249544,65.79222308939265],[22.497670359159482,65.79313395685644],[22.49588480968344,65.79304146489542],[22.495988832001068,65.79339727117691],[22.49425526889202,65.79348266349436],[22.49486203154043,65.79255045212312],[22.495676774530743,65.7923298520274],[22.495468752020578,65.79161823875276],[22.494201752202866,65.7914687502885],[22.472537899999995,65.79255183999999],[22.47373707568578,65.79666513851292],[22.474888948116263,65.79642029737504],[22.47473333059858,65.79588656229713],[22.47771558496723,65.79555958662445],[22.478045241762658,65.79518246613722],[22.478912114275108,65.79513986368295],[22.478374889167156,65.7948053450294],[22.47967517675284,65.79474143689708],[22.479086052757577,65.79422901096022],[22.47984908627731,65.7938305835878],[22.48114932031638,65.79376666341096],[22.483923526827343,65.79272793352321],[22.486575797428998,65.79277792099467],[22.48716503407598,65.79329031689407],[22.485968727565453,65.79371010239763],[22.485795035805403,65.79462096055109],[22.484650583393563,65.79521864384205],[22.484910283938166,65.79610818203729],[22.48317649448386,65.79619345063676],[22.482465371912813,65.79676980337894],[22.481598451658417,65.79681242649556],[22.481702295106697,65.79716824426532],[22.483436155974708,65.79708299172506],[22.48504821608447,65.79808648476128],[22.488134517894874,65.79811511879677],[22.489330988858864,65.79769531469168],[22.490301889624057,65.79800845819686],[22.490665796213143,65.79925379488776],[22.487249793641237,65.79960235359177],[22.486484290149157,65.8008890308194],[22.496807559999997,65.80038126999999],[22.501210395448773,65.8154227234293],[22.50265284133761,65.8161686615605],[22.501475116632363,65.81632709321578],[22.50201497,65.81817139999998],[22.505590684512622,65.81799471732162]],[[22.51616363899216,65.80972724069653],[22.516874338167366,65.80915073504785],[22.517725574947036,65.81055247352853],[22.51619971832093,65.81134970130333],[22.51489870178241,65.81141392797193],[22.51392699433572,65.81110094895392],[22.51453341755422,65.8101686626484],[22.51616363899216,65.80972724069653]],[[22.51482671726371,65.80816900443486],[22.516127570187017,65.80810477998504],[22.516231945105922,65.80846056899553],[22.515364698851418,65.80850338722857],[22.51482671726371,65.80816900443486]],[[22.503086606580467,65.81614728779643],[22.503138723164476,65.81632518746494],[22.502704954977883,65.81634656140591],[22.503086606580467,65.81614728779643]],[[22.496717076741476,65.79588791230051],[22.497150506681923,65.79586655868883],[22.497202533030393,65.79604446125892],[22.496717076741476,65.79588791230051]],[[22.497202533030393,65.79604446125892],[22.49768799519694,65.79620100861463],[22.497254560169416,65.79622236380357],[22.497202533030393,65.79604446125892]],[[22.486851882434227,65.79673452113028],[22.487285336423746,65.79671319531833],[22.487337296754497,65.79689110189791],[22.486851882434227,65.79673452113028]],[[22.487337296754497,65.79689110189791],[22.487822716953357,65.79704768106316],[22.487389257874838,65.79706900845207],[22.487337296754497,65.79689110189791]],[[22.48636647399252,65.79657793876038],[22.486418427655167,65.7967558457181],[22.48598497208661,65.79677716908186],[22.48636647399252,65.79657793876038]]],[[[22.61767283508139,65.80340047046285],[22.615732559065375,65.80279239486867],[22.614918559152652,65.80301362867493],[22.614812848693063,65.80265792080657],[22.612645710465053,65.80276634820954],[22.613248350127723,65.80183370810082],[22.61454858659842,65.8017686506789],[22.616123641120254,65.80114833008327],[22.616017923227343,65.80079262312809],[22.617540015891002,65.79999443542906],[22.617381419474356,65.79946087664032],[22.618248156442913,65.79941748363879],[22.618417168381235,65.7985065228245],[22.619283871168438,65.79846312427738],[22.620805726825402,65.79766490635795],[22.623352825486904,65.7973568057824],[22.624060764815134,65.7967798290189],[22.625307801447477,65.79653683256416],[22.625201979582787,65.79618113302325],[22.62606859046529,65.796137696836],[22.625962760074636,65.79578199790889],[22.627356923246463,65.79571210841098],[22.62682351,65.79391999999999],[22.628879984092023,65.79381630252657],[22.6312975495707,65.7903427182051],[22.639986277471895,65.78703463672049],[22.64538691747289,65.78236438831038],[22.6575697113765,65.7756053006684],[22.6466010174261,65.7675209826933],[22.629626611492498,65.76057883753],[22.604195119519396,65.74896748549598],[22.636865963714,65.73790735481191],[22.6519919525198,65.7256029751429],[22.692209173667,65.73394201467839],[22.696549624402397,65.73320844476036],[22.69478451,65.72731513],[22.67317942,65.72840871],[22.667876109999998,65.71062544],[22.689466629999995,65.70953276],[22.69212457,65.71842398],[22.714872482152316,65.71726600177254],[22.7169667140691,65.7103161878469],[22.7354728450427,65.7111853927368],[22.7390399327984,65.7110226303001],[22.745418013632495,65.709109227441],[22.747244315396795,65.7065474501637],[22.747715649125997,65.69814462065249],[22.75178758796169,65.69814043742223],[22.751548359999997,65.69734652],[22.66522747,65.70173371],[22.66258083,65.69284191],[22.641002860000004,65.69393065],[22.64892695,65.7206072],[22.627325140000004,65.72169424],[22.62996321,65.73058675],[22.60835211,65.73167119],[22.61098488,65.74056407],[22.589364479999997,65.74164591],[22.591991940000003,65.75053918],[22.505461219999994,65.75483779999999],[22.50806139,65.76373278],[22.48641645,65.76480024],[22.49243923861355,65.78543126958894],[22.49533012818776,65.78512832157509],[22.495867360892284,65.78546278041605],[22.496075334712227,65.78617439361558],[22.49373561091362,65.78719199031063],[22.493839575220516,65.78754779862224],[22.49300656975461,65.78737465932231],[22.49386833285692,65.79032662413516],[22.494671403396612,65.79039426145707],[22.49533008240606,65.78963995272004],[22.497392681722356,65.78917739198155],[22.498103265654088,65.78860097494334],[22.499021898244177,65.78873616304399],[22.499351158274724,65.78835900041649],[22.500217759076524,65.7883162795317],[22.500113703060965,65.78796047646944],[22.50146561713825,65.78807428803971],[22.500772162914178,65.78720614638075],[22.502453236950977,65.7869427837705],[22.50305956008833,65.78601054411408],[22.503874026324674,65.78578990294396],[22.503613796774207,65.78490040227803],[22.502157974837246,65.78443080663685],[22.501412577332882,65.7833847662073],[22.502018862069107,65.78245253107366],[22.501481615792787,65.78211809404446],[22.502191921218543,65.78154166069544],[22.503439434878473,65.78129965643353],[22.503335368463564,65.78094385567772],[22.505501222056168,65.78083699399589],[22.506107303037062,65.77990474461176],[22.511686131824284,65.77944884382786],[22.51158196067598,65.77909304973545],[22.51250031695533,65.77922815934573],[22.514457562740187,65.77840958588715],[22.513868146793243,65.77789729725443],[22.514734367325502,65.77785449760765],[22.515011160637368,65.7772994089373],[22.520657345672927,65.77557651810214],[22.52325572344346,65.7754479914509],[22.52509229730662,65.77571806584218],[22.525300982517347,65.77642963209179],[22.526704568959353,65.77672111630844],[22.527502969910618,65.77794491557788],[22.525546183442486,65.77876365199926],[22.525650545532198,65.77911943466016],[22.52478430432603,65.77916229654384],[22.52423109482211,65.78027250515726],[22.522759351644435,65.78124767124292],[22.523401196066146,65.78193781515189],[22.52773285014067,65.78172349138467],[22.528061601850034,65.78134627180583],[22.528980119972037,65.78148128053594],[22.528771284162858,65.78076972079784],[22.53001849800723,65.78052750200573],[22.531370136260307,65.7806410511409],[22.53152681474234,65.78117471779146],[22.53499197687624,65.78100308551089],[22.534782979932015,65.78029153560135],[22.533050452154516,65.78037735868658],[22.532737050948835,65.7793100287965],[22.53187081750618,65.77935293087391],[22.5344172658239,65.77904632227306],[22.53420830378554,65.77833477123606],[22.5320950280834,65.77861992596493],[22.531938356504348,65.77808625983478],[22.531072162545016,65.7781291569841],[22.530967730523695,65.77777337872672],[22.53281981511073,65.77659879838919],[22.53498515691161,65.7764915228721],[22.533857862857662,65.77564499698003],[22.537045971560516,65.77602844344318],[22.537254989380823,65.77673999003338],[22.53557495463323,65.77700372605703],[22.53654560533828,65.77731657758198],[22.537434013444898,65.78034065073966],[22.53830026891847,65.7802977168312],[22.53928597617919,65.7791659930298],[22.541070685751805,65.7792579851081],[22.540861538187773,65.7785464450262],[22.54216081957023,65.7784820141077],[22.542384729984782,65.77774899703778],[22.543355489590315,65.77806180412084],[22.543683966642252,65.77768455357803],[22.54455012044339,65.77764158515838],[22.546544029725315,65.77844504765571],[22.54481167299432,65.77853100271912],[22.544363968315437,65.77999704251856],[22.543497735073775,65.78004001066515],[22.54284071000712,65.78079451094793],[22.540622757028803,65.7807240161332],[22.540398775327613,65.78145703132621],[22.542183647531523,65.78154900877018],[22.542459880761662,65.7809938758221],[22.5438115920713,65.78110731392087],[22.54549180256394,65.7808434853724],[22.54582028114791,65.78046623020698],[22.548471342474063,65.78051515312242],[22.54966599898729,65.78009489380838],[22.548299929752265,65.78142605956978],[22.546291230836975,65.78206717605673],[22.546538417950998,65.78440114251605],[22.5457767084708,65.78479989029658],[22.546419258966736,65.78548993029314],[22.54609072940167,65.7858671872597],[22.5452243025012,65.78591016713118],[22.545538316828182,65.7869774653017],[22.546457123323183,65.78711236588093],[22.546785662303662,65.78673510803014],[22.54765211378444,65.78669211904293],[22.548727999873357,65.78736065188936],[22.552246240101038,65.78736650195155],[22.551774804491874,65.78576557927242],[22.554374021686723,65.78563651383969],[22.554269231753185,65.7852807550956],[22.558181775406783,65.78364252998712],[22.560400013554496,65.78371276649949],[22.56050488037331,65.78406852026563],[22.559205372795763,65.78413310978182],[22.55936265258867,65.78466674183979],[22.5571967466903,65.78477436924503],[22.557406405540085,65.78548588185444],[22.556644836595883,65.78588468254145],[22.55766849701362,65.78637527203664],[22.55619770500223,65.787350751451],[22.555331248531537,65.78739378905048],[22.555002828135848,65.78777106414182],[22.55354593152117,65.78730196993669],[22.5522986258134,65.78754438212059],[22.552336871613456,65.789166812488],[22.55330818766066,65.78947955069876],[22.553517785224823,65.79019106927379],[22.554870025346474,65.79030440409623],[22.554974848111428,65.7906601621103],[22.555788997382443,65.79043924680586],[22.55589383348312,65.79079500405666],[22.55681282820957,65.79092984037224],[22.556970108337225,65.79146347491015],[22.55870328497513,65.79137737355218],[22.56324605320491,65.79187353691103],[22.56335099918828,65.79222928794883],[22.56177517367613,65.7928490710142],[22.562418363351238,65.79353903726772],[22.565451619930545,65.79338823664162],[22.566094921691615,65.7940781862813],[22.566961581148085,65.7940350855051],[22.570310020487284,65.79495143006999],[22.57057267273981,65.79584079254181],[22.57176765517646,65.7954203567846],[22.57246372511581,65.79628814923949],[22.574840772935687,65.79689177889679],[22.57614087640261,65.79682705019988],[22.576363944165795,65.79609399159561],[22.580421900456663,65.79643334001368],[22.58161674424439,65.79601282845873],[22.580972978334323,65.79532294890345],[22.58341512481046,65.79465977654371],[22.58362560377329,65.7953712449489],[22.58588530668989,65.79706350114135],[22.587132735962367,65.79682081298786],[22.588157413757788,65.79731118766782],[22.590810250707598,65.79735935665079],[22.59134897014578,65.79769346399983],[22.594487914978647,65.79789781015445],[22.59637951940764,65.79834486481076],[22.599465839587698,65.79837124588977],[22.60017434816735,65.79779437438815],[22.599963388761903,65.79708293360271],[22.603810714292013,65.79671021533923],[22.603260601582473,65.79782067933861],[22.60244664533909,65.79804184614589],[22.60260492216233,65.79857542361991],[22.60016292288486,65.79923890181016],[22.600373909007992,65.79995034206318],[22.59950711799647,65.79999363402443],[22.598470602728387,65.80094786699638],[22.597117630689652,65.80083492610831],[22.594675273349416,65.80149831999563],[22.59288886054423,65.8014069724499],[22.592127395438727,65.80180594932594],[22.59195743511728,65.80271689035972],[22.5898308679587,65.80444739082762],[22.591022081727964,65.80472889042028],[22.61767283508139,65.80340047046285]],[[22.53730724581933,65.77691787661684],[22.53865872190893,65.77703136272453],[22.538554190641136,65.77667559064795],[22.539853384759763,65.77661118025908],[22.540077347942,65.77587816606304],[22.54061495278292,65.77621246348258],[22.541481063321516,65.77616951293007],[22.541585632473314,65.77652528262429],[22.540719510204006,65.77656823388686],[22.54087635228871,65.77710188930087],[22.54001020924755,65.77714483673817],[22.53968168429749,65.77752207983565],[22.53654560533828,65.77731657758198],[22.53730724581933,65.77691787661684]],[[22.739206128931322,65.70755892602719],[22.73936655839434,65.70809233831338],[22.7374210262465,65.70891370901663],[22.736125346868786,65.70897978721419],[22.73628994812207,65.7080687359335],[22.737857056704247,65.70744721399123],[22.739206128931322,65.70755892602719]],[[22.705228415095817,65.70098444071614],[22.708304189778943,65.70100868003522],[22.708517183520126,65.7017199490163],[22.705813945929133,65.70294044361181],[22.70322298387343,65.70307204631924],[22.70338872320655,65.70216101923216],[22.705228415095817,65.70098444071614]],[[22.701980700674216,65.70331565114014],[22.703814476378223,65.70358357307082],[22.7037551945557,65.70485023883455],[22.700193898445757,65.70467001416857],[22.699981104113686,65.7039587314837],[22.701980700674216,65.70331565114014]],[[22.69364291481641,65.709154351741],[22.696287728358598,65.70920072765381],[22.697796320589777,65.70984627375834],[22.69816871604116,65.71109102362985],[22.69557689143898,65.71122250482645],[22.693742647790806,65.71095448828102],[22.692719211838664,65.71046482438926],[22.692506565534153,65.70975352970567],[22.69364291481641,65.709154351741]],[[22.64615091669815,65.77058072765787],[22.64620390845794,65.7707585693214],[22.645771049865626,65.77078034076841],[22.64615091669815,65.77058072765787]],[[22.644958314047386,65.77100172217466],[22.645011298630223,65.77117956432537],[22.644578431768696,65.7712013324674],[22.644958314047386,65.77100172217466]],[[22.64062040802032,65.77266385486645],[22.643438749790015,65.7718001580169],[22.64477238043488,65.77480171338179],[22.64062040802032,65.77266385486645]],[[22.64409258537728,65.77104525687746],[22.64419854363298,65.77140094187205],[22.643332800032752,65.77144447240786],[22.64409258537728,65.77104525687746]],[[22.613515451301623,65.77312113853354],[22.613948381804093,65.77309945799816],[22.614001157894506,65.77327731299592],[22.613515451301623,65.77312113853354]],[[22.614001157894506,65.77327731299592],[22.61448687034718,65.77343348585198],[22.614053934785975,65.77345516796765],[22.614001157894506,65.77327731299592]],[[22.619249108637966,65.77319490193415],[22.62038942395917,65.77259625100609],[22.623366971442085,65.77226647489996],[22.622828394817002,65.77193247930869],[22.623641356857224,65.77171121368451],[22.62629158158069,65.77175879150909],[22.62688306103125,65.77227062412608],[22.62823463875212,65.77238331486781],[22.628499010608692,65.77327256000505],[22.627791787587515,65.77384955013574],[22.629735040907256,65.77447405241317],[22.63060091368873,65.77443059783995],[22.630706702723852,65.77478629390929],[22.63222684035654,65.77398797929378],[22.63401145594782,65.77407888403562],[22.633251424458113,65.77447805176581],[22.633083046225874,65.7753890225305],[22.633674746924974,65.77590082658485],[22.634540659595174,65.77585734922839],[22.635830036690635,65.77723663437803],[22.63669598981507,65.77719314437097],[22.637350152595445,65.77643826886415],[22.639461995279834,65.77615166951772],[22.64211269070334,65.77619896748217],[22.642651606165646,65.77653289152296],[22.64291652593064,65.77742210617208],[22.64215653955028,65.77782131786856],[22.638692667718605,65.77799537307074],[22.637932598145746,65.7783945645378],[22.637817324064162,65.7794833839639],[22.635695708753623,65.78121447377237],[22.636234651190886,65.78154842024493],[22.63357381303815,65.78294553686939],[22.63464220358173,65.78505795336041],[22.633121508426086,65.78585629769601],[22.633766408037438,65.78654594557514],[22.629382095043812,65.7865854311967],[22.62841987048512,65.7848286717454],[22.629127366536064,65.78425167593048],[22.628704130067188,65.78282888754295],[22.623242810261036,65.78220023973998],[22.61988387629444,65.78272957717223],[22.61836284779817,65.78352777758371],[22.618679852906325,65.78459489471813],[22.616292411510788,65.78543646670897],[22.61358798084585,65.78521087408409],[22.613313250546735,65.78576612067697],[22.61033401003287,65.78609571721951],[22.610228446145577,65.78574000475477],[22.60892900455356,65.78580501744459],[22.608337551130614,65.78529311485353],[22.60703812632062,65.78535811125934],[22.607143644335807,65.7857138263883],[22.604491996078742,65.78566592971127],[22.60509456920348,65.78473332258106],[22.606668838502728,65.7841131074877],[22.607651647758654,65.78298097096128],[22.607440627804774,65.78226954118593],[22.60830680729453,65.78222621022549],[22.61048313742226,65.7806733386681],[22.613514542555198,65.78052160049161],[22.61330338513976,65.77981018021458],[22.61406388460139,65.77941110730448],[22.613799934564113,65.77852183290297],[22.614507597413734,65.7779449033125],[22.613272094590865,65.77674328214462],[22.6113818193327,65.77629642384929],[22.610304811475142,65.77562834459158],[22.60852015557617,65.7755371626433],[22.606893709975925,65.7759795334102],[22.602300300326004,65.77530679025617],[22.602311674195136,65.7738622633846],[22.603832656377392,65.77306422365814],[22.604698534224752,65.77302091620484],[22.60275598157449,65.77239608775527],[22.602387123295017,65.77115106943467],[22.603200243184435,65.7709299112991],[22.603094852183297,65.7705741922085],[22.605586807069198,65.77008855316964],[22.60839504037336,65.77067001903598],[22.60914435564664,65.77171549609277],[22.608436734144057,65.7722924003465],[22.60757088827995,65.7723357287206],[22.6082674856071,65.77320335229619],[22.60913335916944,65.77316001968785],[22.61059042146173,65.77362858090336],[22.612322184530974,65.77354188421101],[22.61291343240685,65.77405377335428],[22.61421227026682,65.77398873272638],[22.61448687034718,65.77343348585198],[22.619249108637966,65.77319490193415]],[[22.642043333198952,65.77006525169477],[22.641884451453897,65.76953172137613],[22.64275013384531,65.76948819968261],[22.64285606591778,65.76984388586874],[22.642043333198952,65.77006525169477]],[[22.642149258380815,65.77042093844274],[22.641928249633047,65.77115407225665],[22.641495380072723,65.77117583166768],[22.64133650143154,65.77064230074231],[22.642149258380815,65.77042093844274]],[[22.634632677852665,65.78650246412623],[22.634685629534893,65.78668031021405],[22.633819353854356,65.78672379202243],[22.634632677852665,65.78650246412623]],[[22.634588508634472,65.76863479390252],[22.63377573976825,65.76885611598948],[22.633669937675148,65.768500422196],[22.634588508634472,65.76863479390252]],[[22.631274701525776,65.77078672194695],[22.63138048188493,65.77114241762641],[22.630947601833856,65.77116414717901],[22.631274701525776,65.77078672194695]],[[22.622521657466176,65.76942085365417],[22.622954516811053,65.76939914824474],[22.623007345850063,65.76957699958912],[22.622521657466176,65.76942085365417]],[[22.624738786926727,65.76949016501761],[22.62571019828146,65.76980244085985],[22.626523068443145,65.76958116078322],[22.627220219453385,65.77044869214659],[22.629110322533084,65.77089535569795],[22.627431668313168,65.77116009017703],[22.627325942278787,65.7708043912141],[22.626460184503777,65.7708478260304],[22.625435875631737,65.77035770516618],[22.624137254501157,65.77042283928307],[22.625330181049613,65.77000200450635],[22.624464446146415,65.77004542775502],[22.623007345850063,65.76957699958912],[22.624738786926727,65.76949016501761]],[[22.62539312102235,65.76873533917298],[22.625445965227325,65.76891318951945],[22.625013116550356,65.7689349018998],[22.62539312102235,65.76873533917298]],[[22.62211409526889,65.78875483471938],[22.622811656775866,65.78962238226742],[22.621237457278674,65.79024276336958],[22.619071394818903,65.79035127134269],[22.61837393726256,65.78948370564484],[22.619948162202462,65.78886335385688],[22.62211409526889,65.78875483471938]],[[22.605766280318978,65.79589048680005],[22.605819056065428,65.79606834465844],[22.60538573171186,65.79609000602001],[22.605766280318978,65.79589048680005]],[[22.60598849422359,65.79515739341704],[22.6068023290204,65.794936208918],[22.606538438323472,65.79404692127164],[22.610057526735226,65.79405142890133],[22.609507735304582,65.79516191221865],[22.605766280318978,65.79589048680005],[22.60598849422359,65.79515739341704]],[[22.605438505324233,65.79626786403149],[22.60500517723309,65.79628952434892],[22.604952406556592,65.79611166615827],[22.605438505324233,65.79626786403149]],[[22.60413851864582,65.79633284131391],[22.604571848340278,65.79631118344305],[22.604624616882518,65.79648904178673],[22.60413851864582,65.79633284131391]],[[22.6037579508201,65.79653235666335],[22.604191284252114,65.79651069983669],[22.604244050660036,65.79668855833347],[22.6037579508201,65.79653235666335]],[[22.586460574789783,65.79306402434669],[22.588416436520824,65.79224451539378],[22.58987423483827,65.79271326740287],[22.59066419359733,65.79538123239611],[22.588708172457906,65.79620077177167],[22.5856221112807,65.79617417043926],[22.587197546417773,65.79555414484366],[22.586460574789783,65.79306402434669]],[[22.586958691039555,65.79177574892583],[22.58685342162408,65.79142001736311],[22.587772590157112,65.79155466535568],[22.58787787291261,65.7919103961518],[22.586958691039555,65.79177574892583]],[[22.58253317010085,65.7901914951685],[22.584318771703366,65.79028297203031],[22.58652541979251,65.79179735617069],[22.585225601254677,65.79186217056629],[22.585120355321276,65.79150643757427],[22.58257333684372,65.79181389877725],[22.58253317010085,65.7901914951685]],[[22.58287657272086,65.7943256395205],[22.58292918672779,65.79450350689112],[22.582495865588115,65.79452510318124],[22.58287657272086,65.7943256395205]],[[22.581799510966803,65.79365735935004],[22.58185211590498,65.79383522718145],[22.581418804910943,65.79385682031057],[22.581799510966803,65.79365735935004]],[[22.577348526218955,65.79496203290732],[22.577401103653347,65.7951399025472],[22.576967766254175,65.79516148329061],[22.577348526218955,65.79496203290732]],[[22.575076722809122,65.79471418235603],[22.573501038310585,65.7953340851949],[22.572581803206663,65.79519935183404],[22.573238291261514,65.79444472870718],[22.575076722809122,65.79471418235603]],[[22.57184625514894,65.79270914668335],[22.573146156777327,65.79264444551234],[22.57373709522717,65.79315648968429],[22.57184625514894,65.79270914668335]],[[22.570506957013926,65.77923934259181],[22.57061194131412,65.779595088231],[22.569745774217566,65.7796382048763],[22.570506957013926,65.77923934259181]],[[22.56497923219536,65.79178736419831],[22.566764894510044,65.79187904601926],[22.568760610810973,65.79268220002812],[22.568918151032666,65.79321581966603],[22.565884939109708,65.79336668880146],[22.564913325192737,65.79305403365085],[22.564217602021742,65.79218620332648],[22.56497923219536,65.79178736419831]],[[22.562264747015867,65.78109329229088],[22.56470606395645,65.78043042779872],[22.56534900147609,65.78112038414756],[22.564849973828366,65.78240859786486],[22.56148973707222,65.78293666134026],[22.560951719668903,65.78260244163899],[22.561765564773037,65.78238149743994],[22.560794422141505,65.78206881140066],[22.562264747015867,65.78109329229088]],[[22.561072543412504,65.77555758640258],[22.562476467387892,65.77584873783037],[22.561610409692925,65.77589180716336],[22.561715254979333,65.77624756029792],[22.56019275979139,65.7770451945262],[22.55802749774765,65.77715282735579],[22.557370971192498,65.77790738530754],[22.555415160559733,65.77872649542994],[22.55449661231088,65.7785916462866],[22.554339477671647,65.77805800778856],[22.55260717816357,65.77814405088104],[22.551583948945872,65.77765342316162],[22.55132217368898,65.7767640194305],[22.55447234018928,65.77552466783318],[22.555338399884107,65.77548163904092],[22.55587619122728,65.7758158807777],[22.55798895548997,65.77553040143273],[22.55863158441463,65.77622038914852],[22.561072543412504,65.77555758640258]],[[22.560466145964508,65.78244609682385],[22.560571007504,65.78280185059475],[22.56013786044135,65.78282338163316],[22.559599862777947,65.78248915696584],[22.560466145964508,65.78244609682385]],[[22.55775950034513,65.7881755756626],[22.55937383498157,65.78917826009909],[22.55861219113474,65.78957707135994],[22.557312400312963,65.78964164754301],[22.556983982457897,65.79001892687997],[22.555684164466673,65.79008348945213],[22.55471279716986,65.78977076688203],[22.5543983623099,65.78870349175847],[22.55516004765603,65.78830470113812],[22.55775950034513,65.7881755756626]],[[22.55928803354774,65.77546582653903],[22.557451143325633,65.77519616735736],[22.55869780629849,65.77495371939582],[22.55928803354774,65.77546582653903]],[[22.550693994141938,65.77462944785294],[22.55074633806663,65.77480732895913],[22.55031331532817,65.77482883085332],[22.550693994141938,65.77462944785294]],[[22.549389930531216,65.78065003818146],[22.549442280154114,65.78082791968343],[22.549009155069893,65.78084941888459],[22.549389930531216,65.78065003818146]],[[22.54750042826212,65.78020238014582],[22.547933543996677,65.78018088532383],[22.547985882434613,65.78035876743606],[22.54750042826212,65.78020238014582]],[[22.54747156397102,65.78309148536317],[22.547523906324294,65.78326936759736],[22.547090738330034,65.78329086177183],[22.54747156397102,65.78309148536317]],[[22.546363760326116,65.77484441000858],[22.54679678728231,65.77482291929398],[22.546901423148586,65.77517868467905],[22.546363760326116,65.77484441000858]],[[22.546901423148586,65.77517868467905],[22.54738677723166,65.77533507486307],[22.546953742273143,65.77535656733306],[22.546901423148586,65.77517868467905]],[[22.545759255669996,65.77577680370493],[22.545811568380294,65.7759546868148],[22.545378521447695,65.77597617492772],[22.545759255669996,65.77577680370493]],[[22.545401713230017,65.7790431654827],[22.545454031439228,65.77922104866312],[22.545020929332164,65.7792425363055],[22.545401713230017,65.7790431654827]],[[22.543250888550485,65.77770603595391],[22.543198589221692,65.77752815183194],[22.543631664380534,65.77750666963364],[22.543250888550485,65.77770603595391]],[[22.54030129956792,65.77514515165399],[22.540353573119663,65.77532303702286],[22.53948748873188,65.77536598091017],[22.54030129956792,65.77514515165399]],[[22.537859824728287,65.77580762680493],[22.53727001085203,65.7752954326231],[22.539106710895577,65.77556533689575],[22.537859824728287,65.77580762680493]],[[22.53688921652523,65.77549478323138],[22.536993719088787,65.77585055673157],[22.53656066507907,65.77587201986103],[22.536023119443055,65.77553770755809],[22.53688921652523,65.77549478323138]],[[22.532177861941175,65.7759086952251],[22.532610920948763,65.77588724449889],[22.532663143299924,65.77606513300988],[22.532177861941175,65.7759086952251]],[[22.532663143299924,65.77606513300988],[22.533200657394154,65.77639945747418],[22.53276759038089,65.77642090995501],[22.532663143299924,65.77606513300988]],[[22.532282301570692,65.7762644725761],[22.53141616944565,65.77630737106995],[22.53136395510026,65.77612948205265],[22.532282301570692,65.7762644725761]],[[22.531468384583814,65.77648526006166],[22.531520600514742,65.77666314902777],[22.531087527397098,65.77668459679533],[22.531468384583814,65.77648526006166]],[[22.53090014363699,65.77904004980654],[22.5313332564735,65.77901860217945],[22.53138547763793,65.77919649114172],[22.53090014363699,65.77904004980654]],[[22.52960080037027,65.7791043853509],[22.530033915585335,65.77908294139226],[22.530086127948792,65.77926083088639],[22.52960080037027,65.7791043853509]],[[22.530086127948792,65.77926083088639],[22.53100458089148,65.77939582806002],[22.530138341105072,65.77943872035495],[22.530086127948792,65.77926083088639]],[[22.528129327983216,65.78007960060394],[22.52856246103831,65.78005816065028],[22.52861466563032,65.78023605072556],[22.528129327983216,65.78007960060394]],[[22.52861466563032,65.78023605072556],[22.529100009145406,65.78039249924421],[22.52866687101507,65.78041394077523],[22.52861466563032,65.78023605072556]],[[22.526250596082367,65.77367553447522],[22.526094081436938,65.77314186080162],[22.527878333824443,65.77323401183743],[22.527982701172103,65.77358979284352],[22.526250596082367,65.77367553447522]],[[22.527748392859493,65.7802789297645],[22.527800592376185,65.78045682016868],[22.52736745186772,65.78047825803107],[22.527748392859493,65.7802789297645]],[[22.52678797646508,65.77400988286793],[22.527221008998467,65.77398844771689],[22.527273189580196,65.7741663384848],[22.52678797646508,65.77400988286793]],[[22.526892332555693,65.7743656647325],[22.525645383043315,65.77460785533876],[22.525055838410637,65.77409561124668],[22.526892332555693,65.7743656647325]],[[22.520115857165177,65.77073055826534],[22.52027223063015,65.77126423946365],[22.519839236860765,65.7712856544895],[22.520115857165177,65.77073055826534]],[[22.51892113046467,65.77115058663571],[22.519025364223115,65.77150637508663],[22.518592365148102,65.77152778662217],[22.518055143251672,65.77119340777651],[22.51892113046467,65.77115058663571]],[[22.515440905992083,65.77276640919298],[22.51376089078754,65.77302990457083],[22.513656722195584,65.7726741118772],[22.515717635672495,65.7722113198738],[22.515440905992083,65.77276640919298]],[[22.511148826873434,65.77911444144854],[22.511096745419813,65.77893654418726],[22.511529876288197,65.77891515265102],[22.511148826873434,65.77911444144854]],[[22.497980642287327,65.77164323606992],[22.49803261564778,65.77182113886786],[22.497599590378712,65.77184249101549],[22.497980642287327,65.77164323606992]],[[22.497651561595433,65.77202039396457],[22.49721853260461,65.77204174506609],[22.49716656432065,65.77186384194057],[22.497651561595433,65.77202039396457]]],[[[22.475131289999997,65.80144744],[22.481004682711884,65.80115855103949],[22.47975812281206,65.80105349545691],[22.480573265363017,65.80083297214875],[22.48112876021499,65.79972289977141],[22.475596833993055,65.80035564218485],[22.474916512570953,65.80071073086725],[22.475131289999997,65.80144744]]],[[[22.625868747737947,65.77033599135052],[22.625815897117086,65.77015814121314],[22.625435875631737,65.77035770516618],[22.625868747737947,65.77033599135052]]],[[[22.56031131718178,65.77595640199473],[22.561177379651657,65.77591333999622],[22.56112496113419,65.77573546321229],[22.56031131718178,65.77595640199473]]],[[[22.523733960832008,65.81603079550302],[22.52378621972521,65.8162086867175],[22.524653708552954,65.81616581823562],[22.523733960832008,65.81603079550302]]]]}},{"type":"Feature","properties":{"cyano_daymap_file_id":4372,"date":"2020-08-24Z","cloud":null,"sub_surfac":null,"surface":null,"no_data":null,"class":1,"color_hex":null,"algae_class":"class_1","source_date":"2020-08-24"},"geometry":{"type":"Polygon","coordinates":[[[23.105722529999998,65.29045477],[23.084496759999997,65.29160255999999],[23.087236900000004,65.30048578],[23.066002089999998,65.30163106],[23.07147448,65.31939821],[23.050223599999995,65.32054144000001],[23.052955840000003,65.32942538000002],[23.074213740000005,65.32828167999999],[23.07695504,65.33716507999999],[23.05569011,65.33830923999999],[23.058426429999994,65.34719303999998],[23.01587639,65.34947333],[23.01315415,65.3405886],[22.99188312,65.34172380000001],[22.98916994,65.33283854],[22.96790392,65.33397028999998],[22.97061007,65.34285601],[22.949334989999997,65.34398523],[22.952036119999995,65.35287133999998],[22.90946584,65.35512174],[22.92293117,65.39955584],[22.965572039999994,65.39730084999998],[22.968285299999998,65.40618655],[22.98960978,65.40505409],[22.992332140000002,65.41393926],[22.97100059,65.41507217],[22.981882090000003,65.45061397000002],[22.960520139999996,65.45174573],[22.96868136,65.47840274],[22.990064639999996,65.47726959],[22.992398179604965,65.48485411656637],[23.0439526591749,65.41743683403658],[23.1383421263494,65.2880901187065],[23.1042034994379,65.2855375169247],[23.105722529999998,65.29045477]]]}},{"type":"Feature","properties":{"cyano_daymap_file_id":4372,"date":"2020-08-24Z","cloud":null,"sub_surfac":null,"surface":null,"no_data":null,"class":1,"color_hex":null,"algae_class":"class_1","source_date":"2020-08-24"},"geometry":{"type":"MultiPolygon","coordinates":[[[[22.345335449999997,65.34769218999998],[22.34283981999999,65.33879342999997],[22.38544037999999,65.33670315999998],[22.37960698972972,65.31599090831092],[22.37820926920759,65.31596283138528],[22.37745813843383,65.31636063148294],[22.377332944100502,65.31744934274484],[22.378234356103736,65.31758542929506],[22.377057507088917,65.31800416645925],[22.376782059105523,65.31855898978074],[22.375079319935367,65.3186427210035],[22.375279587142725,65.31935457410425],[22.374302863377626,65.32048514398329],[22.373451428305938,65.32052699863209],[22.372775439862615,65.31965810333335],[22.3709725342067,65.31938586018356],[22.367566892405108,65.3195531733799],[22.367291228751032,65.32010798150509],[22.36829273074283,65.32060005989223],[22.366639840135875,65.3208616632966],[22.366014073077796,65.32017070212605],[22.365212634568696,65.32039047714224],[22.365112630636006,65.32003454259907],[22.365964065832284,65.31999273518322],[22.365388339828925,65.31947973800453],[22.364111209110533,65.31954244220273],[22.36223254829977,65.32053676774319],[22.357499530251275,65.32058856402978],[22.356096238008085,65.32173990457885],[22.35607003841126,65.32318454889926],[22.355018720094936,65.3225144165586],[22.353215788353822,65.32224196070091],[22.354393213860725,65.32182340436246],[22.352640256513034,65.32172891272586],[22.35206474759707,65.3212158623132],[22.35291624600209,65.32117412816217],[22.35351811503076,65.32024252980455],[22.35474537865288,65.32000194351022],[22.354871515613592,65.31891324151074],[22.356098704849753,65.3186726449246],[22.35665046945792,65.31756306477138],[22.358303260375575,65.3173015722294],[22.359380475434385,65.31652703978958],[22.360657473705125,65.3164643771384],[22.361408866460742,65.31606665834227],[22.36358712788184,65.31614015436932],[22.365615412465086,65.31567971723769],[22.36664234564461,65.31472716848042],[22.36574108846659,65.31459101082842],[22.36564110404755,65.31423507643414],[22.36771921048594,65.31395257985464],[22.368846023461327,65.31335595011866],[22.368695993594585,65.31282205214438],[22.369497174896683,65.31260226118239],[22.368871542703772,65.31191131052068],[22.370573871073347,65.31182765382368],[22.37132498252629,65.31142988832903],[22.371049473721587,65.31198470176965],[22.372000695963017,65.31229879297241],[22.370723932107136,65.31236154960509],[22.371299597031985,65.31287452697599],[22.370698515675436,65.31380618846487],[22.37330221865117,65.31385862758371],[22.373402304760177,65.31421455583919],[22.370948648076098,65.31469601416006],[22.37197470207741,65.31681067260003],[22.375805609036828,65.31662233197905],[22.37530499078733,65.31484269996258],[22.376256367697323,65.31515676264388],[22.37743310503096,65.31473803289407],[22.376006050875556,65.31426694767245],[22.37911177395877,65.31423257684108],[22.37806556488883,65.31051786814304],[22.377608370398384,65.31076004930864],[22.37703263252025,65.31024709685175],[22.37618153326003,65.31028896352905],[22.376757255690467,65.31080191940494],[22.375530628523858,65.31104267890314],[22.374279162803262,65.30966082727232],[22.374679871629134,65.30801729889339],[22.37680743812983,65.30791264628533],[22.376932631952634,65.3068239354539],[22.377783617956027,65.30678206568231],[22.377508289053427,65.30733688912329],[22.37850947788572,65.30782890264636],[22.384892020487015,65.30751469338054],[22.38509245017057,65.30822653174474],[22.38429153526948,65.30844640311685],[22.38481726291707,65.30878136712305],[22.383540706327118,65.30884423052292],[22.383014993374612,65.30850926189979],[22.380987572961416,65.30896992499366],[22.38149593269886,65.30983299418747],[22.399198540000004,65.30896073000001],[22.396689189999993,65.30006300999999],[22.439222009999998,65.29795819],[22.436700430000002,65.28906127],[22.45795698,65.2880048],[22.44786132,65.25241819999998],[22.4266329,65.25347295],[22.419101900000005,65.22678106000001],[22.37668156,65.22887903],[22.386670469999995,65.26447150999999],[22.365429419999998,65.26551772],[22.36293643,65.25661926999999],[22.299223259999998,65.25973871],[22.301695149999993,65.26863843999999],[22.2804467,65.2696727],[22.287852279999996,65.29637278],[22.26658084,65.29740531],[22.269045990000002,65.30630563],[22.29032449,65.30527268],[22.30023181,65.34087171],[22.32153675,65.33983407],[22.324025289999998,65.34873324999998],[22.345335449999997,65.34769218999998]],[[22.373828839801437,65.30805915155499],[22.373528658066977,65.30699136664794],[22.374805153874398,65.30692858893005],[22.374679871629134,65.30801729889339],[22.373828839801437,65.30805915155499]],[[22.379260897382455,65.31663279834193],[22.37968654681942,65.31661185586357],[22.379736638928133,65.31678981737032],[22.379260897382455,65.31663279834193]],[[22.378885333656346,65.31683170147073],[22.37931098666611,65.31681076001944],[22.37936107669751,65.31698872167259],[22.378885333656346,65.31683170147073]],[[22.378084106949803,65.31705154294517],[22.378935420862643,65.31700966329463],[22.378985508816648,65.31718762509415],[22.378184272304768,65.31740746720283],[22.378084106949803,65.31705154294517]],[[22.37830943124127,65.31631875559395],[22.378359513379507,65.31649671766174],[22.377933864524554,65.31651765637586],[22.37830943124127,65.31631875559395]],[[22.378084040031744,65.31398430897309],[22.37723282216229,65.31402618281898],[22.377032551251393,65.31331433235407],[22.377933818781187,65.31345042218514],[22.378084040031744,65.31398430897309]],[[22.37705762071654,65.31186969597873],[22.37663204529877,65.3118906302546],[22.376581985417122,65.31171266738255],[22.37705762071654,65.31186969597873]],[[22.37610617536239,65.31462287373414],[22.375680554591,65.31464380577944],[22.37563049479858,65.31446584259012],[22.37610617536239,65.31462287373414]],[[22.375229770850584,65.31610937364496],[22.37480412523866,65.31613030346224],[22.374704011394197,65.31577437642504],[22.375229770850584,65.31610937364496]],[[22.3729513995731,65.31568011811308],[22.373377039698678,65.31565919359899],[22.373427087025213,65.31583715766605],[22.3729513995731,65.31568011811308]],[[22.373427087025213,65.31583715766605],[22.373902780127324,65.31599419565558],[22.37347713509883,65.31601512170872],[22.373427087025213,65.31583715766605]],[[22.37252634943785,65.3126338007344],[22.372951940798053,65.31261287792276],[22.373001978250688,65.3127908422331],[22.37252634943785,65.3126338007344]],[[22.373001978250688,65.3127908422331],[22.3734776127121,65.3129478821686],[22.37305201645018,65.31296880651907],[22.373001978250688,65.3127908422331]],[[22.37285131281113,65.31532418956473],[22.372425677588396,65.31534511253979],[22.372375638152807,65.3151671480585],[22.37285131281113,65.31532418956473]],[[22.37265114825113,65.31461233217588],[22.372751229037178,65.31496826091897],[22.37232559946417,65.31498918355285],[22.37265114825113,65.31461233217588]],[[22.372150789134896,65.31283268699985],[22.372576384066203,65.3128117652153],[22.372626419441378,65.31298972967187],[22.372150789134896,65.31283268699985]],[[22.371375759072315,65.30854061095658],[22.37095023191282,65.30856152864794],[22.37085020488706,65.30820559815263],[22.371375759072315,65.30854061095658]],[[22.36263586138566,65.3158260103662],[22.362210208247028,65.31584690459306],[22.362160236613434,65.31566893602022],[22.36263586138566,65.3158260103662]],[[22.35920037041061,65.32357228586079],[22.359626151204555,65.32355139885604],[22.359776071324358,65.32408530699107],[22.35920037041061,65.32357228586079]],[[22.35892449202669,65.32412708082435],[22.359350282048634,65.32410619450691],[22.359450226871687,65.32446213348291],[22.35892449202669,65.32412708082435]]],[[[22.377458181029713,65.31022616171687],[22.379723732921835,65.30992031614929],[22.379861222928387,65.30956664102209],[22.378960080388843,65.30943056147011],[22.378859941268956,65.30907463745767],[22.37673229089615,65.30917931998638],[22.37645691756046,65.30973414195412],[22.377358058519693,65.30987023653387],[22.377458181029713,65.31022616171687]]],[[[22.368970552083237,65.31533448737352],[22.3681192730988,65.31537631022417],[22.367943681756138,65.31628705139583],[22.37139893344572,65.3162976988783],[22.37067310109231,65.31525082729844],[22.369771806341934,65.3151146942026],[22.369596273579507,65.31602543670641],[22.36874497348763,65.31606726331685],[22.368970552083237,65.31533448737352]]]]}}]}