{"type":"FeatureCollection","properties":{"source":"SMHI SE.SR Ytansamling av alger","date":"2005-07-17","note":"Test: SMHI WFS clipped to Lulea municipal sea area and simplified 20 m."},"features":[{"type":"Feature","properties":{"cyano_daymap_file_id":2905,"date":"2005-07-17Z","cloud":null,"sub_surfac":null,"surface":null,"no_data":null,"class":1,"color_hex":null,"algae_class":"class_1","source_date":"2005-07-17"},"geometry":{"type":"MultiPolygon","coordinates":[[[[22.428749840000002,65.64131695],[22.46911141769997,65.63916520126462],[22.468905599751203,65.63845353027293],[22.468095387710736,65.6386739426178],[22.468198285083062,65.63902977881331],[22.467613109244148,65.63851726976421],[22.46842332071571,65.63829685999956],[22.468320423759916,65.63794102395279],[22.470095161550184,65.6380339452477],[22.46945851779362,65.63734352606019],[22.470320136333484,65.63730102422849],[22.470165760221235,65.63676727236754],[22.46925270773198,65.63663185546253],[22.46914980736415,65.63627602001284],[22.46990848224574,65.63587768542979],[22.46813389319104,65.63578476047257],[22.46803101219302,65.63542892407199],[22.466738669589674,65.6354926546439],[22.466050756261772,65.63462430079935],[22.469869874613114,65.63239108715388],[22.466693969999998,65.62140556999998],[22.48822043,65.62034209],[22.48307012,65.60255093],[22.52608828,65.60041662],[22.531267500000002,65.61820602000002],[22.552788109999998,65.61713344],[22.54759443,65.59934491],[22.560403386255878,65.59870381617607],[22.561490020912245,65.59794270839734],[22.565308572717033,65.59757124930609],[22.565582580226465,65.59701609719956],[22.568006755158784,65.59635335198875],[22.569844661455964,65.59517846478325],[22.571942660301758,65.59489294019292],[22.573010913020543,65.59556137755558],[22.58118106872565,65.59515198256598],[22.583344008329956,65.59359963464334],[22.584790337643877,65.59406854976342],[22.586080271785736,65.59400383838651],[22.587643698282395,65.59338392931274],[22.58695297183888,65.59251615344623],[22.585024611404663,65.59189095694514],[22.585884495875245,65.59184781664625],[22.587330770141804,65.59231670807561],[22.589081150518357,65.59200883167448],[22.588496817490086,65.59001571270579],[22.586978477683957,65.58962707745117],[22.583539223102477,65.58979963132344],[22.58284873527621,65.58893183434449],[22.58059504719568,65.58868388439002],[22.578992841084553,65.5876813039948],[22.57716917301257,65.5874117498716],[22.576531029313752,65.58672179593451],[22.57561923658871,65.58658700638297],[22.575944979866236,65.58620971410426],[22.574225540497864,65.5862958736758],[22.574121445556788,65.58594012194258],[22.575632635226196,65.58514246284437],[22.577404059827508,65.5852341627026],[22.578159594895563,65.58483531927587],[22.577625625252775,65.5845011181094],[22.576765966904745,65.58454420924713],[22.576245392279354,65.58276545963191],[22.576896761992856,65.58201087288532],[22.57775633645251,65.58196778185881],[22.577600154172863,65.58143415828917],[22.579319259074996,65.58134796382491],[22.580022579698678,65.58077123871115],[22.581311869477936,65.58070657447087],[22.5818548224043,65.57958238500548],[22.5594414882409,65.58070499977075],[22.55794779495556,65.58133521493896],[22.55848144787647,65.58166948864984],[22.557621844838877,65.5817124706002],[22.557777619745785,65.58224611887574],[22.55643626626422,65.58213270104191],[22.555850717506335,65.58162053644777],[22.554991110847865,65.58166350350776],[22.554353701306912,65.5809734487833],[22.55321999436396,65.58157153848992],[22.551930577776965,65.58163596492714],[22.55079678592273,65.58223403736169],[22.550900544345456,65.58258980850101],[22.54746193157273,65.58276153700803],[22.5468615360698,65.58369389323947],[22.54481598057479,65.58415695254527],[22.54509030385258,65.58360183435106],[22.542081363053885,65.5837519872365],[22.541925898949955,65.58321831968723],[22.54111802667543,65.58343909811059],[22.541703331288797,65.58395132211045],[22.540843619555258,65.58399420995916],[22.54025833069012,65.58348198247874],[22.541770441875276,65.58268465190852],[22.541133353747153,65.58199453831685],[22.539895683757244,65.58223675254985],[22.539621261562118,65.58279186233422],[22.53870978670181,65.58265684747938],[22.538606194505036,65.58230106631538],[22.53688686457345,65.58238680104046],[22.537042219421497,65.58292047486177],[22.535649134444043,65.58262898118988],[22.534463149182397,65.5830490437704],[22.533878007146967,65.58253679016227],[22.53511575030535,65.58229462435077],[22.533670959050017,65.58182521978092],[22.53533849306302,65.581561629843],[22.53502787977108,65.58049427757963],[22.533686704799898,65.58038065652651],[22.533583192143613,65.580024871128],[22.530849176840878,65.57961969700874],[22.529989586547046,65.57966252203995],[22.52971497548827,65.58021761577784],[22.527995747814575,65.58030324856696],[22.527032706296914,65.57999026691398],[22.524557255057402,65.58047445599061],[22.5239723671953,65.57996216156862],[22.522734624667613,65.58020423633009],[22.522527903390774,65.57949264743642],[22.52386898924958,65.57960636817644],[22.52581118061829,65.57878779950354],[22.525707783177406,65.57843200756463],[22.52479653010263,65.57829690677018],[22.525604388852802,65.57807621552408],[22.525019537372813,65.57756392478184],[22.529265441060346,65.57717200062635],[22.530622360827014,65.57584109791985],[22.529659457264945,65.57552813157562],[22.531808087720496,65.57542106802966],[22.531068000169483,65.5743751202756],[22.529349163442383,65.57446076446823],[22.528816033038098,65.5741263828975],[22.531875683649186,65.57415439736064],[22.532528152352835,65.57339999045163],[22.53166877061153,65.57344282290053],[22.531135632494642,65.57310844957382],[22.533284056072194,65.57300136718307],[22.53233707398494,65.57124385292217],[22.53051502148579,65.57097372103135],[22.526270146270264,65.57136566982024],[22.52241954985574,65.5701136468025],[22.52719729549642,65.57005619770989],[22.52967171373307,65.56957197596323],[22.529568307700167,65.56921618675851],[22.531716418130888,65.56910912977166],[22.531612986396336,65.56875334222394],[22.532472213588807,65.5687105116565],[22.534309870406812,65.56753605818282],[22.53522078884939,65.56767110513074],[22.536354330408845,65.56707315184985],[22.537213492797548,65.56703029503814],[22.537948103553767,65.56623233740429],[22.53723052,65.56376710000002],[22.540096098391974,65.56345746570801],[22.538978296504546,65.56261088334834],[22.539837306599818,65.56256801319398],[22.541725973897407,65.56157136787549],[22.54296265314488,65.56132914875181],[22.54306620424396,65.56168492732246],[22.54435466027232,65.56162058607497],[22.54493951110754,65.56213280212303],[22.54569490327845,65.56173412212425],[22.54741283588924,65.56164830161953],[22.54768689425063,65.56109318146271],[22.550796835110617,65.56129871643675],[22.553817805336507,65.55970386303726],[22.553936175237716,65.55861507841126],[22.554846873246653,65.55875000952967],[22.55555016180476,65.55817339846118],[22.557593499938722,65.55771021681053],[22.558296700049947,65.55713359388511],[22.559584885746254,65.55706912577776],[22.56109490405493,65.55627162370472],[22.561679954313437,65.55678377303228],[22.564204355451796,65.5564768882397],[22.568030713557444,65.5546608750796],[22.567926855509924,65.55430511674231],[22.568785534430624,65.55426208572699],[22.568681668001904,65.55390632799374],[22.57207803940618,65.55211173496156],[22.57503114919004,65.55178314938298],[22.575616364508807,65.552295243144],[22.57690425946286,65.55223063062243],[22.579545307099796,65.55083470500917],[22.581262386969073,65.5507485091285],[22.581574464959218,65.55181575129625],[22.58023459813541,65.55170252904402],[22.580767902064032,65.55203672773692],[22.5788289150153,65.55266149981303],[22.60630106475846,65.55127902667562],[22.607434570912968,65.55087615304505],[22.607017080398233,65.54945324874765],[22.610137603211545,65.54821304762804],[22.610995997284455,65.54816978008297],[22.610827832119778,65.54908072262675],[22.612492452105062,65.54881631344028],[22.612701334283383,65.54952775677036],[22.61441819555554,65.54944118697603],[22.615381101776602,65.54975361420155],[22.613448484493894,65.55091934911566],[22.62050532,65.55056423],[22.62268368845554,65.55796975506064],[22.622937162774967,65.55767517443113],[22.625083856714706,65.55756680764905],[22.62518851033567,65.55792251849454],[22.623952798438843,65.55816539917792],[22.625020800826178,65.55883347217559],[22.624905411574595,65.55992228125821],[22.62342340862861,65.56048448862907],[22.625737039999994,65.56834985],[22.690155209999993,65.56508422999998],[22.69279562,65.5739756],[22.714271569999994,65.57288055999999],[22.711623970000005,65.56398964],[22.733090739999998,65.56289203],[22.73043794,65.55400149],[22.73253962238252,65.55389373190955],[22.7370420418335,65.55151070437127],[22.737635215277507,65.55057766006924],[22.73951610036555,65.54957859967678],[22.740750750358966,65.54933476740372],[22.74102070502074,65.54877933561647],[22.743649212822092,65.54882505588428],[22.745259890411827,65.5483813632256],[22.74408275078892,65.54735857136998],[22.744941165972055,65.54731453080913],[22.745047404255267,65.54767014172108],[22.74719345693339,65.54756001735178],[22.74875085091815,65.54693848456289],[22.750116588123042,65.54694900285178],[22.746581579999994,65.53512092999999],[22.72513834,65.53622021],[22.727787149999997,65.54511088],[22.706334749999996,65.5462076],[22.70160814237683,65.53028079333211],[22.697767495001784,65.52932887868215],[22.697127542075986,65.52863945920383],[22.695735218852523,65.52834945005498],[22.69605868599736,65.52797191729945],[22.695049709851432,65.52603770156263],[22.692265419685086,65.52545762850461],[22.691144125173007,65.52461222094111],[22.688518103239375,65.52456556289201],[22.687396968923945,65.52372012588674],[22.687720504598815,65.5233426102747],[22.686870323085117,65.52194182216279],[22.687622687633574,65.52154245332375],[22.68741203486107,65.52083113232219],[22.68826969297372,65.52078742114419],[22.688164359870093,65.52043176120257],[22.691978327800086,65.51861268150816],[22.69519777834376,65.5177263993753],[22.69509236581196,65.51737074509857],[22.696055318767627,65.51768264525752],[22.697694267745792,65.51709257684776],[22.69578014,65.51064272],[22.67435443,65.51173461],[22.67698294,65.52062638],[22.655548089999996,65.52171571],[22.65817142,65.53060786],[22.679613439999994,65.52951807999999],[22.682245909999995,65.53840971999999],[22.654738694376316,65.53980585656956],[22.653576772669986,65.54042156105973],[22.65416340658655,65.54093332967105],[22.65330501748344,65.54097685493089],[22.65303325137649,65.54153214842913],[22.652174840296762,65.5415756675036],[22.65200798898487,65.54248664852028],[22.652918909570552,65.54262097430292],[22.653505582900205,65.54313274506784],[22.656667696171567,65.54351390695206],[22.65725446358887,65.54402566221309],[22.658542184596204,65.5439603374653],[22.658699751686267,65.54449386284422],[22.660574345119368,65.54494026710178],[22.66174812317902,65.54596374254932],[22.663894457708775,65.54585479676648],[22.665077108727584,65.54543373669725],[22.666093349486236,65.54592365938827],[22.669098176988925,65.54577104090036],[22.66925597318145,65.54630455292173],[22.670114505438217,65.54626093567953],[22.6712970708954,65.54583982787909],[22.676824698050904,65.54537832120799],[22.677148639008095,65.5450008239477],[22.67843634793765,65.5449353300118],[22.68198333603024,65.54367179113602],[22.682088698152068,65.5440274551601],[22.680582513628977,65.54482614926263],[22.6830525063332,65.54433942935475],[22.68337634406009,65.54396191983474],[22.68471668231339,65.5440742045221],[22.684874785525597,65.54460769705608],[22.682939417421892,65.54542826487335],[22.68304480114266,65.54578392801383],[22.685620253421497,65.5456528284665],[22.687277017845414,65.5468320712337],[22.68899404107554,65.54674462781067],[22.6897470669132,65.5463452414493],[22.688835837983685,65.54621114060562],[22.68873037322286,65.54585548233744],[22.694310424230647,65.54557116922798],[22.694897972350883,65.54608277034883],[22.699619535153143,65.54584201884767],[22.699559946002356,65.54710868416345],[22.69611895454154,65.54872828277801],[22.696277325033037,65.54926176064346],[22.695471532901006,65.54948335306523],[22.69450033210066,65.55061595402066],[22.69486982939307,65.55186073977926],[22.691089644815257,65.55674675641671],[22.689635795134723,65.55772337318848],[22.6902235414612,65.55823499046872],[22.689417422199377,65.55845655405719],[22.689681267301484,65.55934569660567],[22.688498407067843,65.55976695117194],[22.688603936589356,65.56012260897884],[22.687315508342856,65.56018819689453],[22.685914079703565,65.56134261083119],[22.68467832494196,65.56158600706084],[22.68241765761749,65.56278409582443],[22.68069955125413,65.56287147582366],[22.679569095844236,65.56347049597875],[22.677798232529415,65.56338001092341],[22.67575589752737,65.56384483650358],[22.67543171771906,65.56422233331303],[22.673283928961794,65.56433145776928],[22.67167100484968,65.56477440730845],[22.669040934855484,65.56472745285683],[22.66759431914362,65.56425936462196],[22.666585878629654,65.56232495293301],[22.665621581839275,65.56201287884244],[22.66589326550425,65.56145756349636],[22.663272293042414,65.55996599652588],[22.66005550570817,65.5594071534818],[22.65995036916842,65.55905147175696],[22.657592722270106,65.5584490056636],[22.65648337502444,65.55776814004822],[22.644587709999996,65.55837199999999],[22.64313478833185,65.55344461032627],[22.642548209480957,65.55325449235829],[22.642879349885153,65.55257832497026],[22.64196564,65.54947960000001],[22.64959995837167,65.54909208932645],[22.649341887940245,65.54821739335611],[22.65009557579796,65.54781819756204],[22.649403923685988,65.54695072292209],[22.649413493993812,65.5455062069085],[22.64731956394824,65.5457927942211],[22.646680504282052,65.5451031521318],[22.644534144927757,65.54521185399335],[22.643570751293197,65.54489963021416],[22.642764626403928,65.54512094533622],[22.640408963751923,65.5445181783705],[22.640251770558113,65.54398463011334],[22.63736290634759,65.54304780637985],[22.636891567002728,65.54144714917943],[22.63918694753661,65.54004844155847],[22.63672743,65.53169461],[22.61528147,65.53277835],[22.617892409999996,65.54167131999999],[22.59984374153998,65.54258082395907],[22.599664632843044,65.54368681786357],[22.598702138428248,65.54337428644654],[22.597414745941865,65.54343907930222],[22.597310541136807,65.54308334472745],[22.595866883370434,65.54261452198858],[22.596294135689764,65.54226345287226],[22.595352267406508,65.53904640129007],[22.592796604014858,65.53807628438457],[22.592484265413436,65.5370090681207],[22.593238208136846,65.5366101658732],[22.59308203687404,65.53607655830172],[22.594336775053602,65.53557787884513],[22.59383355,65.53385906],[22.572048370819886,65.53495354759512],[22.571644053350635,65.53570961700686],[22.5698760276525,65.53561781523928],[22.569550785515524,65.53599508926654],[22.56659938034339,65.5363235505191],[22.564284395593162,65.53734197972845],[22.564062775870816,65.53807500516798],[22.562553873422836,65.53887252541058],[22.560889344016637,65.5391363842979],[22.559003003103957,65.54013324486093],[22.551966852150887,65.54138777474243],[22.551108563514568,65.54143070637515],[22.551382355151276,65.54087558229138],[22.550524082202767,65.54091851044883],[22.55030204905349,65.54165151993912],[22.548962828288182,65.54153801429567],[22.54783066027507,65.54213604793476],[22.547934185817176,65.54249182340567],[22.546646685202308,65.54255618540489],[22.545085240594595,65.54317565118579],[22.544981750627645,65.54281987340309],[22.543265048278904,65.54290565382655],[22.542628957653697,65.54221553651817],[22.54312518075515,65.54092742510068],[22.54430914175899,65.54050731533168],[22.54442787029605,65.53941853459999],[22.54598911076258,65.5387990776905],[22.546588596759065,65.53786673433092],[22.54744677714778,65.53782382944014],[22.54895609263395,65.53702645568067],[22.549178132070054,65.53629344811685],[22.550739073441935,65.53567394524705],[22.549209572582697,65.53009116305581],[22.547847802131955,65.5302238107679],[22.546354012668836,65.52957661141785],[22.546679519297104,65.52919938460015],[22.545511330275623,65.52817494845794],[22.546684026157493,65.52719999102258],[22.52689779,65.52818827],[22.529478059999995,65.53708308],[22.50802233,65.5381517],[22.51059736,65.54704688],[22.55352123,65.54490573],[22.55611258,65.55379996],[22.54700262968429,65.55425442151927],[22.544156654528848,65.55495290635342],[22.543997027552727,65.55440435982452],[22.513174319999997,65.55594198999998],[22.515753219999997,65.56483704999998],[22.494273969999995,65.56590396],[22.502000709999997,65.59259005],[22.4159778,65.59683266],[22.41342917,65.58793562],[22.39192585,65.58898826],[22.393790421206035,65.59551366149871],[22.394526289368567,65.59537058977133],[22.394753105207254,65.5946377630162],[22.398065163161025,65.59249100955005],[22.401025227888468,65.59216575072529],[22.402038141434463,65.59265748894417],[22.403758680804675,65.59257327263366],[22.40515089265021,65.5928659871546],[22.4054054445321,65.59375571044869],[22.404216796134026,65.59417477923814],[22.404369515063514,65.59470861432766],[22.405609099859497,65.59446748863853],[22.40700143444082,65.59476018494352],[22.407737184983127,65.59580678039158],[22.406876817716498,65.59584891453737],[22.406548483274207,65.59622586799442],[22.407510728626708,65.59653962299423],[22.407386129079168,65.59762835283489],[22.410222166421217,65.59839163846536],[22.408552212584276,65.59865387493514],[22.408427651779355,65.5997426052456],[22.40610081268002,65.60075872977669],[22.406253616871652,65.60129256211901],[22.405393065311685,65.60133468967155],[22.40425499992085,65.6019317066167],[22.404356848903536,65.60228759630488],[22.40283933037267,65.60308360759902],[22.401978712904945,65.60312571642457],[22.401321719250184,65.60387960462063],[22.4000307479554,65.60394275355209],[22.399928950338676,65.6035868604502],[22.396105407152675,65.60361537020086],[22.39701057,65.60678315],[22.44004421,65.60467311000001],[22.441861236600356,65.61098351650463],[22.44460535341876,65.61023689884544],[22.44599896392305,65.61052922417457],[22.447187652066948,65.61010982740736],[22.447085180093694,65.60975397276647],[22.447945928548872,65.60971160660735],[22.44791513787546,65.60808907929072],[22.446419187643773,65.60744091516449],[22.448140530992347,65.60735618705162],[22.447986824259196,65.60682240601903],[22.44740280716515,65.60630980756476],[22.445630312915434,65.60621659863547],[22.445476665810748,65.60568281446511],[22.448785817931196,65.60353498220572],[22.450455650286077,65.60327230378034],[22.450711874308613,65.60416193411436],[22.452381725909593,65.60389923428379],[22.452484242523756,65.604255084898],[22.455014624911524,65.60394996143565],[22.45577260440629,65.60355170446492],[22.457923914042095,65.6034456622352],[22.460331758105298,65.6042292004493],[22.461622566372355,65.60416553973475],[22.46275938102666,65.60356810485095],[22.46367122789275,65.60370357283448],[22.46478845354744,65.60455071652994],[22.462309465219043,65.60503392372945],[22.462084490031067,65.60576683284158],[22.459759274916234,65.60678376441409],[22.46039486510073,65.60747423474925],[22.45984211942091,65.60858420417387],[22.45767049034058,65.61013487393231],[22.456809746989773,65.61017729523826],[22.455672511836532,65.61077468970602],[22.453090197182927,65.6109019057875],[22.45035407317606,65.6104953002846],[22.44931918047082,65.61144850082744],[22.45000587768931,65.61231694256486],[22.44559923041211,65.6121729316271],[22.445066359282656,65.61183825290003],[22.4422033494879,65.61217165067421],[22.44772915,65.63136237],[22.426191569999997,65.63242022],[22.428749840000002,65.64131695]],[[22.600639278461927,65.54255481059297],[22.601549634545485,65.54268946421845],[22.600743526106733,65.54291054243485],[22.600639278461927,65.54255481059297]],[[22.58459466799041,65.59191252527683],[22.584542535725365,65.59173465383954],[22.5849724762538,65.5917130856851],[22.58459466799041,65.59191252527683]],[[22.580099918238123,65.58997210764578],[22.58052983409528,65.58995055234655],[22.58058193463295,65.5901284254845],[22.580099918238123,65.58997210764578]],[[22.58144176976204,65.59008531089653],[22.583369909852152,65.5907105552218],[22.58347415419535,65.59106629908848],[22.580686138064486,65.59048417168323],[22.58058193463295,65.5901284254845],[22.58144176976204,65.59008531089653]],[[22.581207202350466,65.59226290113348],[22.580777248978485,65.59228445873576],[22.580725141900988,65.59210658572931],[22.581207202350466,65.59226290113348]],[[22.58047773434298,65.58977267918291],[22.580907646529308,65.5897511228491],[22.580959749167057,65.58992899583562],[22.58047773434298,65.58977267918291]],[[22.57827607709212,65.58970256860084],[22.577846163079776,65.58972411748705],[22.577794082210705,65.58954624320931],[22.57827607709212,65.58970256860084]],[[22.573587388226397,65.5513141151273],[22.57401667319809,65.55129258472887],[22.574068636128402,65.55147046146797],[22.573587388226397,65.5513141151273]],[[22.573210059650346,65.55151352140867],[22.573639348280448,65.55149199204314],[22.57369130911665,65.55166986893327],[22.573210059650346,65.55151352140867]],[[22.57170361896155,65.54635507531562],[22.571274412944575,65.54637659834782],[22.57122248131563,65.54619872033518],[22.57170361896155,65.54635507531562]],[[22.570194490033597,65.54715267410211],[22.5697652693896,65.54717419300326],[22.569661423662577,65.54681843574431],[22.570194490033597,65.54715267410211]],[[22.57011854920127,65.59462330569819],[22.568880568549446,65.59486575986827],[22.568346502424202,65.59453152696277],[22.567590540171658,65.59493032580217],[22.568516360992376,65.59362061432314],[22.569428368643816,65.59375544444167],[22.57011854920127,65.59462330569819]],[[22.559732023931687,65.59640627999683],[22.561400204349795,65.59614239665484],[22.561504174611624,65.5964981584037],[22.560266020900475,65.5967405439596],[22.559732023931687,65.59640627999683]],[[22.55918524531154,65.58109285546702],[22.55923717868626,65.58127073762157],[22.558807384891956,65.5812922312721],[22.55918524531154,65.58109285546702]],[[22.558207430308276,65.58222462797656],[22.558259359726577,65.58240251050734],[22.557829546279866,65.58242400158309],[22.558207430308276,65.58222462797656]],[[22.55747305521256,65.54833136607506],[22.557043802514823,65.54835284922106],[22.556940124639166,65.54799708152755],[22.55747305521256,65.54833136607506]],[[22.5538573896798,65.5822615981304],[22.55342757417789,65.58228307673828],[22.553375678051253,65.58210519221454],[22.5538573896798,65.5822615981304]],[[22.55245533097555,65.55652340256513],[22.552025938423608,65.55654487290177],[22.551974113672653,65.55636698719445],[22.55245533097555,65.55652340256513]],[[22.54725742168643,65.56111463908623],[22.546827948342116,65.56113609549942],[22.54677614804743,65.56095820776112],[22.54725742168643,65.56111463908623]],[[22.545968999313292,65.56117900469471],[22.54553952362888,65.56120045747683],[22.54548773197228,65.56102256921004],[22.545968999313292,65.56117900469471]],[[22.544784144055445,65.56159913657167],[22.545213627058665,65.561577685858],[22.54526541817565,65.56175557422446],[22.544784144055445,65.56159913657167]],[[22.54448980497614,65.58453418223272],[22.544059942646598,65.58455563473792],[22.54400810505137,65.58437774641287],[22.54448980497614,65.58453418223272]],[[22.540206521642922,65.58330409256537],[22.540154713376594,65.58312620262647],[22.540584555989827,65.58310476140056],[22.540206521642922,65.58330409256537]],[[22.53783460388958,65.58414427926178],[22.537404741385732,65.5841657128868],[22.537352950191934,65.58398782181676],[22.53783460388958,65.58414427926178]],[[22.535617876383256,65.58551810577704],[22.536047762988044,65.58549667697797],[22.536099548885023,65.58567456854867],[22.535617876383256,65.58551810577704]],[[22.536099548885023,65.58567456854867],[22.536581227158074,65.58583102973087],[22.536151335562614,65.58585246009395],[22.536099548885023,65.58567456854867]],[[22.53580446566909,65.58316265651965],[22.535374617353973,65.58318408424132],[22.535322842383597,65.58300619231412],[22.53580446566909,65.58316265651965]],[[22.535156695217147,65.58842865824973],[22.535208482060444,65.58860655011742],[22.534778543271248,65.58862797706266],[22.535156695217147,65.58842865824973]],[[22.53106020834322,65.58484285920069],[22.53149008832317,65.58482144339969],[22.531541841462516,65.58499933685819],[22.53106020834322,65.58484285920069]],[[22.531541841462516,65.58499933685819],[22.532453364543883,65.58513439434984],[22.531593595381942,65.58517723029121],[22.531541841462516,65.58499933685819]],[[22.534602773794585,65.5850272832901],[22.53518798899793,65.58553953336433],[22.53389832215915,65.58560380885542],[22.532453364543883,65.58513439434984],[22.534602773794585,65.5850272832901]],[[22.535013846582594,65.56695953555462],[22.534584264762266,65.56698095833612],[22.534532534024848,65.56680306570252],[22.535013846582594,65.56695953555462]],[[22.516378720765527,65.59586017117337],[22.517238873009784,65.59581741770656],[22.517290555108858,65.59599531675178],[22.516378720765527,65.59586017117337]],[[22.518529095530912,65.59575327841266],[22.517565580325655,65.59544024133935],[22.516275370459866,65.59550437230389],[22.516292048032618,65.59405980144153],[22.515173635476806,65.5932130494588],[22.516463735036808,65.59314892898426],[22.51716877363014,65.59257247856448],[22.51883716995994,65.59230906156301],[22.52035044999785,65.59151193300818],[22.521692151578076,65.5916256668161],[22.521967041387445,65.59107058479037],[22.52325701457247,65.59100640776289],[22.52439182431262,65.59040853118228],[22.525251780536323,65.59036573421862],[22.525904823127537,65.58961135000693],[22.528054634501462,65.5895043277829],[22.52832936777785,65.58894923580205],[22.530049165075887,65.58886359346906],[22.530582624975423,65.58919796738797],[22.531820714423052,65.58895582499456],[22.53209536164735,65.5884007270566],[22.53032384951364,65.58830849836664],[22.530220344790354,65.58795271058007],[22.529308732707968,65.58781764055144],[22.530598522874254,65.58775340287926],[22.53070203180991,65.58810919036473],[22.53161366097612,65.58824425183873],[22.53333339866821,65.58815857283395],[22.53183654406263,65.58751126104664],[22.533126311525972,65.58744700208757],[22.534089706154468,65.5877599414418],[22.534882113527114,65.58898376107393],[22.53402222206097,65.58902661203281],[22.533799390398055,65.58975960552432],[22.532887696947537,65.58962455784824],[22.53304302191258,65.5901582360863],[22.532131318005195,65.59002318396499],[22.532716603452645,65.5905354428849],[22.531426681750826,65.59059969991391],[22.531685522370072,65.59148916640157],[22.530017317015826,65.59175272291637],[22.52850432598132,65.59254994507776],[22.52833306511172,65.59346082686194],[22.527042985384746,65.59352504817207],[22.527146473402873,65.59388083830432],[22.52552980110996,65.59432224259113],[22.52482490528829,65.5948987304672],[22.52272634963481,65.59518360836005],[22.521591298447827,65.59578147491092],[22.522124798579508,65.59611587820497],[22.521264646154062,65.59615865940127],[22.52012951931545,65.59675651576923],[22.51760066407064,65.59706271049039],[22.517290555108858,65.59599531675178],[22.518529095530912,65.59575327841266]],[[22.534136834822057,65.5834262525663],[22.534670230665295,65.58376061273493],[22.53381051126192,65.58380346075293],[22.533328887504307,65.58364699021325],[22.534136834822057,65.5834262525663]],[[22.5338826021666,65.58704837190027],[22.53345268779221,65.58706979483692],[22.533400916632477,65.58689190221186],[22.5338826021666,65.58704837190027]],[[22.53207434600928,65.56584279895607],[22.531060099559568,65.56535194411185],[22.53186750716594,65.56513122403885],[22.531970925029885,65.56548701154829],[22.532830043825,65.56544418004823],[22.53207434600928,65.56584279895607]],[[22.531406620014216,65.58753267827582],[22.5313548617244,65.58735478482151],[22.531784782886625,65.58733336776834],[22.531406620014216,65.58753267827582]],[[22.529138683277264,65.56923759452314],[22.5290869843109,65.56905969970683],[22.529516605852017,65.56903829211801],[22.529138683277264,65.56923759452314]],[[22.52868600607294,65.56168038157415],[22.528256504983325,65.56170178558718],[22.528204830072145,65.56152389023121],[22.52868600607294,65.56168038157415]],[[22.528500608342725,65.58803835424173],[22.528070672280744,65.58805976212719],[22.528018935521214,65.58788186731594],[22.528500608342725,65.58803835424173]],[[22.527775331084257,65.56154529285797],[22.5273458313182,65.56156669427422],[22.527294162945143,65.56138879854134],[22.527775331084257,65.56154529285797]],[[22.52593778192926,65.56271966591574],[22.527003498378292,65.56338845292217],[22.52336064463488,65.56284802626466],[22.52593778192926,65.56271966591574]],[[22.525940791662915,65.5672312635516],[22.52576955530655,65.5681421421079],[22.52291722979045,65.56882558681922],[22.521799738931296,65.56797887450034],[22.52245235824027,65.56722450949874],[22.525940791662915,65.5672312635516]],[[22.5244983107626,65.5952759213428],[22.524068251173208,65.59529731911837],[22.524016524417906,65.59511942283548],[22.5244983107626,65.5952759213428]],[[22.524315063052246,65.57814040599915],[22.523885286227507,65.57816180040132],[22.52383360177009,65.57798390363978],[22.524315063052246,65.57814040599915]],[[22.52407574825702,65.58031795485928],[22.523645935261655,65.58033934894779],[22.523594247225933,65.58016145213938],[22.52407574825702,65.58031795485928]],[[22.52377382655049,65.56427120405172],[22.522914728473207,65.56431398396052],[22.52281143984981,65.56395818896335],[22.523618877497963,65.5637375125719],[22.52377382655049,65.56427120405172]],[[22.522485178267743,65.5643353720989],[22.522055627284445,65.56435675902657],[22.522003988345368,65.56417886118936],[22.522485178267743,65.5643353720989]],[[22.52092186522393,65.56495460748546],[22.521351427183202,65.56493322366302],[22.521403063471574,65.56511112175004],[22.52092186522393,65.56495460748546]],[[22.521403063471574,65.56511112175004],[22.521884267481237,65.5652676344272],[22.521454700537706,65.56528901981166],[22.521403063471574,65.56511112175004]],[[22.51474360073213,65.59323442052559],[22.514313565208532,65.59325579038003],[22.514261910017197,65.59307789005055],[22.51474360073213,65.59323442052559]],[[22.514331651053674,65.5963228341466],[22.5139015640893,65.59634420335004],[22.513849904320956,65.59616630292452],[22.514331651053674,65.5963228341466]],[[22.51138961666932,65.59520572152078],[22.511441257320634,65.59538362297654],[22.51101118301549,65.59540498385098],[22.51138961666932,65.59520572152078]],[[22.5109079082689,65.59504918056297],[22.510959545252856,65.59522708221965],[22.510529473057705,65.595248441706],[22.5109079082689,65.59504918056297]],[[22.50880917649117,65.59533386752638],[22.50870593218848,65.59497806243198],[22.510426205645707,65.59489263801612],[22.50880917649117,65.59533386752638]],[[22.507467332017857,65.59522002109905],[22.507037256483567,65.59524137070974],[22.5069856462763,65.59506346744782],[22.507467332017857,65.59522002109905]],[[22.50633192103869,65.59581777698052],[22.50590183450306,65.59583912348006],[22.50585023062758,65.59566121976758],[22.50633192103869,65.59581777698052]],[[22.40709788148099,65.59204889392855],[22.40666775971358,65.59206995918365],[22.406616843148946,65.59189201504427],[22.40709788148099,65.59204889392855]],[[22.406265745478557,65.5937135853125],[22.40583559538929,65.59373464848713],[22.405784680586102,65.59355670405101],[22.406265745478557,65.5937135853125]]],[[[22.470749767551595,65.63925086141518],[22.470834773901846,65.6390801954641],[22.46850160748662,65.63936145441183],[22.470749767551595,65.63925086141518]]],[[[22.56964191827505,65.56214538150482],[22.571085106947898,65.5606441837141],[22.573232304657434,65.56053654714655],[22.575171513794682,65.55971737622487],[22.577370620266205,65.55978755786714],[22.579385008920976,65.55890172680114],[22.579091053416057,65.55789639671353],[22.578568163924302,65.55792263467438],[22.57896592108849,65.55746844319091],[22.577872207467337,65.553727934195],[22.57431490016493,65.5538043896148],[22.57318280921387,65.55440261215891],[22.572635899966194,65.55551293187354],[22.571829145429618,65.55573386263627],[22.57236242883492,65.55606809116047],[22.570319493057124,65.55653146804704],[22.570527298981617,65.55724298046013],[22.567351845596775,65.55830451587168],[22.567559587582434,65.55901603301551],[22.56857425436849,65.5595066390236],[22.569914480820028,65.55961996083816],[22.570018391546053,65.55997571728464],[22.567493727436243,65.56028270171274],[22.56775343549528,65.56117209755269],[22.566087547623415,65.56143602750868],[22.56592061008952,65.56233157878823],[22.56964191827505,65.56214538150482]]],[[[22.394918565511365,65.59946180492005],[22.395973523211822,65.59890852887754],[22.396200323192538,65.59817570011715],[22.39446394563194,65.59787078107881],[22.394918565511365,65.59946180492005]]],[[[22.551863276908847,65.54103200253891],[22.55143413872907,65.54105346860757],[22.551485923086098,65.54123135489826],[22.551863276908847,65.54103200253891]]],[[[22.536508811423307,65.58258612316804],[22.536560593487764,65.58276401461788],[22.536990433691656,65.58274258361345],[22.536508811423307,65.58258612316804]]]]}},{"type":"Feature","properties":{"cyano_daymap_file_id":2905,"date":"2005-07-17Z","cloud":null,"sub_surfac":null,"surface":null,"no_data":null,"class":1,"color_hex":null,"algae_class":"class_1","source_date":"2005-07-17"},"geometry":{"type":"Polygon","coordinates":[[[22.78712413,65.30735858],[22.781846229999996,65.28957912],[22.80308605,65.28847399000001],[22.797801980000003,65.27069516000002],[22.7765762,65.27179939],[22.771314,65.2540194],[22.792525779999995,65.25291606],[22.789890619999994,65.24402640999999],[22.683847209999993,65.24951106999998],[22.69165349,65.27618650999999],[22.67041796,65.27727583],[22.673016899999993,65.28616794999999],[22.65177241,65.28725473],[22.654366269999993,65.29614723999998],[22.69686738,65.29396981],[22.69947724,65.30286136000001],[22.76323538999999,65.29957147999998],[22.765868289999997,65.30846163],[22.78712413,65.30735858]]]}},{"type":"Feature","properties":{"cyano_daymap_file_id":2905,"date":"2005-07-17Z","cloud":null,"sub_surfac":null,"surface":null,"no_data":null,"class":1,"color_hex":null,"algae_class":"class_1","source_date":"2005-07-17"},"geometry":{"type":"MultiPolygon","coordinates":[[[[23.00678321,65.17838891],[23.00948314,65.18727397],[23.03062931,65.18613768],[23.033338179999998,65.19502220999999],[23.043262910970828,65.19448670160818],[23.0286527983404,65.1826346123978],[23.021358480969095,65.17760471319305],[23.00678321,65.17838891]]],[[[23.04691275,65.23944379],[23.044193799999995,65.23055962],[23.02301285,65.23169820999999],[23.02843882,65.24946741],[22.98604299,65.25173752],[22.991449090000003,65.26950829],[23.05508172,65.2660959],[23.05235671,65.25721193],[23.07355655,65.25606898],[23.07628855,65.26495248000002],[23.088093052971608,65.26431429599631],[23.083434648887803,65.24793025256493],[23.07852594320664,65.2377373841783],[23.04691275,65.23944379]]]]}},{"type":"Feature","properties":{"cyano_daymap_file_id":2905,"date":"2005-07-17Z","cloud":null,"sub_surfac":null,"surface":null,"no_data":null,"class":1,"color_hex":null,"algae_class":"class_1","source_date":"2005-07-17"},"geometry":{"type":"Polygon","coordinates":[[[22.374188970000002,65.21998076],[22.36672232,65.19328559],[22.409086680000005,65.19119102],[22.414090570000003,65.20898616],[22.435283949999995,65.20793355999999],[22.432774079999994,65.19903644999998],[22.453958599999996,65.19798129],[22.45144361,65.18908455],[22.47261927,65.18802685],[22.46255008,65.15244096],[22.42025267,65.15454996],[22.41775395,65.14565248],[22.39660943,65.14670209],[22.39910117,65.1556],[22.35679265,65.15769117],[22.3617538,65.1754885],[22.34058282,65.17653047],[22.34305918,65.18542946],[22.321879369999998,65.18646888],[22.324350579999997,65.19536823999998],[22.303161950000003,65.1964051],[22.30562799,65.20530482],[22.263231230000002,65.20737044],[22.2656851,65.21627094],[22.286891399999995,65.2152392],[22.289354099999994,65.22413922],[22.374188970000002,65.21998076]]]}},{"type":"Feature","properties":{"cyano_daymap_file_id":2905,"date":"2005-07-17Z","cloud":null,"sub_surfac":null,"surface":null,"no_data":null,"class":1,"color_hex":null,"algae_class":"class_1","source_date":"2005-07-17"},"geometry":{"type":"Polygon","coordinates":[[[22.87194312,65.15847775999998],[22.86929276,65.14958969],[22.89041616,65.14847348],[22.893073449999996,65.15736109],[22.93532819,65.15511888],[22.92998786,65.1373454],[22.94366321998446,65.13661586490961],[22.924360538612298,65.1290836625267],[22.8985886497093,65.1203780521599],[22.880434090128908,65.11502469457426],[22.88245607,65.12181023],[22.861353449999992,65.12292508999998],[22.85871092,65.11403675],[22.83761326,65.1151482],[22.840248869999996,65.12403697999999],[22.81914233,65.12514592],[22.82177297,65.13403509],[22.800657559999998,65.13514150999998],[22.80328322,65.14403106000002],[22.761032719999996,65.14623589999998],[22.76364644,65.15512628],[22.80591082,65.15292054],[22.808540369999996,65.16180996],[22.87194312,65.15847775999998]]]}}]}